"chainid","lastupdatedate","subchainid","storeid","bikoretno","storetype","chainname","subchainname","storename","address","city","zipcode","xmldocversion","lastupdatetime"
"7290725900003","2015-06-09 17:24:52","0","001","0","1","יינות ביתן מרכז הרשת","","01 חאן","הרצל 33","אשקלון","78601",NA,NA
"7290725900003","2015-06-09 17:24:52","0","003","0","1","יינות ביתן מרכז הרשת","","03 ראשלצ","שמוטקין 29","ראשון לציון","7536332",NA,NA
"7290725900003","2015-06-09 17:24:52","0","004","0","1","יינות ביתן מרכז הרשת","","04 צפוני","הפנינים 38 ת.ד 125","אשקלון","7810101",NA,NA
"7290725900003","2015-06-09 17:24:52","0","005","0","1","יינות ביתן מרכז הרשת","","05 חולון ביתן","דוד שאלתיאל 16","חולון","5845116",NA,NA
"7290725900003","2015-06-09 17:24:52","0","006","0","1","יינות ביתן מרכז הרשת","","06 א.ת אשדוד","האורגים 13","אשדוד","7760924",NA,NA
"7290725900003","2015-06-09 17:24:52","0","007","0","1","יינות ביתן מרכז הרשת","","07 סיטי אשדוד","הבנים 3","אשדוד","7744402",NA,NA
"7290725900003","2015-06-09 17:24:52","0","008","0","1","יינות ביתן מרכז הרשת","","08 כ-חנ קריית שמונה","שדרות תל חי 93","קריית שמונה","1103021",NA,NA
"7290725900003","2015-06-09 17:24:52","0","009","0","1","יינות ביתן מרכז הרשת","","09 רעננה","זרחין 12","רעננה","4366240",NA,NA
"7290725900003","2015-06-09 17:24:52","0","010","0","1","יינות ביתן מרכז הרשת","","10 כפר סבא","","","",NA,NA
"7290725900003","2015-06-09 17:24:52","0","011","0","1","יינות ביתן מרכז הרשת","","11 ראש העין","המרץ 13","ראש העין","4801713",NA,NA
"7290725900003","2015-06-09 17:24:52","0","012","0","1","יינות ביתן מרכז הרשת","","12 פתח תקוה","בר כוכבא 63","פתח תקווה","4922055",NA,NA
"7290725900003","2015-06-09 17:24:52","0","013","0","1","יינות ביתן מרכז הרשת","","13 אייר פורט סיטי","","","",NA,NA
"7290725900003","2015-06-09 17:24:52","0","014","0","1","יינות ביתן מרכז הרשת","","14 אלפי מנשה","חלוצי התעשייה 9","אלפי מנשה","4485100",NA,NA
"7290725900003","2015-06-09 17:24:52","0","015","0","1","יינות ביתן מרכז הרשת","","15 נתניה","הפלדה 13","נתניה","4237823",NA,NA
"7290725900003","2015-06-09 17:24:52","0","016","0","1","יינות ביתן מרכז הרשת","","16 מעלה אדומים","צמח השדה 29","מעלה אדומים","9853636",NA,NA
"7290725900003","2015-06-09 17:24:52","0","017","0","1","יינות ביתן מרכז הרשת","","17 חולון הסיירים","המרכבה 73","חולון","5885140",NA,NA
"7290725900003","2015-06-09 17:24:52","0","018","0","1","יינות ביתן מרכז הרשת","","18 חדרה","צהל","חדרה","3822013",NA,NA
"7290725900003","2015-06-09 17:24:52","0","019","0","1","יינות ביתן מרכז הרשת","","19 תל מונד","בני דרור","תל מונד","0",NA,NA
"7290725900003","2015-06-09 17:24:52","0","020","0","1","יינות ביתן מרכז הרשת","","20 הרצלה א.תעשיה","החושלים 3","הרצליה","4672403",NA,NA
"7290725900003","2015-06-09 17:24:52","0","021","0","1","יינות ביתן מרכז הרשת","","21 ראשלצ לישנסקי","לישנסקי 18","ראשון לציון","7565033",NA,NA
"7290725900003","2015-06-09 17:24:52","0","022","0","1","יינות ביתן מרכז הרשת","","22 רחובות שוק","האלוף יעקב פרי 1","רחובות","0",NA,NA
"7290725900003","2015-06-09 17:24:52","0","030","0","1","יינות ביתן מרכז הרשת","","30 אילת","חטיבת גולני 41","אילת","8852607",NA,NA
"7290725900003","2015-06-09 17:24:52","0","031","0","1","יינות ביתן מרכז הרשת","","31 אילת צפוני","ברקת 13","אילת","8854038",NA,NA
"7290725900003","2015-06-09 17:24:52","0","033","0","1","יינות ביתן מרכז הרשת","","33 כ-חנ בית שמש","יגאל אלון 1","בית שמש","9906201",NA,NA
"7290725900003","2015-06-09 17:24:52","0","034","0","1","יינות ביתן מרכז הרשת","","34 כ-חנ רחובות","אופמהיימר 10","רחובות","7670110",NA,NA
"7290725900003","2015-06-09 17:24:52","0","035","0","1","יינות ביתן מרכז הרשת","","35 כ-חנ ירקונים","ירקונים 50","פתח תקווה","4927134",NA,NA
"7290725900003","2015-06-09 17:24:52","0","036","0","1","יינות ביתן מרכז הרשת","","36 כ-חנ עפולה","קהילת ציון 1","עפולה","1830101",NA,NA
"7290725900003","2015-06-09 17:24:52","0","037","0","1","יינות ביתן מרכז הרשת","","37 כ-חנ אור יהודה","המפעל 13","אור יהודה","6022113",NA,NA
"7290725900003","2015-06-09 17:24:52","0","038","0","1","יינות ביתן מרכז הרשת","","38 כ-חנ טבריה","יהודה הלוי 113","טבריה","1421636",NA,NA
"7290725900003","2015-06-09 17:24:52","0","039","0","1","יינות ביתן מרכז הרשת","","39 כ-חנ נצרת","שכונת דיר אל חלאט","נצרת תחתית","1600000",NA,NA
"7290725900003","2015-06-09 17:24:52","0","040","0","1","יינות ביתן מרכז הרשת","","40 כ-חנ מודיעין","","","",NA,NA
"7290725900003","2015-06-09 17:24:52","0","041","0","1","יינות ביתן מרכז הרשת","","41 כ-חנ אור עקיבא","האילן 2","אור עקיבא","3060000",NA,NA
"7290725900003","2015-06-09 17:24:52","0","042","0","1","יינות ביתן מרכז הרשת","","42 כ-חנ קריית אתא","ההסתדרות 247","קריית אתא","2620237",NA,NA
"7290725900003","2015-06-09 17:24:52","0","043","0","1","יינות ביתן מרכז הרשת","","43 כ-חנ נתיבות","בעלי המלאכה 11","נתיבות","85200",NA,NA
"7290725900003","2015-06-09 17:24:52","0","044","0","1","יינות ביתן מרכז הרשת","","44 כ-חנ מעלות","שלמה  שרירא 3","מעלות","2105209",NA,NA
"7290725900003","2015-06-09 17:24:52","0","045","0","1","יינות ביתן מרכז הרשת","","45 כ-חנ כרמיאל","היוצרים 15","כרמיאל","2165241",NA,NA
"7290725900003","2015-06-09 17:24:52","0","046","0","1","יינות ביתן מרכז הרשת","","46 כ-חנ רמלה","קלאוזנר 10","רמלה","7243224",NA,NA
"7290725900003","2015-06-09 17:24:52","0","047","0","1","יינות ביתן מרכז הרשת","","47 כ-חנ תל אביב","נחלת יצחק 20","תל אביב","6744818",NA,NA
"7290725900003","2015-06-09 17:24:52","0","048","0","1","יינות ביתן מרכז הרשת","","48 כ-חנ אשדוד","גיא אוני 1","אשדוד","7764449",NA,NA
"7290725900003","2015-06-09 17:24:52","0","049","0","1","יינות ביתן מרכז הרשת","","49 כ-חנ טירת הכרמל","קרן היסוד 2","טירת הכרמל","3902621",NA,NA
"7290725900003","2015-06-09 17:24:52","0","052","0","1","יינות ביתן מרכז הרשת","","52 כ-חנ יבנה","המיסב 7","יבנה","8121307",NA,NA
"7290725900003","2015-06-09 17:24:52","0","053","0","1","יינות ביתן מרכז הרשת","","53 כמ-חנ נהריה","הגדוד העברי 21","נהריה","2226908",NA,NA
"7290725900003","2015-06-09 17:24:52","0","055","0","1","יינות ביתן מרכז הרשת","","55 כ-חנ דליית אל כרמל","דרך ראשית 672","דליית אל כרמל","3005600",NA,NA
"7290725900003","2015-06-09 17:24:52","0","056","0","1","יינות ביתן מרכז הרשת","","56 כ-חנ ערד","התעשיה 60","ערד","8909424",NA,NA
"7290725900003","2015-06-09 17:24:52","0","057","0","1","יינות ביתן מרכז הרשת","","57 כ-חנ בית שאן","א.ת צפוני","בית שאן","1172504",NA,NA
"7290725900003","2015-06-09 17:24:52","0","060","0","1","יינות ביתן מרכז הרשת","","60 בסיטי אשדוד","","","",NA,NA
"7290725900003","2015-06-09 17:24:52","0","061","0","1","יינות ביתן מרכז הרשת","","61 בסיטי נתניה","הארי 12","נתניה","4252611",NA,NA
"7290725900003","2015-06-09 17:24:52","0","062","0","1","יינות ביתן מרכז הרשת","","62 בסיטי מודיעין","עמק החולה 76","מודיעין","7170399",NA,NA
"7290725900003","2015-06-09 17:24:52","0","063","0","1","יינות ביתן מרכז הרשת","","63 בסיטי קרית ראשון","החלמונית 29","ראשון לציון","7542033",NA,NA
"7290725900003","2015-06-09 17:24:52","0","064","0","1","יינות ביתן מרכז הרשת","","64 הרצליה ליד הבית","רבי עקיבא 50","הרצליה","4642360",NA,NA
"7290725900003","2015-06-09 17:24:52","0","065","0","1","יינות ביתן מרכז הרשת","","65 בסיטי אשקלון","קיבוץ גלויות 5","אשקלון","7834104",NA,NA
"7290725900003","2015-06-09 17:24:52","0","067","0","1","יינות ביתן מרכז הרשת","","67 חולון ליד הבית","המרגנית 2","חולון","5845909",NA,NA
"7290725900003","2015-06-09 17:24:52","0","071","0","1","יינות ביתן מרכז הרשת","","71 כ-חנ כוכב יאיר","דרך המרכז","4","4486400",NA,NA
"7290725900003","2015-06-09 17:24:52","0","072","0","1","יינות ביתן מרכז הרשת","","72 כ-חנ מגדל העמק","רמת יזראעל 11","מגדל העמק","38830",NA,NA
"7290725900003","2015-06-09 17:24:52","0","073","0","1","יינות ביתן מרכז הרשת","","73 כ-חנ עתלית","רחוב הרדוף","עתלית","3030000",NA,NA
"7290725900003","2015-06-09 17:24:52","0","074","0","1","יינות ביתן מרכז הרשת","","74 כ-חנ רמלה לוין","אבא אחימאיר 1","רמלה לוין","7228401",NA,NA
"7290725900003","2015-06-09 17:24:52","0","075","0","1","יינות ביתן מרכז הרשת","","75 כ-חנ קרית ביאליק","שדרות חן 1","קריית ביאליק","2750901",NA,NA
"7290725900003","2015-06-09 17:24:52","0","076","0","1","יינות ביתן מרכז הרשת","","76 כ-חנ תל ציון","אהבת ציון פינת קהילת יעקב","תל ציון","9062200",NA,NA
"7290725900003","2015-06-09 17:24:52","0","077","0","1","יינות ביתן מרכז הרשת","","77 כ-חנ כוכב יעקב","הכסף 1","כוכב יעקב","9062200",NA,NA
"7290725900003","2015-06-09 17:24:52","0","078","0","1","יינות ביתן מרכז הרשת","","78 כ-חנ בית אל","הראיה 34","בית אל","9063100",NA,NA
"7290725900003","2015-06-09 17:24:52","0","079","0","1","יינות ביתן מרכז הרשת","","79 כ-חנ פ``ת  לב סביונים","חיה פינשטיין 11","פתח תקווה","4956970",NA,NA
"7290725900003","2015-06-09 17:24:52","0","080","0","1","יינות ביתן מרכז הרשת","","80 כ-חנ טבעון","קק""ל 16","קרית טבעון","3608208",NA,NA
"7290725900003","2015-06-09 17:24:52","0","081","0","1","יינות ביתן מרכז הרשת","","81 כ-חנ ראשון מערב","השירה העברית 10","ראשון לציון","7573105",NA,NA
"7290725900003","2015-06-09 17:24:52","0","082","0","1","יינות ביתן מרכז הרשת","","82 כ-חנ נצרת עלית","היצירה 12","נצרת עלית","1700000",NA,NA
"7290725900003","2015-06-09 17:24:52","0","083","0","1","יינות ביתן מרכז הרשת","","83 כ-חנ צור יצחק","נחל קנה 9","צור יצחק","4580800",NA,NA
"7290725900003","2015-06-09 17:24:52","0","084","0","1","יינות ביתן מרכז הרשת","","84 כ-חנ מתן","הדר 84","מתן","4585800",NA,NA
"7290725900003","2015-06-09 17:24:52","0","090","0","1","יינות ביתן מרכז הרשת","","90 ירושלים נווה יעקב","גדליה נוימן","6","9355506",NA,NA
"7290725900003","2015-06-09 17:24:52","0","091","0","1","יינות ביתן מרכז הרשת","","91 ירושלים ריינס","ריינס 6 שכונת קרית משה","ירושלים","9542731",NA,NA
"7290725900003","2015-06-09 17:24:52","0","099","0","2","יינות ביתן מרכז הרשת","","99 אתר אינטרנט מי סופר מרקט","www.ybitan.co.il","","0",NA,NA
"7290725900003","2015-06-09 17:24:52","0","101","0","1","יינות ביתן מרכז הרשת","","101 טופ מרקט שלומציון","","","",NA,NA
"7290725900003","2015-06-09 17:24:52","0","102","0","1","יינות ביתן מרכז הרשת","","102 טופ מרקט ת-מרכזית","","","",NA,NA
"7290058140886","2015-07-05",NA,"1","6","1","רמי לוי שיווק השקמה",NA,"תלפיות","האומן,15","ירושלים","unknown","00000","20:05:00"
"7290058140886","2015-07-05",NA,"2","5","1","רמי לוי שיווק השקמה",NA,"בזק מחסני מזון","יד חרוצים","ירושלים","unknown","00000","20:05:00"
"7290058140886","2015-07-05",NA,"3","4","1","רמי לוי שיווק השקמה",NA,"רמות","דרך החורש","ירושלים","unknown","00000","20:05:00"
"7290058140886","2015-07-05",NA,"5","2","1","רמי לוי שיווק השקמה",NA,"רב מכר","הפרסה 3","ירושלים","unknown","00000","20:05:00"
"7290058140886","2015-07-05",NA,"6","1","1","רמי לוי שיווק השקמה",NA,"מישור אדומים","מישור אדומים","מעלה אדומים","unknown","00000","20:05:00"
"7290058140886","2015-07-05",NA,"8","9","1","רמי לוי שיווק השקמה",NA,"שער בנימין","מטה בנמין","ירושלים","unknown","00000","20:05:00"
"7290058140886","2015-07-05",NA,"9","8","1","רמי לוי שיווק השקמה",NA,"קסיטנה","צומת קסיטנה","קרית מלאכי","unknown","00000","20:05:00"
"7290058140886","2015-07-05",NA,"10","4","1","רמי לוי שיווק השקמה",NA,"מודיעין חדש","unknown","unknown","unknown","00000","20:05:00"
"7290058140886","2015-07-05",NA,"11","3","1","רמי לוי שיווק השקמה",NA,"עפולה","unknown","unknown","unknown","00000","20:05:00"
"7290058140886","2015-07-05",NA,"12","2","1","רמי לוי שיווק השקמה",NA,"ביתר עלית","ביתר עלית","ירושלים","unknown","00000","20:05:00"
"7290058140886","2015-07-05",NA,"13","1","1","רמי לוי שיווק השקמה",NA,"גבעת שאול","unknown","unknown","unknown","00000","20:05:00"
"7290058140886","2015-07-05",NA,"14","0","1","רמי לוי שיווק השקמה",NA,"טבריה","unknown","unknown","unknown","00000","20:05:00"
"7290058140886","2015-07-05",NA,"15","9","1","רמי לוי שיווק השקמה",NA,"נשר","unknown","unknown","unknown","00000","20:05:00"
"7290058140886","2015-07-05",NA,"16","8","1","רמי לוי שיווק השקמה",NA,"רמת גן  איילון","unknown","unknown","unknown","00000","20:05:00"
"7290058140886","2015-07-05",NA,"17","7","1","רמי לוי שיווק השקמה",NA,"ראש העין","unknown","unknown","unknown","00000","20:05:00"
"7290058140886","2015-07-05",NA,"19","5","1","רמי לוי שיווק השקמה",NA,"אדמרליטי","unknown","unknown","unknown","00000","20:05:00"
"7290058140886","2015-07-05",NA,"20","1","1","רמי לוי שיווק השקמה",NA,"זכרון יעקב","unknown","unknown","unknown","00000","20:05:00"
"7290058140886","2015-07-05",NA,"22","9","1","רמי לוי שיווק השקמה",NA,"כנפי נשרים","unknown","unknown","unknown","00000","20:05:00"
"7290058140886","2015-07-05",NA,"23","8","1","רמי לוי שיווק השקמה",NA,"גוש עציון","unknown","unknown","unknown","00000","20:05:00"
"7290058140886","2015-07-05",NA,"24","7","1","רמי לוי שיווק השקמה",NA,"נתניה","unknown","unknown","unknown","00000","20:05:00"
"7290058140886","2015-07-05",NA,"25","6","1","רמי לוי שיווק השקמה",NA,"מודעין ישפרו","unknown","unknown","unknown","00000","20:05:00"
"7290058140886","2015-07-05",NA,"26","5","1","רמי לוי שיווק השקמה",NA,"אשדוד","unknown","unknown","unknown","00000","20:05:00"
"7290058140886","2015-07-05",NA,"27","4","1","רמי לוי שיווק השקמה",NA,"באר שבע","unknown","unknown","unknown","00000","20:05:00"
"7290058140886","2015-07-05",NA,"28","3","1","רמי לוי שיווק השקמה",NA,"עכו","unknown","unknown","unknown","00000","20:05:00"
"7290058140886","2015-07-05",NA,"29","2","1","רמי לוי שיווק השקמה",NA,"פרדס חנה ביג","unknown","unknown","unknown","00000","20:05:00"
"7290058140886","2015-07-05",NA,"30","8","1","רמי לוי שיווק השקמה",NA,"קדימה","unknown","unknown","unknown","00000","20:05:00"
"7290058140886","2015-07-05",NA,"31","7","1","רמי לוי שיווק השקמה",NA,"נתיבות","unknown","unknown","unknown","00000","20:05:00"
"7290058140886","2015-07-05",NA,"32","6","1","רמי לוי שיווק השקמה",NA,"נהריה","unknown","unknown","unknown","00000","20:05:00"
"7290058140886","2015-07-05",NA,"33","5","1","רמי לוי שיווק השקמה",NA,"כפר סבא","unknown","unknown","unknown","00000","20:05:00"
"7290058140886","2015-07-05",NA,"34","4","1","רמי לוי שיווק השקמה",NA,"פתח תקווה","unknown","unknown","unknown","00000","20:05:00"
"7290058140886","2015-07-05",NA,"35","3","1","רמי לוי שיווק השקמה",NA,"אשקלון","unknown","unknown","unknown","00000","20:05:00"
"7290058140886","2015-07-05",NA,"36","2","1","רמי לוי שיווק השקמה",NA,"כרמיאל","unknown","unknown","unknown","00000","20:05:00"
"7290058140886","2015-07-05",NA,"37","1","1","רמי לוי שיווק השקמה",NA,"נתניה חדש","unknown","unknown","unknown","00000","20:05:00"
"7290058140886","2015-07-05",NA,"38","0","1","רמי לוי שיווק השקמה",NA,"קרית שמונה","unknown","unknown","unknown","00000","20:05:00"
"7290103152017","2015-07-05",NA,"1","6","1","אושר עד",NA,"מגדל העמק","האיצטדיון 11","מגדל העמק","unknown","00000","20:05:00"
"7290103152017","2015-07-05",NA,"3","4","1","אושר עד",NA,"גבעת שאול","בית הדפוס 29","ירושלים","unknown","00000","20:05:00"
"7290103152017","2015-07-05",NA,"5","2","1","אושר עד",NA,"קרית ביאליק","הנס מולר 6, צור שלום","קרית ביאליק","unknown","00000","20:05:00"
"7290103152017","2015-07-05",NA,"6","1","1","אושר עד",NA,"כנות","אדום 24 פארק התעשיות כנות","כנות","unknown","00000","20:05:00"
"7290103152017","2015-07-05",NA,"9","8","1","אושר עד",NA,"אשדוד","בעלי המלאכה 4","אשדוד","unknown","00000","20:05:00"
"7290103152017","2015-07-05",NA,"10","4","1","אושר עד",NA,"פתח תקווה - סגולה","unknown","פתח תקווה","unknown","00000","20:05:00"
"7290103152017","2015-07-05",NA,"11","3","1","אושר עד",NA,"בני ברק","הקישון 11","בני ברק","unknown","00000","20:05:00"
"7290103152017","2015-07-05",NA,"13","1","1","אושר עד",NA,"באר שבע","הקוצר 15 אזור תעשיה עמק שרה","באר שבע","unknown","00000","20:05:00"
"7290103152017","2015-07-05",NA,"14","0","1","אושר עד",NA,"חדרה","המסגר 22 אזה""ת הצפוני","חדרה","unknown","00000","20:05:00"
"7290103152017","2015-07-05",NA,"16","8","1","אושר עד",NA,"בית שמש - גליל","unknown","בית שמש","unknown","00000","20:05:00"
"7290103152017","2015-07-05",NA,"20","1","1","אושר עד",NA,"לוד","בת שבע 1 מתחם טלרד","לוד","unknown","00000","20:05:00"
"7290103152017","2015-07-05",NA,"22","9","1","אושר עד",NA,"אשקלון בת הדר","unknown","אשקלון בת הדר","unknown","00000","20:05:00"
"7290103152017","2015-07-05",NA,"26","5","1","אושר עד",NA,"תלפיות","פייר קניג 26 קניון הדר","ירושלים","unknown","00000","20:05:00"
"7290103152017","2015-07-05",NA,"28","3","1","אושר עד",NA,"שמגר","שמגר 16","ירושלים","unknown","00000","20:05:00"
"7290492000005","2015-07-06",NA,"501","1","1","Dor Alon",NA,"Am-pm בן יהודה","בן יהודה 30","תל אביב","6380407","00000","07:00:00"
"7290492000005","2015-07-06",NA,"502","0","1","Dor Alon",NA,"Am-pm פינסקר","פינסקר 10","תל אביב","6332315","00000","07:00:00"
"7290492000005","2015-07-06",NA,"503","9","1","Dor Alon",NA,"Am-pm ארלוזרוב","דיזנגוף 193","תל אביב","6346232","00000","07:00:00"
"7290492000005","2015-07-06",NA,"504","8","1","Dor Alon",NA,"Am-pm נורדאו","בן יהודה 195","תל אביב","6347312","00000","07:00:00"
"7290492000005","2015-07-06",NA,"505","7","1","Dor Alon",NA,"Am-pmאלנבי","אלנבי 115","תל אביב","6581708","00000","07:00:00"
"7290492000005","2015-07-06",NA,"506","6","1","Dor Alon",NA,"Am-pm קינג גורג","קינג גורג 24","תל אביב","6326708","00000","07:00:00"
"7290492000005","2015-07-06",NA,"507","5","1","Dor Alon",NA,"Am-pm 24 שנקין","שנקין 24","תל אביב","6523132","00000","07:00:00"
"7290492000005","2015-07-06",NA,"508","4","1","Dor Alon",NA,"Am-pm  אבן גבירול","אבן גבירול 14","תל אביב","6407716","00000","07:00:00"
"7290492000005","2015-07-06",NA,"509","3","1","Dor Alon",NA,"Am-pm זמנהוף","קינג גורג 99","תל אביב","6433831","00000","07:00:00"
"7290492000005","2015-07-06",NA,"510","9","1","Dor Alon",NA,"Am-pm לינקולן","לינקולן 9","תל אביב","6522041","00000","07:00:00"
"7290492000005","2015-07-06",NA,"511","8","1","Dor Alon",NA,"Am-pm  הרצל","הרצל 91","תל אביב","6655414","00000","07:00:00"
"7290492000005","2015-07-06",NA,"512","7","1","Dor Alon",NA,"Am-pm  כל-בו שלום","אחד העם 9","תל אביב","6525101","00000","07:00:00"
"7290492000005","2015-07-06",NA,"513","6","1","Dor Alon",NA,"Am-pm פרנקל","פרנקל 15","תל אביב","6608419","00000","07:00:00"
"7290492000005","2015-07-06",NA,"514","5","1","Dor Alon",NA,"Am-pm גורדון","דיזנגוף 136","תל אביב","6346109","00000","07:00:00"
"7290492000005","2015-07-06",NA,"515","4","1","Dor Alon",NA,"Am-pm שדרות ירושלים","שדרות ירושלים 11","תל אביב","6811406","00000","07:00:00"
"7290492000005","2015-07-06",NA,"516","3","1","Dor Alon",NA,"Am-pm הרואה ר""ג","הרואה 9","תל אביב","5242223","00000","07:00:00"
"7290492000005","2015-07-06",NA,"517","2","1","Dor Alon",NA,"Am-pm זבוטינסקי ר""ג","זבוטינסקי 86","תל אביב","5244215","00000","07:00:00"
"7290492000005","2015-07-06",NA,"518","1","1","Dor Alon",NA,"Am-pm זבוטינסקי ת""א","אבן גבירול 136","תל אביב","6296601","00000","07:00:00"
"7290492000005","2015-07-06",NA,"519","0","1","Dor Alon",NA,"Am-pm נחלת יצחק","נחלת יצחק","תל אביב","6744809","00000","07:00:00"
"7290492000005","2015-07-06",NA,"521","5","1","Dor Alon",NA,"Am-pm הדר דפנה","שד שאול המלך 41","תל אביב","6473302","00000","07:00:00"
"7290492000005","2015-07-06",NA,"522","4","1","Dor Alon",NA,"Am-pmדרייב סטור","דרך  נימר 170","תל אביב","6250782","00000","07:00:00"
"7290492000005","2015-07-06",NA,"523","3","1","Dor Alon",NA,"Am-pm טופ מרקט","דיזנגוף 224","תל אביב","6311519","00000","07:00:00"
"7290492000005","2015-07-06",NA,"524","2","1","Dor Alon",NA,"Am-pm היי מרקט","בן יהודה 61","תל אביב","6340126","00000","07:00:00"
"7290492000005","2015-07-06",NA,"525","1","1","Dor Alon",NA,"Am-pm אסף הרופא","צריפין","צריפין","70300","00000","07:00:00"
"7290492000005","2015-07-06",NA,"529","7","1","Dor Alon",NA,"Am-pm בן גוריון","בן גוריון 119","בת ים","5956005","00000","07:00:00"
"7290492000005","2015-07-06",NA,"531","2","1","Dor Alon",NA,"Am-pmכצנלסון גבעתיים","כצנלסון 129","גבעיים","5327314","00000","07:00:00"
"7290492000005","2015-07-06",NA,"532","1","1","Dor Alon",NA,"Am-pm סלומון","סלומון 24","תל אביב","6811133","00000","07:00:00"
"7290492000005","2015-07-06",NA,"533","0","1","Dor Alon",NA,"Am-pm י.ל פרץ","י.ל פרץ 29","תל אביב","6685402","00000","07:00:00"
"7290492000005","2015-07-06",NA,"534","9","1","Dor Alon",NA,"Am-pm בוגרשוב","בוגרשוב 49","תל אביב","6314513","00000","07:00:00"
"7290492000005","2015-07-06",NA,"535","8","1","Dor Alon",NA,"Am-pm שנקין59","שנקין 59","תל אביב","6523313","00000","07:00:00"
"7290492000005","2015-07-06",NA,"536","7","1","Dor Alon",NA,"Am-pmזבוטינסקי 44","זבוטינסקי 44","רמת גן","5248504","00000","07:00:00"
"7290492000005","2015-07-06",NA,"537","6","1","Dor Alon",NA,"Am-pm סוקולוב","סוקולוב 10","הרצליה","4649713","00000","07:00:00"
"7290492000005","2015-07-06",NA,"538","5","1","Dor Alon",NA,"Am-pm נחלת בנימין","נחלת בנימין 85","תל אביב","6610207","00000","07:00:00"
"7290492000005","2015-07-06",NA,"540","0","1","Dor Alon",NA,"Am-pm טברסקי","יצחק שדה 35","תל אביב","6721309","00000","07:00:00"
"7290492000005","2015-07-06",NA,"542","8","1","Dor Alon",NA,"Am-pm שד יהודית","שד יהודית 16","תל אביב","6701618","00000","07:00:00"
"7290492000005","2015-07-06",NA,"543","7","1","Dor Alon",NA,"Am-pm כיכר רבין","אבן גבירול 72/74","תל אביב","6416203","00000","07:00:00"
"7290492000005","2015-07-06",NA,"544","6","1","Dor Alon",NA,"Am-pm ברודצקי","ברודצקי 15","תל אביב","6905126","00000","07:00:00"
"7290492000005","2015-07-06",NA,"545","5","1","Dor Alon",NA,"Am-pm הנשיא הרצליה","הנשיא יצחק בן צבי 75","הרצליה פיתוח","4639975","00000","07:00:00"
"7290492000005","2015-07-06",NA,"548","2","1","Dor Alon",NA,"Am-pm נווה מונסון","רחוב השקד 30","נווה מונסון","6019000","00000","07:00:00"
"7290492000005","2015-07-06",NA,"549","1","1","Dor Alon",NA,"Am-pm הוד השרון","סוקולוב 11","רמת השרון","4528440","00000","07:00:00"
"7290492000005","2015-07-06",NA,"551","6","1","Dor Alon",NA,"Am-pm הדר נס ציונה","השייטת 4","נס ציונה","7420812","00000","07:00:00"
"7290492000005","2015-07-06",NA,"553","4","1","Dor Alon",NA,"Am-pm החשמל","החשמל 11","תל אביב","6618905","00000","07:00:00"
"7290492000005","2015-07-06",NA,"554","3","1","Dor Alon",NA,"Am-pm ווינשל","וינשל 6","תל אביב","6941331","00000","07:00:00"
"7290492000005","2015-07-06",NA,"556","1","1","Dor Alon",NA,"Am- pm עליית הנוער","עליית הנוער 27","גבעתיים","5340101","00000","07:00:00"
"7290492000005","2015-07-06",NA,"557","0","1","Dor Alon",NA,"Am-pm אבן גבירול 91","אבן גבירול 91","תל אביב","6404619","00000","07:00:00"
"7290492000005","2015-07-06",NA,"558","9","1","Dor Alon",NA,"Am-pm המלכות","הרוגי המלכות 9 שיכון דן","תל אביב","6971409","00000","07:00:00"
"7290492000005","2015-07-06",NA,"647","2","1","Dor Alon",NA,"להבות חביבה","כביש 581 בין צומת הרוא""ה וצומת ברקאי","להבות חביבה","3883500","00000","07:00:00"
"7290492000005","2015-07-06",NA,"648","1","1","Dor Alon",NA,"גשר הזיו","אמצע כביש נהריה ראש הנקרה -מס 4","גשר הזיו","22815","00000","07:00:00"
"7290492000005","2015-07-06",NA,"649","0","1","Dor Alon",NA,"עינת -ב מרכולית","קיבוץ עינת ליד ראש העין","unknown","48805","00000","07:00:00"
"7290492000005","2015-07-06",NA,"655","1","1","Dor Alon",NA,"משמר השרון","צ.העוגן כביש 4 קיבוץ משמר השרון","משמר השרון","40270","00000","07:00:00"
"7290492000005","2015-07-06",NA,"656","0","1","Dor Alon",NA,"עין שמר","צומת כרכור ליד פרדס חנה כביש 65","עין שמר","37064","00000","07:00:00"
"7290492000005","2015-07-06",NA,"657","9","1","Dor Alon",NA,"עינת","קיבוץ עינת ליד ראש העין","עינת","48805","00000","07:00:00"
"7290492000005","2015-07-06",NA,"662","1","1","Dor Alon",NA,"בית השיטה-קיבוץ","צומת בית השיטה כביש 70","בית השיטה","10801","00000","07:00:00"
"7290492000005","2015-07-06",NA,"701","9","1","Dor Alon",NA,"גשר","קיבוץ גשר","קיבוץ גשר","15157","00000","07:00:00"
"7290492000005","2015-07-06",NA,"702","8","1","Dor Alon",NA,"כפר הנשיא","קיבוץ כפר הנשיא","קיבוץ כפר הנשיא","1230500","00000","07:00:00"
"7290492000005","2015-07-06",NA,"704","6","1","Dor Alon",NA,"איילת השחר","קיבוץ איילת השחר","קיבוץ איילת  השחר","12200","00000","07:00:00"
"7290492000005","2015-07-06",NA,"705","5","1","Dor Alon",NA,"שדה ורבורג","קיבוץ שדה ורבורג","קיבוץ שדה ורבורג","44935","00000","07:00:00"
"7290492000005","2015-07-06",NA,"706","4","1","Dor Alon",NA,"בית יהושוע","מושב בית יהושוע","מושב בית יהושוע","40591","00000","07:00:00"
"7290492000005","2015-07-06",NA,"707","3","1","Dor Alon",NA,"דגניה א","קיבות דגניה","קיבוץ דגניה","15120","00000","07:00:00"
"7290492000005","2015-07-06",NA,"708","2","1","Dor Alon",NA,"בן נון","קיבות בן נון","קיבוץ בן נון","99780","00000","07:00:00"
"7290492000005","2015-07-06",NA,"709","1","1","Dor Alon",NA,"נווה ירק  מושב","מושב נווה ירק","מושב נווה ירק","49945","00000","07:00:00"
"7290492000005","2015-07-06",NA,"710","7","1","Dor Alon",NA,"העוגן","קיבוץ העוגן","קיבוץ העוגן","4288000","00000","07:00:00"
"7290492000005","2015-07-06",NA,"711","6","1","Dor Alon",NA,"מעוז חיים","קיבוץ מעוז חיים","קיבוץ מעוז חיים","10845","00000","07:00:00"
"7290492000005","2015-07-06",NA,"712","5","1","Dor Alon",NA,"הגושרים","קיבוץ הגושרים","קיבוץ הגושרים","13325","00000","07:00:00"
"7290492000005","2015-07-06",NA,"713","4","1","Dor Alon",NA,"חגור","מושב חגור","מושב חגור","45870","00000","07:00:00"
"7290492000005","2015-07-06",NA,"714","3","1","Dor Alon",NA,"בית זרע","קיבוץ בית זרע","קיבוץ בית זרע","1513500","00000","07:00:00"
"7290492000005","2015-07-06",NA,"715","2","1","Dor Alon",NA,"שדי חמד-מושב","מושב שדי חמד","מושב שדי חמד","45855","00000","07:00:00"
"7290492000005","2015-07-06",NA,"716","1","1","Dor Alon",NA,"צור משה","מושב צור משה","מושב צור משה","40600","00000","07:00:00"
"7290492000005","2015-07-06",NA,"717","0","1","Dor Alon",NA,"לכיש","מושב לכיש","מושב לכיש","unknown","00000","07:00:00"
"7290492000005","2015-07-06",NA,"719","8","1","Dor Alon",NA,"אחיטוב","מושב אחיטוב","מושב אחיטוב","38855","00000","07:00:00"
"7290492000005","2015-07-06",NA,"720","4","1","Dor Alon",NA,"סגולה","קיבוץ סגולה","מושב סגולה","79835","00000","07:00:00"
"7290492000005","2015-07-06",NA,"721","3","1","Dor Alon",NA,"מכמורת","מושב מכמורת","מושב מכמורת","40297","00000","07:00:00"
"7290492000005","2015-07-06",NA,"722","2","1","Dor Alon",NA,"ישרש","מושב ישרש","מושב ישרש","76838","00000","07:00:00"
"7290492000005","2015-07-06",NA,"723","1","1","Dor Alon",NA,"ברור חיל","קיבוץ ברור חיל","קיבוץ ברור חיל","79152","00000","07:00:00"
"7290492000005","2015-07-06",NA,"724","0","1","Dor Alon",NA,"נהלל","מושב נהלל","מושב נהלל","10600","00000","07:00:00"
"7290492000005","2015-07-06",NA,"725","9","1","Dor Alon",NA,"גונן","קיבוץ גונן","קיבוץ גונן","1213000","00000","07:00:00"
"7290492000005","2015-07-06",NA,"726","8","1","Dor Alon",NA,"נורדיה","מושב נורדיה","מושב נורדיה","42954","00000","07:00:00"
"7290492000005","2015-07-06",NA,"727","7","1","Dor Alon",NA,"גבע כרמל","קיבוץ גבע כרמל","מושב גבע כרמל","30855","00000","07:00:00"
"7290492000005","2015-07-06",NA,"728","6","1","Dor Alon",NA,"אחוזת ברק","מושב אחוזת ברק","מושב אחוזת ברק","19323","00000","07:00:00"
"7290492000005","2015-07-06",NA,"729","5","1","Dor Alon",NA,"בית אורן","קיבוץ בית אורן","קיבוץ בית אורן","30044","00000","07:00:00"
"7290492000005","2015-07-06",NA,"730","1","1","Dor Alon",NA,"מגדים","קיבוץ מגדים","מושב מגשים","30875","00000","07:00:00"
"7290492000005","2015-07-06",NA,"731","0","1","Dor Alon",NA,"גן יאשיה","unknown","unknown","unknown","00000","07:00:00"
"7290492000005","2015-07-06",NA,"824","9","1","Dor Alon",NA,"צמח סופר אלונית","צומת צמח מרכז מסחרי","unknown","15105","00000","07:00:00"
"7290700100008","2015-07-06",NA,"2","5","1","כל בו חצי חינם",NA,"הכישור חולון","הכישור 22","חולון","unknown","00000","01:00:00"
"7290700100008","2015-07-06",NA,"4","3","1","כל בו חצי חינם",NA,"מרכבה","המרכבה 51","חולון","unknown","00000","01:00:00"
"7290700100008","2015-07-06",NA,"5","2","1","כל בו חצי חינם",NA,"הלח""י ראשון לציון","הלח""י 16","ראשון לציון","unknown","00000","01:00:00"
"7290700100008","2015-07-06",NA,"6","1","1","כל בו חצי חינם",NA,"הוד השרון","הרקון","הוד השרון","unknown","00000","01:00:00"
"7290700100008","2015-07-06",NA,"7","0","1","כל בו חצי חינם",NA,"ירקות הלח""י","הלח""י 16","ראשון לציון","unknown","00000","01:00:00"
"7290700100008","2015-07-06",NA,"8","9","1","כל בו חצי חינם",NA,"תוצרת חקלאית שוק","לוי משה 8","ראשון לציון","unknown","00000","01:00:00"
"7290700100008","2015-07-06",NA,"17","3","1","כל בו חצי חינם",NA,"ירקות מרכבה","המרכבה 31","חולון","unknown","00000","01:00:00"
"7290785400000","2015-06-14",NA,"1","6","1","קשת טעמים",NA,"קרית חיים","איצטדיון 25","קרית חיים","unknown","00000","23:05:00"
"7290785400000","2015-06-14",NA,"2","5","1","קשת טעמים",NA,"נהריה","לוחמי הגטאות 9","נהריה","unknown","00000","23:05:00"
"7290785400000","2015-06-14",NA,"3","4","1","קשת טעמים",NA,"נשר","הזית 1","נשר","unknown","00000","23:05:00"
"7290785400000","2015-06-14",NA,"4","3","1","קשת טעמים",NA,"הדר","שבתאי לוי 21","חיפה","unknown","00000","23:05:00"
"7290785400000","2015-06-14",NA,"5","2","1","קשת טעמים",NA,"קרית אליעזר","תל אביב 11","חיפה","unknown","00000","23:05:00"
"7290785400000","2015-06-14",NA,"6","1","1","קשת טעמים",NA,"כרמיאל","הכבאי 1","כרמיאל","unknown","00000","23:05:00"
"7290785400000","2015-06-14",NA,"7","0","1","קשת טעמים",NA,"נתניה","זנגביל 13","נתניה","unknown","00000","23:05:00"
"7290785400000","2015-06-14",NA,"8","9","1","קשת טעמים",NA,"נצרת","עמל 1","נצרת עילית","unknown","00000","23:05:00"
"7290785400000","2015-06-14",NA,"9","8","1","קשת טעמים",NA,"אשדוד","קניון עד הלום","אשדוד","unknown","00000","23:05:00"
"7290785400000","2015-06-14",NA,"10","8","1","קשת טעמים",NA,"גבעת רם","בציר 46","כרמיאל","unknown","00000","23:05:00"
"7290785400000","2015-06-14",NA,"11","7","1","קשת טעמים",NA,"יוקנעם","הירדן 64","יוקנעם","unknown","00000","23:05:00"
"7290785400000","2015-06-14",NA,"12","6","1","קשת טעמים",NA,"חדרה","דוד אלעזר 27","חדרה","unknown","00000","23:05:00"
"7290785400000","2015-06-14",NA,"13","5","1","קשת טעמים",NA,"ראשון לציון","ברשבסקי 33","ראשון לציון","99999","00000","23:05:00"
"7290785400000","2015-06-14",NA,"14","4","1","קשת טעמים",NA,"פולג","המלאכה 28","נתניה","unknown","00000","23:05:00"
"7290873900009","2015-06-07",NA,"1","5","1","סופר דוש",NA,"חנות 1","לא ידוע 22","לא ידוע","unknown","00000","01:00:00"
"7290873900009","2015-06-07",NA,"2","2","1","סופר דוש",NA,"חנות 2","לא ידוע","ראשון לציון","unknown","00000","01:00:00"
"7290873900009","2015-06-07",NA,"3","0","1","סופר דוש",NA,"חנות 3י","לא ידוע"," ון לציון","unknown","00000","01:00:00"
"7290873900009","2015-06-07",NA,"4","9","1","סופר דוש",NA,"חנות 4","  לא ידוע","לא ידוע","unknown","00000","01:00:00"
"7290803800003","2015-07-07",NA,"4","3","1","מ. יוחננוף ובניו",NA,"בילו","צומת ביל""ו","unknown","unknown","00000","01:00:00"
"7290803800003","2015-07-07",NA,"5","2","1","מ. יוחננוף ובניו",NA,"אשדוד","זבוטינסקי 27, סטאר סנטר","אשדוד","unknown","00000","01:00:00"
"7290803800003","2015-07-07",NA,"8","9","1","מ. יוחננוף ובניו",NA,"אחד העם","רחוב אחד העם 19","רחובות","unknown","00000","01:00:00"
"7290803800003","2015-07-07",NA,"9","8","1","מ. יוחננוף ובניו",NA,"נתיבות","רחוב בעלי המלאכה 2, א.התעשיה","נתיבות","unknown","00000","01:00:00"
"7290803800003","2015-07-07",NA,"13","3","1","מ. יוחננוף ובניו",NA,"חוצות המפרץ","החרושת 10 חוצות המפרץ","חיפה","unknown","00000","01:00:00"
"7290803800003","2015-07-07",NA,"15","1","1","מ. יוחננוף ובניו",NA,"אור יהודה","רחוב הפלדה 1","אור יהודה","unknown","00000","01:00:00"
"7290055755557","2015-05-20 13:10:31","0","001","0","1","עדן טבע מרקט","","01 עדן פולג נתניה*","","","",NA,NA
"7290055755557","2015-05-20 13:10:31","0","001","0","1","עדן טבע מרקט","","02 עדן ראשל``צ*","","","",NA,NA
"7290055755557","2015-05-20 13:10:31","0","001","0","1","עדן טבע מרקט","","עדן אור יהודה","","","",NA,NA
"7290055755557","2015-05-20 13:10:31","0","001","0","1","עדן טבע מרקט","","04 עדן חוצות  המפרץ*","","","",NA,NA
"7290055755557","2015-05-20 13:10:31","0","001","0","1","עדן טבע מרקט","","05 עדן אשדוד","","","",NA,NA
"7290055755557","2015-05-20 13:10:31","0","001","0","1","עדן טבע מרקט","","עדן  רמת השרון","","","",NA,NA
"7290055755557","2015-05-20 13:10:31","0","001","0","1","עדן טבע מרקט","","07 עדן רמת גן","","","",NA,NA
"7290055755557","2015-05-20 13:10:31","0","001","0","1","עדן טבע מרקט","","08 עדן כפר סבא*","","","",NA,NA
"7290055755557","2015-05-20 13:10:31","0","001","0","1","עדן טבע מרקט","","09 עדן גן העיר ת``א","","","",NA,NA
"7290055755557","2015-05-20 13:10:31","0","001","0","1","עדן טבע מרקט","","עדן מתחם U","","","",NA,NA
"7290055755557","2015-05-20 13:10:31","0","001","0","1","עדן טבע מרקט","","11 עדן באר שבע*","","","",NA,NA
"7290055755557","2015-05-20 13:10:31","0","001","0","1","עדן טבע מרקט","","עדן פתח תקווה","","","",NA,NA
"7290055755557","2015-05-20 13:10:31","0","001","0","1","עדן טבע מרקט","","13 עדן רמות*","","","",NA,NA
"7290055755557","2015-05-20 13:10:31","0","001","0","1","עדן טבע מרקט","","30 עדן במגה רעננה","","","",NA,NA
"7290055755557","2015-05-20 13:10:31","0","001","0","1","עדן טבע מרקט","","עדן במגה רחובות","","","",NA,NA
"7290055755557","2015-05-20 13:10:31","0","001","0","1","עדן טבע מרקט","","32 עדן במגה מלחה","","","",NA,NA
"7290055755557","2015-05-20 13:10:31","0","001","0","1","עדן טבע מרקט","","עדן במגה מודי ישן","","","",NA,NA
"7290055755557","2015-05-20 13:10:31","0","001","0","1","עדן טבע מרקט","","34 עדן במגה נשר חיפה","","","",NA,NA
"7290055755557","2015-05-20 13:10:31","0","001","0","1","עדן טבע מרקט","","עדן במגה רמות ירושלים","","","",NA,NA
"7290055755557","2015-05-20 13:10:31","0","001","0","1","עדן טבע מרקט","","36 עדן במגה רמת החייל","","","",NA,NA
"7290055755557","2015-05-20 13:10:31","0","001","0","1","עדן טבע מרקט","","עדן במגה חולון","","","",NA,NA
"7290055755557","2015-05-20 13:10:31","0","001","0","1","עדן טבע מרקט","","38 עדן שבעת הכוכבים הרצליה","","","",NA,NA
"7290055755557","2015-05-20 13:10:31","0","001","0","1","עדן טבע מרקט","","39 עדן במגה מגדלי יו","","","",NA,NA
"7290055755557","2015-05-20 13:10:31","0","001","0","1","עדן טבע מרקט","","40 עדן במגה שהם","","","",NA,NA
"7290055755557","2015-05-20 13:10:31","0","001","0","1","עדן טבע מרקט","","41 עדן במגה מודיעין","","","",NA,NA
"7290055755557","2015-05-20 13:10:31","0","001","0","1","עדן טבע מרקט","","42 עדן במגה יד אליהו","","","",NA,NA
"7290055755557","2015-05-20 13:10:31","0","001","0","1","עדן טבע מרקט","","43 עדן במגה אור יהודה","","","",NA,NA
"7290055755557","2015-05-20 13:10:31","0","001","0","1","עדן טבע מרקט","","44 עדן במגה רמת השרון","","","",NA,NA
"7290055755557","2015-05-20 13:10:31","0","001","0","1","עדן טבע מרקט","","45 עדן במגה קסטרא חיפה","","","",NA,NA
"7290055755557","2015-05-20 13:10:31","0","001","0","1","עדן טבע מרקט","","46 עדן במגה חדרה","","","",NA,NA
"7290055755557","2015-05-20 13:10:31","0","001","0","1","עדן טבע מרקט","","47 עדן במגה נווה אמירים","","","",NA,NA
"7290055755557","2015-05-20 13:10:31","0","001","0","1","עדן טבע מרקט","","91 עדן מפעל בשר מוצרים מוגמרים","","","",NA,NA
"7290055755557","2015-05-20 13:10:31","0","001","0","2","עדן טבע מרקט","","95 עדן אתר האינטרנט","www.edenteva.co.il","","0",NA,NA
"7290055755557","2015-05-20 13:10:31","0","001","0","1","עדן טבע מרקט","","96 עדן מחסן שוק סיטונאי","","","",NA,NA
"7290055755557","2015-05-20 13:10:31","0","001","0","1","עדן טבע מרקט","","97 עדן מפעל בשר עדן טבע","","","",NA,NA
"7290055755557","2015-05-20 13:10:31","0","001","0","1","עדן טבע מרקט","","עדן טבע מרקט","","","0",NA,NA
"7290055755557","2015-05-20 13:10:31","0","001","0","1","עדן טבע מרקט","","99 עדן לוגיסטיקה","","","",NA,NA
"7290055700007","20150706","5","10","8","1","רשת מגה","מגה בעיר","מב. פנקס","46-50 פנקס","תל-אביב","201103",NA,"10141"
"7290055700007","20150706","5","11","6","1","רשת מגה","מגה בעיר","מב. כיכר דיזנגוף","9 ככר דיזנגוף","תל-אביב","200909",NA,"10141"
"7290055700007","20150706","5","13","2","1","רשת מגה","מגה בעיר","מב. ויצמן תל אביב","20 ויצמן","תל-אביב","200411",NA,"10141"
"7290055700007","20150706","5","14","0","1","רשת מגה","מגה בעיר","מב. חיפה גרינברג","20 א.צ גרינברג","חיפה","201010",NA,"10141"
"7290055700007","20150706","5","15","9","1","רשת מגה","מגה בעיר","מב. רמת הטייסים","2 עודד","תל-אביב","200411",NA,"10141"
"7290055700007","20150706","5","18","3","1","רשת מגה","מגה בעיר","מב. עוזיאל בת-ים","5 עוזיאל","בת-ים","200406",NA,"10141"
"7290055700007","20150706","5","19","1","1","רשת מגה","מגה בעיר","מב. ככר ויצמן חולון","48 סוקולוב","חולון","200807",NA,"10141"
"7290055700007","20150706","5","20","5","1","רשת מגה","מגה בעיר","מב. לה-גרדיה ת""א","78 לה גרדיה","תל-אביב","200411",NA,"10141"
"7290055700007","20150706","5","21","3","1","רשת מגה","מגה בעיר","מב. אבן גבירול","30 אבן גבירול","תל-אביב","200411",NA,"10141"
"7290055700007","20150706","5","22","1","1","רשת מגה","מגה בעיר","מב. מגדל נחום","65 שדרות העצמאות","בת-ים","200406",NA,"10141"
"7290055700007","20150706","5","24","8","1","רשת מגה","מגה בעיר","מב. יהודה מכבי","48 יהודה המכבי","תל-אביב","200411",NA,"10141"
"7290055700007","20150706","5","25","6","1","רשת מגה","מגה בעיר","מב. רמת-יוסף","20 מבצע סיני","בת-ים","200406",NA,"10141"
"7290055700007","20150706","5","32","9","1","רשת מגה","מגה בעיר","מב. נאות רחל","21 קדושי קהיר","חולון","200406",NA,"10141"
"7290055700007","20150706","5","33","7","1","רשת מגה","מגה בעיר","מב. נאות אפקה","15 לאה","תל-אביב","200411",NA,"10141"
"7290055700007","20150706","5","34","5","1","רשת מגה","מגה בעיר","מב. נאות שושנים חולו","24 משה רום","חולון","201106",NA,"10141"
"7290055700007","20150706","15","35","3","1","רשת מגה","YOU יו","הצרכניה אשדוד ד","25 רוגוזין","אשדוד","201505",NA,"10141"
"7290055700007","20150706","5","46","0","1","רשת מגה","מגה בעיר","מב. בן גוריון גבעתים","162 בן גוריון","גבעתיים","200411",NA,"10141"
"7290055700007","20150706","5","48","0","1","רשת מגה","מגה בעיר","מב. הרצוג ירושלים","61 הרצוג","ירושלים","201010",NA,"10141"
"7290055700007","20150706","5","49","3","1","רשת מגה","מגה בעיר","מב. הרוא""ה רמת-גן","2 הרוא""ה","רמת-גן","200411",NA,"10141"
"7290055700007","20150706","5","50","7","1","רשת מגה","מגה בעיר","מב. ערד מרכז","39 יהודה","ערד","200403",NA,"10141"
"7290055700007","20150706","5","51","5","1","רשת מגה","מגה בעיר","מב. רווה ר""ג","113 עוזיאל","רמת-גן","200411",NA,"10141"
"7290055700007","20150706","5","52","3","1","רשת מגה","מגה בעיר","מב. דימונה מרכז","הנשיא","דימונה","200411",NA,"10141"
"7290055700007","20150706","5","55","8","1","רשת מגה","מגה בעיר","מב. רמת-החייל","7 ד.מ. מרכוס","תל-אביב","200411",NA,"10141"
"7290055700007","20150706","5","58","0","1","רשת מגה","מגה בעיר","מב. עמק הברכה ת""א","עמק הברכה","תל-אביב","201206",NA,"10141"
"7290055700007","20150706","15","61","0","1","רשת מגה","YOU יו","הצרכניה רובע ט' ב""ש","42 שדרות י-ם","באר-שבע","201505",NA,"10141"
"7290055700007","20150706","5","62","0","1","רשת מגה","מגה בעיר","מב. ירושלים נתניה","29 ירושלים","נתניה","200411",NA,"10141"
"7290055700007","20150706","5","69","8","1","רשת מגה","מגה בעיר","מב. בית אבות","2 שד.הארזים","רמת-אפעל","200411",NA,"10141"
"7290055700007","20150706","5","70","1","1","רשת מגה","מגה בעיר","מב. הנשיא קרית-אונו","57  הנשיא","קרית-אונו","200411",NA,"10141"
"7290055700007","20150706","18","72","0","1","רשת מגה","זול בשפע","ש. קניון עזריאלי ק""א","18 המיסדים","קרית אתא","201402",NA,"10141"
"7290055700007","20150706","5","75","2","1","רשת מגה","מגה בעיר","מב. רמת-אפעל","16 שד.האורנים","רמת-אפעל","200403",NA,"10141"
"7290055700007","20150706","5","81","0","1","רשת מגה","מגה בעיר","מב. קרן היסוד רעננה","1 קרן היסוד","רעננה","200408",NA,"10141"
"7290055700007","20150706","5","82","0","1","רשת מגה","מגה בעיר","מב. מרכז רעננה","114 אחוזה","רעננה","200408",NA,"10141"
"7290055700007","20150706","18","83","0","1","רשת מגה","זול בשפע","ש. מרכז גולן רעננה","2 הגדוד העברי","רעננה","201108",NA,"10141"
"7290055700007","20150706","5","85","0","1","רשת מגה","מגה בעיר","מב. קרית שרת רעננה","1 התקומה","רעננה","200408",NA,"10141"
"7290055700007","20150706","5","87","0","1","רשת מגה","מגה בעיר","מב. ותיקים רעננה","11 ההסתדרות","רעננה","201109",NA,"10141"
"7290055700007","20150706","7","88","0","1","רשת מגה","מגה בול","בול עכו אשל הירדן","יהושפט פינת העצמאות","עכו","200901",NA,"10141"
"7290055700007","20150706","5","89","2","1","רשת מגה","מגה בעיר","מב. מרכז אילת","שד.התמרים","אילת","200411",NA,"10141"
"7290055700007","20150706","5","90","6","1","רשת מגה","מגה בעיר","מב. מרכז נתניה","שטמפר","נתניה","200411",NA,"10141"
"7290055700007","20150706","5","91","4","1","רשת מגה","מגה בעיר","מב. נוה אביבים","13 אופנהיימר","תל-אביב","200411",NA,"10141"
"7290055700007","20150706","5","98","1","1","רשת מגה","מגה בעיר","מב. אזורים נתניה","14 גרינבאום יצחק","נתניה","200411",NA,"10141"
"7290055700007","20150706","5","103","0","1","רשת מגה","מגה בעיר","מב. קניון כפר-סבא","20 כצנלסון","כפר-סבא","200404",NA,"10141"
"7290055700007","20150706","5","104","0","1","רשת מגה","מגה בעיר","מב. הוד השרון","1 שלום עליכם","הוד השרון","200411",NA,"10141"
"7290055700007","20150706","5","108","2","1","רשת מגה","מגה בעיר","מב. בבלי","17 לומד בבלי","תל-אביב","200411",NA,"10141"
"7290055700007","20150706","9","109","0","1","רשת מגה","מגה","מגה לב דיזנגוף","65  דיזנגוף","תל-אביב","201311",NA,"10141"
"7290055700007","20150706","15","111","2","1","רשת מגה","YOU יו","הצרכניה מרכז רמלה","45 שדרות הרצל","רמלה","201505",NA,"10141"
"7290055700007","20150706","15","112","0","1","רשת מגה","YOU יו","יד אליהו       ע YOU","53 יגאל אלון","תל-אביב","201412",NA,"10141"
"7290055700007","20150706","5","113","9","1","רשת מגה","מגה בעיר","מב. רון כ""ס","2 יעקב כהן","כפר-סבא","200411",NA,"10141"
"7290055700007","20150706","5","114","7","1","רשת מגה","מגה בעיר","מב. נווה כרמית","65 זבוטינסקי","ראשון-לציון","200411",NA,"10141"
"7290055700007","20150706","5","115","0","1","רשת מגה","מגה בעיר","מב. מכבים","מרכז רננים","מכבים","200411",NA,"10141"
"7290055700007","20150706","5","117","1","1","רשת מגה","מגה בעיר","מב. חפץ חיים","28 הרצל","פתח-תקוה","201106",NA,"10141"
"7290055700007","20150706","5","119","0","1","רשת מגה","מגה בעיר","מב. צמרות          ע","ניסים אלוני","תל-אביב","201011",NA,"10141"
"7290055700007","20150706","9","120","1","1","רשת מגה","מגה","מגה יהלומים גבעתיים","1 כורזין","גבעתיים","201311",NA,"10141"
"7290055700007","20150706","5","122","8","1","רשת מגה","מגה בעיר","מב. תל כביר","45 גרינבאום","תל-אביב","201308",NA,"10141"
"7290055700007","20150706","5","123","6","1","רשת מגה","מגה בעיר","מב. מגדלי דוד","12 אורי","תל-אביב","200411",NA,"10141"
"7290055700007","20150706","5","125","2","1","רשת מגה","מגה בעיר","מב. מעלה אילת","דרך יותם","אילת","200411",NA,"10141"
"7290055700007","20150706","5","126","0","1","רשת מגה","מגה בעיר","מב. ראשל""צ ג","15 ברניצקי","ראשון-לציון","200411",NA,"10141"
"7290055700007","20150706","5","127","9","1","רשת מגה","מגה בעיר","מב. בלינסון פ""ת","13 קפלן","פתח-תקוה","201106",NA,"10141"
"7290055700007","20150706","5","129","5","1","רשת מגה","מגה בעיר","מב. מעוז אביב","209 בני אפרים","תל-אביב","200411",NA,"10141"
"7290055700007","20150706","5","130","9","1","רשת מגה","מגה בעיר","מב. רמת-אביב ג","35 אבא אחימאיר","תל-אביב","201106",NA,"10141"
"7290055700007","20150706","15","134","0","1","רשת מגה","YOU יו","שדרות YOU","דרות א.ת פנינת הנגב","שדרות","201407",NA,"10141"
"7290055700007","20150706","5","136","8","1","רשת מגה","מגה בעיר","מב. אריאל א","הנחשונים 37 מ.מסחרי","אריאל","200411",NA,"10141"
"7290055700007","20150706","5","137","0","1","רשת מגה","מגה בעיר","מב. קריית מוצקין","10 החשמונאים","קרית-מוצקין","201210",NA,"10141"
"7290055700007","20150706","15","138","4","1","רשת מגה","YOU יו","חדרה           ע YOU","כביש אזור התעשיה","חדרה","201502",NA,"10141"
"7290055700007","20150706","5","143","0","1","רשת מגה","מגה בעיר","מב. קניון קיראון","שלמה המלך","קריית אונו","201105",NA,"10141"
"7290055700007","20150706","9","148","0","1","רשת מגה","מגה","מגה קדימה","המעלית פארק התעשיות","קדימה","201311",NA,"10141"
"7290055700007","20150706","5","152","0","1","רשת מגה","מגה בעיר","מב. שבעת הכוכבים   ע","שירת הדבורה","הרצליה","201106",NA,"10141"
"7290055700007","20150706","5","193","0","1","רשת מגה","מגה בעיר","מב. מרכז רום","יעל רום 7 אם המושבות","פתח-תקוה","201209",NA,"10141"
"7290055700007","20150706","5","194","0","1","רשת מגה","מגה בעיר","מב. מרכז השלום","רפאל איתן3אם המושבות","פתח-תקוה","201204",NA,"10141"
"7290055700007","20150706","5","202","0","1","רשת מגה","מגה בעיר","מב. נווה גנים","271 דרך עכו","קרית-מוצקין","201106",NA,"10141"
"7290055700007","20150706","5","204","0","1","רשת מגה","מגה בעיר","מב. כרמליה חיפה","אלכסנדר ינאי 3  חיפה","חיפה","201105",NA,"10141"
"7290055700007","20150706","5","205","0","1","רשת מגה","מגה בעיר","מב. קרית ביאליק קק""ל","58 קק""ל","קרית-ביאליק","200703",NA,"10141"
"7290055700007","20150706","5","207","0","1","רשת מגה","מגה בעיר","מב. כפר יונה דרום","40 מנחם בגין","כפר-יונה","200712",NA,"10141"
"7290055700007","20150706","23","208","0","1","רשת מגה","תכלס","תכלס בני-ברק","106 כהנמן","בני-ברק","201406",NA,"10141"
"7290055700007","20150706","18","209","0","1","רשת מגה","זול בשפע","ש. אלעד עילית","שמעון בן שטח","אלעד","201106",NA,"10141"
"7290055700007","20150706","15","210","0","1","רשת מגה","YOU יו","סגולה YOU","22 בן ציון גליס","פתח-תקוה","201405",NA,"10141"
"7290055700007","20150706","15","211","0","1","רשת מגה","YOU יו","טבריה עלית YOU","א.ת. טבריה עלית","טבריה","201405",NA,"10141"
"7290055700007","20150706","15","215","0","1","רשת מגה","YOU יו","אילת YOU","23 חטיבת גולני","אילת","201405",NA,"10141"
"7290055700007","20150706","5","218","0","1","רשת מגה","מגה בעיר","מב. אבן יהודה","הדרים פינת המיסדים","אבן-יהודה","200607",NA,"10141"
"7290055700007","20150706","5","219","0","1","רשת מגה","מגה בעיר","מב. גני העיר רחובות","15 דרך ירושלים","רחובות","200411",NA,"10141"
"7290055700007","20150706","15","222","0","1","רשת מגה","YOU יו","מודיעין YOU","24 עמק דותן","מודיעין","201407",NA,"10141"
"7290055700007","20150706","5","223","0","1","רשת מגה","מגה בעיר","מב. גני אביב לוד","ארבע עונות 41 ג.אביב","לוד","199812",NA,"10141"
"7290055700007","20150706","5","224","0","1","רשת מגה","מגה בעיר","מב. בית וגן קרית אתא","10 העצמאות","קרית-אתא","200807",NA,"10141"
"7290055700007","20150706","15","229","0","1","רשת מגה","YOU יו","רמת-השרון      ע YOU","החרושת א.ת","רמת-השרון","201501",NA,"10141"
"7290055700007","20150706","5","231","0","1","רשת מגה","מגה בעיר","מב. גן יבנה","הרצל פ.קיבוץ גלויות","גן יבנה","200808",NA,"10141"
"7290055700007","20150706","9","232","0","1","רשת מגה","מגה","מגה קניון גבעתיים","ויצמן פינת יצחק רבין","גבעתיים","201311",NA,"10141"
"7290055700007","20150706","5","233","0","1","רשת מגה","מגה בעיר","מב. אשדוד יב","תמוז 14 מרכז מסחרי","אשדוד","200808",NA,"10141"
"7290055700007","20150706","15","237","0","1","רשת מגה","YOU יו","עפולה YOU","קהילת ציון א.ת","עפולה","201407",NA,"10141"
"7290055700007","20150706","7","238","0","1","רשת מגה","מגה בול","בול נתיבות","סמילו מרכז מסחרי","נתיבות","201106",NA,"10141"
"7290055700007","20150706","9","241","0","1","רשת מגה","מגה","מגה עיר ימים נתניה","שדרות בן גוריון","נתניה","201311",NA,"10141"
"7290055700007","20150706","18","247","0","1","רשת מגה","זול בשפע","ש. נאות חן חדרה","הלל יפה 5 פ.סמילנסקי","חדרה","201211",NA,"10141"
"7290055700007","20150706","5","248","0","1","רשת מגה","מגה בעיר","מב. ראשל""צ ד","33 שמעון פרס","ראשון-לציון","200411",NA,"10141"
"7290055700007","20150706","5","249","0","1","רשת מגה","מגה בעיר","מב. כפר שלם","10 סנפיר","תל-אביב","200411",NA,"10141"
"7290055700007","20150706","5","251","8","1","רשת מגה","מגה בעיר","מב. פארק הירקון","1 שלום אש","תל-אביב","200411",NA,"10141"
"7290055700007","20150706","5","252","0","1","רשת מגה","מגה בעיר","מב. תל-מונד","4 השקד","תל-מונד","200411",NA,"10141"
"7290055700007","20150706","5","253","0","1","רשת מגה","מגה בעיר","מב. בת גלים","37 העליה השניה","חיפה","201105",NA,"10141"
"7290055700007","20150706","5","254","0","1","רשת מגה","מגה בעיר","מב. מודיעין שמשוני","2 עמק בית שאן","מודיעין","199812",NA,"10141"
"7290055700007","20150706","18","256","0","1","רשת מגה","זול בשפע","ש. מודיעין עלית","אחוזת ברכפלד ק.ספר","מודיעין עלית","201106",NA,"10141"
"7290055700007","20150706","5","257","7","1","רשת מגה","מגה בעיר","מב. לב נתניה","32 הרב קוק","נתניה","200403",NA,"10141"
"7290055700007","20150706","15","258","0","1","רשת מגה","YOU יו","נצרת YOU","דרך הציונות פ.העמק","נצרת-עלית","201502",NA,"10141"
"7290055700007","20150706","15","259","0","1","רשת מגה","YOU יו","חיפה           ע YOU","דרך פרויד","חיפה","201501",NA,"10141"
"7290055700007","20150706","15","262","0","1","רשת מגה","YOU יו","יוקנעם YOU","קניון דרכים","יוקנעם","201408",NA,"10141"
"7290055700007","20150706","15","264","0","1","רשת מגה","YOU יו","אשדוד YOU","א.תעשיה הצפוני","אשדוד","201405",NA,"10141"
"7290055700007","20150706","15","266","0","1","רשת מגה","YOU יו","נתניה YOU","צורן 6 א.ת.דרומי","נתניה","201405",NA,"10141"
"7290055700007","20150706","15","268","0","1","רשת מגה","YOU יו","ערד YOU","שמיר 5 א.תעשיה","ערד","201405",NA,"10141"
"7290055700007","20150706","15","270","0","1","רשת מגה","YOU יו","באר-שבע YOU","1 האורגים","באר-שבע","201412",NA,"10141"
"7290055700007","20150706","18","273","0","1","רשת מגה","זול בשפע","ש. מגדל העמק","העצמאות","מגדל-העמק","201212",NA,"10141"
"7290055700007","20150706","5","274","0","1","רשת מגה","מגה בעיר","מב. שרונה רחובות","מדר פינת דרך ירושלים","רחובות","201308",NA,"10141"
"7290055700007","20150706","18","275","0","1","רשת מגה","זול בשפע","ש. עמישב פ""ת","מנחם בגין 94 עמישב","פתח-תקוה","201106",NA,"10141"
"7290055700007","20150706","15","282","0","1","רשת מגה","YOU יו","נשר            ע YOU","147 דרך בר יהודה","חיפה","201412",NA,"10141"
"7290055700007","20150706","5","284","0","1","רשת מגה","מגה בעיר","מב. אשדוד ח","הרב לוין מ.מסחרי","אשדוד","201310",NA,"10141"
"7290055700007","20150706","15","285","0","1","רשת מגה","YOU יו","כרמיאל YOU","כרמיאל סנטר-כביש עכו","כרמיאל","201409",NA,"10141"
"7290055700007","20150706","5","288","0","1","רשת מגה","מגה בעיר","מב. זבולון קרית אתא","דרך זבולון פ.העצמאות","קרית-אתא","201308",NA,"10141"
"7290055700007","20150706","15","293","0","1","רשת מגה","YOU יו","קריות YOU","ח.תעשיה פ.יגאל ידין","חיפה","201405",NA,"10141"
"7290055700007","20150706","5","294","0","1","רשת מגה","מגה בעיר","מב. שוהם           ע","161 עמק האיילון","שוהם","200411",NA,"10141"
"7290055700007","20150706","5","296","0","1","רשת מגה","מגה בעיר","מב. נוף זכרון יעקב",".10 חברה חשבונאית","זכרון יעקב","201106",NA,"10141"
"7290055700007","20150706","5","297","6","1","רשת מגה","מגה בעיר","מב. צפון באר שבע","101 אברהם אבינו","באר-שבע","201106",NA,"10141"
"7290055700007","20150706","5","301","0","1","רשת מגה","מגה בעיר","מב. אריאל ב","הציונות 78 רובע ב","אריאל","200411",NA,"10141"
"7290055700007","20150706","5","302","0","1","רשת מגה","מגה בעיר","מב. בית אליעזר","חדרה","חדרה","201106",NA,"10141"
"7290055700007","20150706","5","305","0","1","רשת מגה","מגה בעיר","מב. כפר-יונה","6 שרת","כפר-יונה","200411",NA,"10141"
"7290055700007","20150706","15","311","0","1","רשת מגה","YOU יו","ראש העין YOU","א.ת.חדש פארק סיבל","ראש-העין","201405",NA,"10141"
"7290055700007","20150706","15","314","0","1","רשת מגה","YOU יו","אור יהודה      ע YOU","המפעל 2 א.ת ישן","אור-יהודה","201412",NA,"10141"
"7290055700007","20150706","15","315","0","1","רשת מגה","YOU יו","תחנה מרכזית ת""א YOU","108 לוינסקי","תל-אביב","201411",NA,"10141"
"7290055700007","20150706","15","316","0","1","רשת מגה","YOU יו","קניון לוד YOU","קניון לוד סנטר","לוד","201405",NA,"10141"
"7290055700007","20150706","5","317","4","1","רשת מגה","מגה בעיר","מב. בר אילן","האורנים","גבעת-שמואל","200411",NA,"10141"
"7290055700007","20150706","5","318","0","1","רשת מגה","מגה בעיר","מב. רמות צהלה","4-6 גרפית","תל-אביב","200411",NA,"10141"
"7290055700007","20150706","5","321","0","1","רשת מגה","מגה בעיר","מב. לב אשקלון","שכונת שמשון","אשקלון","200411",NA,"10141"
"7290055700007","20150706","15","322","0","1","רשת מגה","YOU יו","מרכז אשקלון YOU","1 שד.בן-גוריון","אשקלון","201405",NA,"10141"
"7290055700007","20150706","15","323","9","1","רשת מגה","YOU יו","קניותר נס ציונה YOU","נוה כרמית  מ.מסחרי","נס-ציונה","201407",NA,"10141"
"7290055700007","20150706","15","324","7","1","רשת מגה","YOU יו","בת-ים העמל YOU","עמל 20 א","בת-ים","201405",NA,"10141"
"7290055700007","20150706","5","328","0","1","רשת מגה","מגה בעיר","מב.אלוני השרון נתניה","תום לנטוס 26 ק.השרון","נתניה","201203",NA,"10141"
"7290055700007","20150706","5","330","0","1","רשת מגה","מגה בעיר","מב. קניון אביה ב""ש","קנ.אביה שד.שאול המלך","באר-שבע","201309",NA,"10141"
"7290055700007","20150706","5","342","0","1","רשת מגה","מגה בעיר","מב. אלנבי ירושלים","בית""ר פינת ינובסקי","ירושלים","201201",NA,"10141"
"7290055700007","20150706","5","344","0","1","רשת מגה","מגה בעיר","מב. מזכרת בתיה","8 שדרות אליהו","מזכרת בתיה","200411",NA,"10141"
"7290055700007","20150706","5","350","6","1","רשת מגה","מגה בעיר","מב. גבעת סביון","78 הגליל","גני-תקוה","201308",NA,"10141"
"7290055700007","20150706","15","351","4","1","רשת מגה","YOU יו","ראשל""צ YOU","39 צבי פרנק","ראשון-לציון","201405",NA,"10141"
"7290055700007","20150706","15","352","2","1","רשת מגה","YOU יו","רעננה          ע YOU","החרושת 14 אזור תעשיה","רעננה","201502",NA,"10141"
"7290055700007","20150706","15","353","0","1","רשת מגה","YOU יו","אופקים YOU","א.תעשיה אפקים בנגב","אופקים","201407",NA,"10141"
"7290055700007","20150706","5","356","0","1","רשת מגה","מגה בעיר","מב. זכרון מזרח","האנפה פינת החוחית","זכרון יעקב","201106",NA,"10141"
"7290055700007","20150706","5","357","0","1","רשת מגה","מגה בעיר","מב. קניון חדרה","65 הגיבורים","חדרה","201308",NA,"10141"
"7290055700007","20150706","5","358","0","1","רשת מגה","מגה בעיר","מב. רמת אילון חיפה","29 יגאל אלון","חיפה","200901",NA,"10141"
"7290055700007","20150706","7","360","0","1","רשת מגה","מגה בול","בול שטמפפר פ""ת","73 שטמפר","פתח-תקוה","201106",NA,"10141"
"7290055700007","20150706","18","361","0","1","רשת מגה","זול בשפע","ש. הרצל חיפה","97 רח' הרצל","חיפה","201112",NA,"10141"
"7290055700007","20150706","5","363","0","1","רשת מגה","מגה בעיר","מב. קניון אור-יהודה","1 אור נר","אור-יהודה","201308",NA,"10141"
"7290055700007","20150706","5","365","0","1","רשת מגה","מגה בעיר","מב. קרית שמונה","קניון שמונה באמצע","קרית-שמונה","201106",NA,"10141"
"7290055700007","20150706","15","366","0","1","רשת מגה","YOU יו","בית שאן YOU","1 הגלבוע","בית-שאן","201407",NA,"10141"
"7290055700007","20150706","9","367","0","1","רשת מגה","מגה","מגה קניון ירושלים  ע","קניון מלחה","ירושלים","201311",NA,"10141"
"7290055700007","20150706","18","368","0","1","רשת מגה","זול בשפע","ש. בית שמש","נחל סורק פינת הקישון","בית-שמש","201106",NA,"10141"
"7290055700007","20150706","5","369","0","1","רשת מגה","מגה בעיר","מב. מרום נווה","7 לנדאו","רמת-גן","200805",NA,"10141"
"7290055700007","20150706","5","370","0","1","רשת מגה","מגה בעיר","מב. נווה זאב","64 יוהנה זבוטינסקי","באר-שבע","200901",NA,"10141"
"7290055700007","20150706","18","371","0","1","רשת מגה","זול בשפע","ש. בני-ברק","השלשה 35 פינת השומר","בני-ברק","201106",NA,"10141"
"7290055700007","20150706","15","372","0","1","רשת מגה","YOU יו","דימונה YOU","הסדנה א.תעשיה","דימונה","201405",NA,"10141"
"7290055700007","20150706","15","373","0","1","רשת מגה","YOU יו","עכו YOU","1 שלום הגליל","עכו","201405",NA,"10141"
"7290055700007","20150706","5","374","0","1","רשת מגה","מגה בעיר","מב. אפרידר אשקלון","5 שדרות ירושלים","אשקלון","201308",NA,"10141"
"7290055700007","20150706","21","375","0","2","רשת מגה","מגה באינטרנט","מגה באינטרנט","WWW.MEGA.CO.IL","","0",NA,"10141"
"7290055700007","20150706","5","377","0","1","רשת מגה","מגה בעיר","מב. פסגות ים","שדרות ירושלים","קרית-ים","200901",NA,"10141"
"7290055700007","20150706","5","384","0","1","רשת מגה","מגה בעיר","מב. פארק רעננה","אחוזה פינת ירושלים","רעננה","201409",NA,"10141"
"7290055700007","20150706","5","385","0","1","רשת מגה","מגה בעיר","מב. בית הכרם","אבי זהר","ירושלים","201106",NA,"10141"
"7290055700007","20150706","15","388","0","1","רשת מגה","YOU יו","מערב ראשלצ YOU","משה דיין,פ.אברהם בר","ראשון-לציון","201412",NA,"10141"
"7290055700007","20150706","15","397","0","1","רשת מגה","YOU יו","עתידים ת""א     ע YOU","126 דבורה הנביאה","תל-אביב","201408",NA,"10141"
"7290055700007","20150706","5","399","0","1","רשת מגה","מגה בעיר","מב. תל-ברוך","8 בקר","תל-אביב","201106",NA,"10141"
"7290055700007","20150706","15","402","0","1","רשת מגה","YOU יו","כפר-סבא YOU","40 ויצמן פינת כביש","כפר-סבא","201405",NA,"10141"
"7290055700007","20150706","18","411","0","1","רשת מגה","זול בשפע","ש. לב הרצליה","2 בן גוריון","הרצליה","201108",NA,"10141"
"7290055700007","20150706","5","412","0","1","רשת מגה","מגה בעיר","מב. הדר הרצליה","2 הדר","הרצליה","200411",NA,"10141"
"7290055700007","20150706","5","413","0","1","רשת מגה","מגה בעיר","מב. נווה אמירים    ע","82 בן גוריון","הרצליה","200411",NA,"10141"
"7290055700007","20150706","5","415","0","1","רשת מגה","מגה בעיר","מב. הרצליה פיתוח","34 זהר טל","הרצליה","200411",NA,"10141"
"7290055700007","20150706","5","416","0","1","רשת מגה","מגה בעיר","מב. נוף ים","10 שער הים","הרצליה","200411",NA,"10141"
"7290055700007","20150706","5","417","0","1","רשת מגה","מגה בעיר","מב. נוה עמל","19 כצנלסון","הרצליה","200411",NA,"10141"
"7290055700007","20150706","5","420","0","1","רשת מגה","מגה בעיר","מב. זרובבל רמה""ש","33 סוקולוב","רמת-השרון","200411",NA,"10141"
"7290055700007","20150706","5","422","0","1","רשת מגה","מגה בעיר","מב. נצר סירני","1 אבנר בן נר","נס ציונה","201305",NA,"10141"
"7290055700007","20150706","18","427","0","1","רשת מגה","זול בשפע","ש. אלעד","32 בן זכאי","אלעד","201106",NA,"10141"
"7290055700007","20150706","5","428","0","1","רשת מגה","מגה בעיר","מב. אודיטוריום חיפה","134 שדרות הנשיא","חיפה","200212",NA,"10141"
"7290055700007","20150706","5","429","0","1","רשת מגה","מגה בעיר","מב. נווה שקמה ראשל""צ","פינת תור הזהב רובע ה","ראשון-לציון","200411",NA,"10141"
"7290055700007","20150706","15","431","0","1","רשת מגה","YOU יו","ספיר י-ם YOU","2 אלוף יקותיאל אדם","ירושלים","201502",NA,"10141"
"7290055700007","20150706","5","433","0","1","רשת מגה","מגה בעיר","מב. נווה סביון","חיים בר לב מרכז מסחר","אור-יהודה","201106",NA,"10141"
"7290055700007","20150706","15","436","0","1","רשת מגה","YOU יו","ביג באר שבע YOU","דרך בית לחם","באר-שבע","201405",NA,"10141"
"7290055700007","20150706","5","442","0","1","רשת מגה","מגה בעיר","מב. אואזיס ר""ג","87 הרצל","רמת-גן","201308",NA,"10141"
"7290055700007","20150706","9","448","0","1","רשת מגה","מגה","מגה מבשרת","קניון הראל מבשרת","ירושלים","201311",NA,"10141"
"7290055700007","20150706","9","449","0","1","רשת מגה","מגה","מגה קניון איילון","מבצע קדש","בני-ברק","201311",NA,"10141"
"7290055700007","20150706","5","457","0","1","רשת מגה","מגה בעיר","מב. מודיעין עזריאל ע","שדרות החשמונאים","מודיעין","201106",NA,"10141"
"7290055700007","20150706","5","462","0","1","רשת מגה","מגה בעיר","מב. רמת-ישי","מרכז מסחרי קדמת ישי","רמת-ישי","201308",NA,"10141"
"7290055700007","20150706","5","464","0","1","רשת מגה","מגה בעיר","מב. מגדלי כרמל חיפה","20 חנה סנש","חיפה","200411",NA,"10141"
"7290055700007","20150706","5","469","0","1","רשת מגה","מגה בעיר","מב. שער העליה חיפה","שער העליה","חיפה","201106",NA,"10141"
"7290055700007","20150706","5","473","0","1","רשת מגה","מגה בעיר","מב.הצרכניה אבן יהודה","61 המייסדים","אבן-יהודה","201106",NA,"10141"
"7290027600007","2015-07-06","1","374","7","1","שופרסל","שופרסל שלי","שלי הרצליה- הבנים","הבנים 46","הרצליה","4637948",NA,NA
"7290027600007","2015-07-06","7","375","7","1","שופרסל","שופרסל אקספרס","אקספרס כ""ס- הגליל","הגליל 58","כפר סבא","",NA,NA
"7290027600007","2015-07-06","7","376","7","1","שופרסל","שופרסל אקספרס","אקספרס רעננה- משה דיין","משה דיין 8","רעננה","",NA,NA
"7290027600007","2015-07-06","7","377","7","1","שופרסל","שופרסל אקספרס","אקספרסירושלים- הדסה","בית חולים הדסה","ירושלים","",NA,NA
"7290027600007","2015-07-06","7","379","7","1","שופרסל","שופרסל אקספרס","אקספרס גבעתיים- כצנלסון","כצנלסון 19","גבעתיים","",NA,NA
"7290027600007","2015-07-06","7","362","7","1","שופרסל","שופרסל אקספרס","אקספרס קרן היסוד ירושלים","קרן היסוד 27","ירושלים","",NA,NA
"7290027600007","2015-07-06","2","364","7","1","שופרסל","שופרסל דיל","דיל ק דימה- בן צבי","בן צבי71","קדימה","",NA,NA
"7290027600007","2015-07-06","1","365","7","1","שופרסל","שופרסל שלי","שלי פרדס חנה כרכור- קדמה","דרך הקידמה צמרת","כרכור","3707307",NA,NA
"7290027600007","2015-07-06","7","380","7","1","שופרסל","שופרסל אקספרס","אקספרס ת""א- מרמורק","מרמורק 10","תל אביב-יפו","",NA,NA
"7290027600007","2015-07-06","1","366","7","1","שופרסל","שופרסל שלי","שלי כפר ורדים- מרכז מסחר","מרכז מסחרי כפר ו","כפרורדים","2451700",NA,NA
"7290027600007","2015-07-06","7","368","7","1","שופרסל","שופרסל אקספרס","אקספרס-נשר מרגנית","נשר המרגנית 1","חיפה","",NA,NA
"7290027600007","2015-07-06","1","369","7","1","שופרסל","שופרסל שלי","שלי שוהם- תרשיש","עמק איילון פינת","שוהם","6080001",NA,NA
"7290027600007","2015-07-06","7","372","7","1","שופרסל","שופרסל אקספרס","אקספרס בת ים- חשמונאים","החשמונאים 41","בת ים","",NA,NA
"7290027600007","2015-07-06","7","373","7","1","שופרסל","שופרסל אקספרס","אקספרס חיפה- אנטוורפן","אנטוורפן 56 דניה","חיפה","",NA,NA
"7290027600007","2015-07-06","6","608","7","1","שופרסל","יש חסד","יש חסד ירושלים-קרית שאול","נאג'רה 2","גבעת שאול ים","",NA,NA
"7290027600007","2015-07-06","6","609","7","1","שופרסל","יש חסד","יש חסד אלעד-ניסים גאון","ניסים גאון 79","אלעד","",NA,NA
"7290027600007","2015-07-06","6","610","7","1","שופרסל","יש חסד","יש חסד ירושלים- רמת שלמה","ברכת אברהם 22","ירושלים","",NA,NA
"7290027600007","2015-07-06","6","611","7","1","שופרסל","יש חסד","יש חסד בני ברק- השומר","השומר 10","בני ברק","5137705",NA,NA
"7290027600007","2015-07-06","2","215","7","1","שופרסל","שופרסל דיל","דיל בית שאן-ירושלים הביר","ירושלים הבירה","בית שאן","10900",NA,NA
"7290027600007","2015-07-06","2","261","7","1","שופרסל","שופרסל דיל","דיל באר טוביה","אזור התעשיה","באר טוביה","8381500",NA,NA
"7290027600007","2015-07-06","1","262","7","1","שופרסל","שופרסל שלי","שלי מזכרת בתיה- בגין","שד' מנחם בגין 2","מזכרת בתיה","7680400",NA,NA
"7290027600007","2015-07-06","7","265","7","1","שופרסל","שופרסל אקספרס","אקספרס חולון - זלמן ארן","זלמן ארן 1","חולון","",NA,NA
"7290027600007","2015-07-06","1","272","7","1","שופרסל","שופרסל שלי","שלי גבעתיים- ויצמן","ויצמן 20","גבעתיים","5339005",NA,NA
"7290027600007","2015-07-06","7","274","7","1","שופרסל","שופרסל אקספרס","אקספרס ת""א- פלורנטין","פלורנטין 27","תל אביב","",NA,NA
"7290027600007","2015-07-06","7","277","7","1","שופרסל","שופרסל אקספרס","אקספרס.בני בנימיןהרצליה","בני בנימין 23","הרצליה","",NA,NA
"7290027600007","2015-07-06","1","278","7","1","שופרסל","שופרסל שלי","שלי פ""ת -העצמאות","העצמאות 65","פתח תקוה","4937999",NA,NA
"7290027600007","2015-07-06","7","279","7","1","שופרסל","שופרסל אקספרס","אקספרס-ת""א דרויאנוב","רח' דרויאנוב 5","תל אביב","",NA,NA
"7290027600007","2015-07-06","2","280","7","1","שופרסל","שופרסל דיל","דיל חדרה- צה""ל","צהייל 32","חדרה","3822041",NA,NA
"7290027600007","2015-07-06","1","284","7","1","שופרסל","שופרסל שלי","שלי תל מונד- הדקל","הדקל 49","תלמונד","4060049",NA,NA
"7290027600007","2015-07-06","1","287","7","1","שופרסל","שופרסל שלי","שלי גבעתיים-שביט","עמישב 45","גבעתיים","5348832",NA,NA
"7290027600007","2015-07-06","5","288","7","1","שופרסל","יש בשכונה","יש רחובות- סירני","חיים סרני 1","רחובות","7626902",NA,NA
"7290027600007","2015-07-06","5","108","7","1","שופרסל","יש בשכונה","יש קרית עקרון- המלך חסן","המלך חסן השני 11","קרית עקרון","7692000",NA,NA
"7290027600007","2015-07-06","7","382","7","1","שופרסל","שופרסל אקספרס","אקספרס פ""ת- היבנר","היבנר 29","פתח תקוה","",NA,NA
"7290027600007","2015-07-06","7","384","7","1","שופרסל","שופרסל אקספרס","אקספרס קרית ביאליק","שדרות ירושלים 15","קרית ביאליק","",NA,NA
"7290027600007","2015-07-06","8","438","7","1","שופרסל","אורגניק מרקט","אורגניקהרצליה- הנגב","הנגב 1 צמרות","הרצליה","",NA,NA
"7290027600007","2015-07-06","8","440","7","1","שופרסל","אורגניק מרקט","אורגניק רחובות- יעקב","יעקב 3","רחובות","",NA,NA
"7290027600007","2015-07-06","8","441","7","1","שופרסל","אורגניק מרקט","אורגניק ת""א- שינקין","שינקין 59","תל אביב","",NA,NA
"7290027600007","2015-07-06","7","444","7","1","שופרסל","שופרסל אקספרס","אקספרס.ב""ש אביסרור","רח' יעקב כהן 8","באר שבע","",NA,NA
"7290027600007","2015-07-06","2","446","7","1","שופרסל","שופרסל דיל","חנות גדרון-חולון","","","",NA,NA
"7290027600007","2015-07-06","2","447","7","1","שופרסל","שופרסל דיל","חנות גדרון פתח תקוה","הסיבים 39","פתח תקווה","",NA,NA
"7290027600007","2015-07-06","6","606","7","1","שופרסל","יש חסד","יש חסד בית שמש- מ. מסחרי","מרכז מסחרי רמה א","בית שמש","99090",NA,NA
"7290027600007","2015-07-06","6","607","7","1","שופרסל","יש חסד","יש חסד מודיעין עלי-ק.ספר","אבני נזר 46","קרית ספר","",NA,NA
"7290027600007","2015-07-06","5","178","7","1","שופרסל","יש בשכונה","יש נצרת עילית-דרך חטיבות","דרך החטיבות 30","נצרת עילית","171000",NA,NA
"7290027600007","2015-07-06","5","320","7","1","שופרסל","יש בשכונה","יש עכו- הרצל","הרצל 20 מ.רסקו","עכו","2420531",NA,NA
"7290027600007","2015-07-06","5","337","7","1","שופרסל","יש בשכונה","יש אשקלון- התחיה","רח' התחיה 1","אשקלון","7858201",NA,NA
"7290027600007","2015-07-06","2","110","7","1","שופרסל","שופרסל דיל","דיל בני דרור","צומת בני דרור","בני דרור","4581500",NA,NA
"7290027600007","2015-07-06","2","113","7","1","שופרסל","שופרסל דיל","דיל ראשל""צ- גולדה מאיר","גולדה מאיר 1","ראשל""צ","7549050",NA,NA
"7290027600007","2015-07-06","1","117","7","1","שופרסל","שופרסל שלי","שלי תל אביב-איכילוב","ויצמן 6","ת""א","6423914",NA,NA
"7290027600007","2015-07-06","2","121","7","1","שופרסל","שופרסל דיל","דיל נהריה- לוחמי הגטאות","לוחמי הגטאות 36","נהריה","2244744",NA,NA
"7290027600007","2015-07-06","2","413","7","2","שופרסל","שופרסל דיל","שופרסל ONLINE","","","",NA,NA
"7290027600007","2015-07-06","2","124","7","1","שופרסל","שופרסל דיל","דיל בת ים- אורט ישראל","אורט ישראל 25","בת-ים","5959036",NA,NA
"7290027600007","2015-07-06","1","80","7","1","שופרסל","שופרסל שלי","שלי ראשל""צ- נווה הדרים","ברנשטיין 2","ראשון לציון","7550302",NA,NA
"7290027600007","2015-07-06","2","83","7","1","שופרסל","שופרסל דיל","דיל ב""ש- שאול המלך","קניון שאול המלך","באר-שבע","8446811",NA,NA
"7290027600007","2015-07-06","2","92","7","1","שופרסל","שופרסל דיל","דיל אשדוד- שבט לוי","שבט לוי 12","אשדוד","",NA,NA
"7290027600007","2015-07-06","2","96","7","1","שופרסל","שופרסל דיל","דיל חדרה- הפרדס","קניון גני הדרים","חדרה","3849207",NA,NA
"7290027600007","2015-07-06","2","107","7","1","שופרסל","שופרסל דיל","דיל רחובות- קניון","רח' בילו 2","רחובות","7644201",NA,NA
"7290027600007","2015-07-06","1","2","7","1","שופרסל","שופרסל שלי","שלי ירושלים- אגרון","אגרון 1","ירושלים","942650",NA,NA
"7290027600007","2015-07-06","1","4","7","1","שופרסל","שופרסל שלי","שלי חיפה- כרמל","שד' הנשיא 124 מר","חיפה","3463305",NA,NA
"7290027600007","2015-07-06","1","5","7","1","שופרסל","שופרסל שלי","שלי ירושלים- יובל","אורוגאי 3","ירושלים","9670102",NA,NA
"7290027600007","2015-07-06","6","81","7","1","שופרסל","יש חסד","יש חסד מודיעין עלית דרום","","יבנה","",NA,NA
"7290027600007","2015-07-06","2","82","7","1","שופרסל","שופרסל דיל","דיל כ""ס- סביר","התעש 14","כפר סבא","4442514",NA,NA
"7290027600007","2015-07-06","2","87","7","1","שופרסל","שופרסל דיל","דיל רעננה- החרושת","החרושת 8","רעננה","4365704",NA,NA
"7290027600007","2015-07-06","2","89","7","1","שופרסל","שופרסל דיל","דיל עזריאלי - רמלה","שמשון הגיבור 32","רמלה","72500",NA,NA
"7290027600007","2015-07-06","2","91","7","1","שופרסל","שופרסל דיל","דיל עמק חפר- אזור תעשיה","א.ת. עמק חפר","חדרה","3877701",NA,NA
"7290027600007","2015-07-06","1","93","7","1","שופרסל","שופרסל שלי","שלי יהוד- סביונים","דרך משה דיין 7","יהוד","5645001",NA,NA
"7290027600007","2015-07-06","2","95","7","1","שופרסל","שופרסל דיל","דיל חדרה- קניון אורות","1ניון אורות","אור עקיבא","3060000",NA,NA
"7290027600007","2015-07-06","4","129","7","1","שופרסל","שופרסל דיל אקסטרא","דיל אקסטרה נתניה- המלאכה","רח' המלאכה 32","נתניה","4250567",NA,NA
"7290027600007","2015-07-06","7","231","7","1","שופרסל","שופרסל אקספרס","אקספרס רעננה- רבקה גרובר","רבקה גובר  7","רעננה","",NA,NA
"7290027600007","2015-07-06","1","232","7","1","שופרסל","שופרסל שלי","שלי צפת- מ.מסחר רמת רזים","מרכז מסחרי רמת","צפת","1341219",NA,NA
"7290027600007","2015-07-06","1","233","7","1","שופרסל","שופרסל שלי","שלי עשרת- מרכז","מרכז מסחרי עשרת","עשרת","7685800",NA,NA
"7290027600007","2015-07-06","8","235","7","1","שופרסל","אורגניק מרקט","אורגניק ת""א- רמת אביב ג","אבא אחימאיר 28","תל אביב","",NA,NA
"7290027600007","2015-07-06","7","236","7","1","שופרסל","שופרסל אקספרס","אקספרס אילת שחמון","ששת הימים 310","אילת","",NA,NA
"7290027600007","2015-07-06","7","239","7","1","שופרסל","שופרסל אקספרס","אקספרס יפו- הדרור","הדרור 2","תל אביב","",NA,NA
"7290027600007","2015-07-06","2","240","7","1","שופרסל","שופרסל דיל","דיל רהט","מרכז מסחרי רהט","רהט","8535700",NA,NA
"7290027600007","2015-07-06","2","241","7","1","שופרסל","שופרסל דיל","דיל בני ברק איילון","הלח""י 28","בני ברק","5120045",NA,NA
"7290027600007","2015-07-06","2","243","7","1","שופרסל","שופרסל דיל","דיל חדרה- היוצרים","קומבה 40","חדרה","38500",NA,NA
"7290027600007","2015-07-06","2","245","7","1","שופרסל","שופרסל דיל","דיל ירושלים- פסגת זאב","שד' משה דין 106","ירושלים","9783701",NA,NA
"7290027600007","2015-07-06","2","246","7","1","שופרסל","שופרסל דיל","דיל טירת הכרמל- המלאכה","המלכה 2","טירת הכרמל","3902621",NA,NA
"7290027600007","2015-07-06","2","248","7","1","שופרסל","שופרסל דיל","דיל ב""ש- נווה מנחם","החשמונאים 15","באר שבע","8452015",NA,NA
"7290027600007","2015-07-06","2","251","7","1","שופרסל","שופרסל דיל","דיל עפולה- כורש","כורש 5","עפולה","1831007",NA,NA
"7290027600007","2015-07-06","5","254","7","1","שופרסל","יש בשכונה","יש ב""ש- הרכבת","בן צבי 10","באר שבע","8489328",NA,NA
"7290027600007","2015-07-06","2","256","7","1","שופרסל","שופרסל דיל","דיל ראשל""צ- משורר השואה","משורר השואה 13","ראשון לציון","",NA,NA
"7290027600007","2015-07-06","5","257","7","1","שופרסל","יש בשכונה","יש כ""ס- השקמה","השקמה 75"," כפר סבא","",NA,NA
"7290027600007","2015-07-06","2","258","7","1","שופרסל","שופרסל דיל","דיל אדמירליטי חיפה- איטי","יהודה איטין 4","מפרץ חיפה","",NA,NA
"7290027600007","2015-07-06","2","259","7","1","שופרסל","שופרסל דיל","דיל גזית כ""ס- ויצמן","ויצמן 300 מתחם G","כפר סבא","4439656",NA,NA
"7290027600007","2015-07-06","2","267","7","1","שופרסל","שופרסל דיל","דיל קצרין- חרמון","חרמון 7 א ת.","קצרין","1290000",NA,NA
"7290027600007","2015-07-06","4","269","7","1","שופרסל","שופרסל דיל אקסטרא","דיל אקסטרה פ""ת- סגולה","הרב מסעוד אשר20א","פתח תקווה","4900519",NA,NA
"7290027600007","2015-07-06","1","271","7","1","שופרסל","שופרסל שלי","שלי רחובות- יעקובי","פנחס יעקובי 1","רחובות","",NA,NA
"7290027600007","2015-07-06","2","281","7","1","שופרסל","שופרסל דיל","דיל מגדל העמק- המדע","שד' מדע 77","מגדל העמק","",NA,NA
"7290027600007","2015-07-06","2","290","7","1","שופרסל","שופרסל דיל","דיל  פ""ת- יכין סנטר","יצחק רבין 17","פתח-תקווה","4951711",NA,NA
"7290027600007","2015-07-06","5","293","7","1","שופרסל","יש בשכונה","יש קרית שמונה-תעשיה דרום","א.תעשיה דרומי","קרית שמונה","11021",NA,NA
"7290027600007","2015-07-06","2","297","7","1","שופרסל","שופרסל דיל","דיל חדרה- ארבע האגודות","ארבע אגודות 1","חדרה","3843101",NA,NA
"7290027600007","2015-07-06","7","299","7","1","שופרסל","שופרסל אקספרס","אקספרס הוד השרון","","רמת גן","0",NA,NA
"7290027600007","2015-07-06","1","302","7","1","שופרסל","שופרסל שלי","שלי חיפה- קלר","קלר 7","חיפה","3448314",NA,NA
"7290027600007","2015-07-06","1","303","7","1","שופרסל","שופרסל שלי","שלי טבעון- יהודה הנשיא","יהודה הנשיא","קרית טבעון","3604701",NA,NA
"7290027600007","2015-07-06","7","305","7","1","שופרסל","שופרסל אקספרס","אקספרס ת""א- יהודה המכבי","יהודה מכבי 81","תל אביב-יפו","",NA,NA
"7290027600007","2015-07-06","5","306","7","1","שופרסל","יש בשכונה","יש נוה שאנן חיפה- חניתה","רח' חניתה 64","חיפה","3244411",NA,NA
"7290027600007","2015-07-06","1","310","7","1","שופרסל","שופרסל שלי","שלי קרית חיים- דגניה","ד.דגניה 14","קרית חיים","2621019",NA,NA
"7290027600007","2015-07-06","2","312","7","1","שופרסל","שופרסל דיל","דיל חיפה- קרית אליעזר","ככר מאירהוף","חיפה","35154",NA,NA
"7290027600007","2015-07-06","1","314","7","1","שופרסל","שופרסל שלי","שלי חיפה- צרפת","דרך צרפת 11","חיפה","3559602",NA,NA
"7290027600007","2015-07-06","1","316","7","1","שופרסל","שופרסלשלי","שלי קרית מוצקין-שד ויצמן","ד.ויצמן 1","קרית מוצקין","2635101",NA,NA
"7290027600007","2015-07-06","7","317","7","1","שופרסל","שופרסל אקספרס","אקספרס גבעת עדה","חי 67","גבעת עדה","",NA,NA
"7290027600007","2015-07-06","1","319","7","1","שופרסל","שופרסל שלי","שלי עכו- שפירא","רח.משה שפירא 28","עכו","2440929",NA,NA
"7290027600007","2015-07-06","2","321","7","1","שופרסל","שופרסל דיל","דיל שלומי-מרכז מסחרי","מרכז מסחרי","שלומי","2283200",NA,NA
"7290027600007","2015-07-06","1","323","7","1","שופרסל","שופרסל שלי","שלי רסקו נצרת עילית-הדקל","מרכז מסחרי רסקו","נצרת עלית","1765305",NA,NA
"7290027600007","2015-07-06","7","324","7","1","שופרסל","שופרסל אקספרס","אקספרס סביון- השקמה","השקמה 1","סביון","",NA,NA
"7290027600007","2015-07-06","1","326","7","1","שופרסל","שופרסל שלי","שלי נהריה- הגעתון","רח.הרצל-שד.הגעתו","נהריה","2240029",NA,NA
"7290027600007","2015-07-06","1","329","7","1","שופרסל","שופרסל שלי","שלי יוקנעם עילית-היובלים","מ.מסחרי יקנעם על","יוקנעם","20692",NA,NA
"7290027600007","2015-07-06","1","330","7","1","שופרסל","שופרסל שלי","שלי חיפה- נתיב חן","נתיב חן 1,נוה שא","חיפה","3224001",NA,NA
"7290027600007","2015-07-06","1","333","7","1","שופרסל","שופרסל שלי","שלי חיפה- אורן","רח.אורן 25 רוממה","חיפה","3473402",NA,NA
"7290027600007","2015-07-06","7","334","7","1","שופרסל","שופרסל אקספרס","אקספרס פ""ת - שפירא","קק""ל 35","פתח תקווה","",NA,NA
"7290027600007","2015-07-06","1","336","7","1","שופרסל","שופרסל שלי","שלי חיפה- רמות ספיר","רח' גוט לוין 48","חיפה","3292240",NA,NA
"7290027600007","2015-07-06","7","338","7","1","שופרסל","שופרסל אקספרס","אקספרס כוכב הצפון","בוני העיר 9","ת""א","",NA,NA
"7290027600007","2015-07-06","7","340","7","1","שופרסל","שופרסל אקספרס","אקספרס ת""א- זריצקי","זריצקי 4","תלאביב","",NA,NA
"7290027600007","2015-07-06","7","341","7","1","שופרסל","שופרסל אקספרס","אקספרס רמת גן- הרוא""ה","הרוא""ה 131","רמת גן","",NA,NA
"7290027600007","2015-07-06","2","344","7","1","שופרסל","שופרסל דיל","דיל מעלות- דרך האלוף עוז","קניון כוכב הצפון","מעלות","21020",NA,NA
"7290027600007","2015-07-06","7","347","7","1","שופרסל","שופרסל אקספרס","אקספרס גדרה- דרך הפרחים","דרך הפרחים 38","גדרה","",NA,NA
"7290027600007","2015-07-06","7","348","7","1","שופרסל","שופרסל אקספרס","אקספרס פ""ת-קק""ל","קק""ל 2","פתח תקווה","",NA,NA
"7290027600007","2015-07-06","2","350","7","1","שופרסל","שופרסל דיל","דיל גבעת אולגה-הרב ניסים","שד' ברוך בוארון1","גבעת אולגה","",NA,NA
"7290027600007","2015-07-06","2","352","7","1","שופרסל","שופרסל דיל","דיל חיפה- קניון","כניסה דרומית לחי","חיפה","35084",NA,NA
"7290027600007","2015-07-06","5","353","7","1","שופרסל","יש בשכונה","יש ירושלים- מרידור","מרידור 2(פ.זאב)","ירושלים","",NA,NA
"7290027600007","2015-07-06","7","354","7","1","שופרסל","שופרסל אקספרס","'אקספרס ת""א- קינג ג'ורג","קינג ג'ורג' 58","תל אביב","",NA,NA
"7290027600007","2015-07-06","8","355","7","1","שופרסל","אורגניק מרקט","אורגניק ת""א- אהרון בקר","אהרון בקר 8","תל אביב","",NA,NA
"7290027600007","2015-07-06","1","357","7","1","שופרסל","שופרסל שלי","שלי צורן קדימה- לב השרון","דרך לב השרון 422","צורן","4282300",NA,NA
"7290027600007","2015-07-06","2","359","7","1","שופרסל","שופרסל דיל","דיל חיפה- גרנד קניון","שמחה גולן 54","חיפה","3299001",NA,NA
"7290027600007","2015-07-06","7","360","7","1","שופרסל","שופרסל אקספרס","אקספרס מאירוביץ ראשל""צ","מאירוביץ 17","ראשון לציון","",NA,NA
"7290027600007","2015-07-06","2","361","7","1","שופרסל","שופרסל דיל","דיל מגדל העמק- א ת דרומי","אזור התעשייה ב","מגדל העמק","2353021",NA,NA
"7290027600007","2015-07-06","1","1","7","1","שופרסל","שופרסל שלי","שלי ת""א- בן יהודה","בן יהודה 79","תל אביב","6343504",NA,NA
"7290027600007","2015-07-06","1","3","7","1","שופרסל","שופרסל שלי","שלי גבעתיים- סירקין","סירקין 17","גבעתיים","5325101",NA,NA
"7290027600007","2015-07-06","1","7","7","1","שופרסל","שופרסל שלי","שלי ת""א- ארלוזורוב","ארלוזרוב 53","תל אביב","6264605",NA,NA
"7290027600007","2015-07-06","5","12","7","1","שופרסל","יש בשכונה","יש בני ברק- ירושלים","ירושלים  70","בני-ברק","5144404",NA,NA
"7290027600007","2015-07-06","2","13","7","1","שופרסל","שופרסל דיל","דיל בית שמש- העליה","העליה 1","בית-שמש","9902101",NA,NA
"7290027600007","2015-07-06","5","15","7","1","שופרסל","יש בשכונה","יש פ""ת- רוטשילד","רוטשילד 79","פתח-תקוה","4947352",NA,NA
"7290027600007","2015-07-06","1","20","7","1","שופרסל","שופרסל שלי","שלי רחובות- הרצל","הרצל 183","רחובות","7626902",NA,NA
"7290027600007","2015-07-06","1","23","7","1","שופרסל","שופרסל שלי","שלי מיתר","מרכז מסחרי מיתר","מיתר","8502500",NA,NA
"7290027600007","2015-07-06","1","24","7","1","שופרסל","שופרסל שלי","שלי אשדוד- הנביאים","הנביאים 3 רובע י","אשדוד","7747303",NA,NA
"7290027600007","2015-07-06","1","28","7","1","שופרסל","שופרסל שלי","שלי ת""א- צה""ל","צה""ל 71, מרכ","תל אביב","6935139",NA,NA
"7290027600007","2015-07-06","1","30","7","1","שופרסל","שופרסל שלי","שלי רמת גן- קריניצי","יוסף ספיר 9","רמת גן","5262209",NA,NA
"7290027600007","2015-07-06","1","32","7","1","שופרסל","שופרסל שלי","שלי רמת גן- קסם","הירדן 90","רמת-גן","5224701",NA,NA
"7290027600007","2015-07-06","1","36","7","1","שופרסל","שופרסל שלי","שלי כ""ס- רוטשילד","רוטשילד 65","כפר-סבא","4420131",NA,NA
"7290027600007","2015-07-06","1","37","7","1","שופרסל","שופרסל שלי","שלי ב""ש- יעלים","יעלים 34","באר-שבע","8473010",NA,NA
"7290027600007","2015-07-06","1","39","7","1","שופרסל","שופרסל שלי","שלי ת""א-ברזיל","ברזיל 15","רמת אביב א","6946025",NA,NA
"7290027600007","2015-07-06","1","40","7","1","שופרסל","שופרסל שלי","שלי ב""ש- עומר","רותם מרכ מסחרי ע","עומר","8496500",NA,NA
"7290027600007","2015-07-06","1","43","7","1","שופרסל","שופרסל שלי","שלי הוד השרון- הבנים","הבנים 12","הוד השרון","4526814",NA,NA
"7290027600007","2015-07-06","2","46","7","1","שופרסל","שופרסל דיל","דיל רמלה- היצירה","היצירה 1","רמלה","7255621",NA,NA
"7290027600007","2015-07-06","1","48","7","1","שופרסל","שופרסל שלי","שלי ת""א- רמת אביב ג","אחימאיר 1 פינת ר","תל אביב","6912601",NA,NA
"7290027600007","2015-07-06","1","50","7","1","שופרסל","שופרסל שלי","שלי מבשרת ציון","שלום 75 שכונה ג","מבשרת ציון","9071425",NA,NA
"7290027600007","2015-07-06","1","57","7","1","שופרסל","שופרסל שלי","שלי רמת השרון- אוסישקין","אוסישקין 5","רמת השרון","4721005",NA,NA
"7290027600007","2015-07-06","2","63","7","1","שופרסל","שופרסל דיל","דיל פ""ת- בזל","בזל פינת בלטימור","פתח-תקוה","4951034",NA,NA
"7290027600007","2015-07-06","2","65","7","1","שופרסל","שופרסל דיל","דיל ב""ש- צ'ורלי","אורגים פינתב.ג","באר-שבע","84105",NA,NA
"7290027600007","2015-07-06","1","70","7","1","שופרסל","שופרסל שלי","שלי רמת גן- מרום נווה","תרצה 19 ר""ג","רמת-גן","5236431",NA,NA
"7290027600007","2015-07-06","4","71","7","1","שופרסל","שופרסל דיל אקסטרא","דיל אקסטרה תל חנן  נשר","בר יהודה 147","נשר","3688306",NA,NA
"7290027600007","2015-07-06","1","72","7","1","שופרסל","שופרסל שלי","שלי רעות","חבל מודיעין","רעות","71908",NA,NA
"7290027600007","2015-07-06","2","97","7","1","שופרסל","שופרסל דיל","דיל קרית שמונה- מתחם ביג","מתחם ביג","קריתשמונה","1162401",NA,NA
"7290027600007","2015-07-06","2","98","7","1","שופרסל","שופרסל דיל","דיל קרית טבעון- אלונים","חוצות אלונים","טבעון","3604701",NA,NA
"7290027600007","2015-07-06","1","101","7","1","שופרסל","שופרסל שלי","שלי הוד השרון- ק מרגלית","נחליאלי 2","הוד השרון","4535502",NA,NA
"7290027600007","2015-07-06","1","102","7","1","שופרסל","שופרסל שלי","שלי פרדסיה- הנשיא","הנשיא 1 צ.פרדסיה","פרדסיה","4281500",NA,NA
"7290027600007","2015-07-06","1","103","7","1","שופרסל","שופרסל שלי","שלי שוהם- מרכז מסחרי","מרכז מסחרי","שוהם","6083530",NA,NA
"7290027600007","2015-07-06","1","104","7","1","שופרסל","שופרסל שלי","שלי פ""ת- גד מכנס","רוטשילד 180","פתח תקווה","9435700",NA,NA
"7290027600007","2015-07-06","2","105","7","1","שופרסל","שופרסל דיל","דיל פ""ת- אליעזר פרדימן","אליעזר פרידמן 9","פתח תקוה","4941916",NA,NA
"7290027600007","2015-07-06","4","106","7","1","שופרסל","שופרסל דיל אקסטרא","דיל אקסטרה נס ציונה הפטי","הפטיש 8,א.ת.","נס ציונה","7404730",NA,NA
"7290027600007","2015-07-06","1","109","7","1","שופרסל","שופרסל שלי","שלי ראש העין- ז'בוטינסקי","גבעת טל","ראש העין","4857301",NA,NA
"7290027600007","2015-07-06","6","111","7","1","שופרסל","יש חסד","יש חסד טבריה עלית-לב האג","לב האגם 10","טבריה","14431",NA,NA
"7290027600007","2015-07-06","1","112","7","1","שופרסל","שופרסל שלי","שלי.רחובות ההולנדית","הר הצופים","רחובות","",NA,NA
"7290027600007","2015-07-06","2","114","7","1","שופרסל","שופרסל דיל","דיל ירושלים- גילה","צביה ויצחק 17","ירושלים","9384014",NA,NA
"7290027600007","2015-07-06","1","116","7","1","שופרסל","שופרסל שלי","שלי גבעתיים- מכתש","בורוכוב 54","גבעתיים","5322205",NA,NA
"7290027600007","2015-07-06","2","119","7","1","שופרסל","שופרסל דיל","דיל מודיעין- סנטר","צאלון   21","מודיעין","",NA,NA
"7290027600007","2015-07-06","4","120","7","1","שופרסל","שופרסל דיל אקסטרא","דיל אקסטרה  חולון-המרכבה","המרכבה 9","חולון","5885107",NA,NA
"7290027600007","2015-07-06","2","122","7","1","שופרסל","שופרסל דיל","דיל יבנה- ברוש דרך הים","דרך הים 3","יבנה","8157014",NA,NA
"7290027600007","2015-07-06","2","123","7","1","שופרסל","שופרסל דיל","דיל חולון- גולדה","גולדה מאיר  7","חולון","5839101",NA,NA
"7290027600007","2015-07-06","2","125","7","1","שופרסל","שופרסל דיל","דיל הרצליה- המנופים","המנופים 9","הרצליה","4672555",NA,NA
"7290027600007","2015-07-06","2","128","7","1","שופרסל","שופרסל דיל","דיל טירת הכרמל- נחום חת","נחום חת 5","טירת הכרמל","35085",NA,NA
"7290027600007","2015-07-06","2","130","7","1","שופרסל","שופרסל דיל","דיל נתניה- קלאוזנר עמליה","קלאוזנר 1","נתניה","",NA,NA
"7290027600007","2015-07-06","2","132","7","1","שופרסל","שופרסל דיל","דיל ת""א- השלום","דרך מנחם בגין132","תל אביב","6701101",NA,NA
"7290027600007","2015-07-06","2","134","7","1","שופרסל","שופרסל דיל","דיל מודיעין- ישפרו סנטר","ישפרו סנטר","מודיעין","",NA,NA
"7290027600007","2015-07-06","2","135","7","1","שופרסל","שופרסל דיל","דיל אשקלון- פאור סנטר","צומת כפר סילבר","אשקלון","7929500",NA,NA
"7290027600007","2015-07-06","2","139","7","1","שופרסל","שופרסל דיל","דיל צפת-  דובק ויצמן","ויצמן 20","צפת","1321736",NA,NA
"7290027600007","2015-07-06","2","142","7","1","שופרסל","שופרסל דיל","דיל זכרון- המייסדים","המייסדים","זכרון יעקב","3095067",NA,NA
"7290027600007","2015-07-06","2","144","7","1","שופרסל","שופרסל דיל","דיל שבירו כפר סבא","רפפורט 6","כפר סבא","",NA,NA
"7290027600007","2015-07-06","4","149","7","1","שופרסל","שופרסל דיל אקסטרא","דיל אקסטרה נצרת  הר יונה","המעין 2","נצרת עילית","1780004",NA,NA
"7290027600007","2015-07-06","2","151","7","1","שופרסל","שופרסל דיל","דיל רעננה- קניון רננים","רח.המלאכה 2","רעננה","4366101",NA,NA
"7290027600007","2015-07-06","2","153","7","1","שופרסל","שופרסל דיל","דיל אופקים- ז'בוטינסקי","זבוטינסקי 25","אופקים","8759908",NA,NA
"7290027600007","2015-07-06","7","154","7","1","שופרסל","שופרסל אקספרס","אקספרס קריית אונו","ההגנה 1","קרית אונו","",NA,NA
"7290027600007","2015-07-06","2","159","7","1","שופרסל","שופרסל דיל","דיל רמת הנשיא חיפה","שלמה המלך 55","חיפה","",NA,NA
"7290027600007","2015-07-06","1","160","7","1","שופרסל","שופרסל שלי","שלי רמת גן- הירדן","הירדן 29","רמת גן","5233317",NA,NA
"7290027600007","2015-07-06","2","163","7","1","שופרסל","שופרסל דיל","דיל שדרות- הפלדה","הפלדה קניון אחים","שדרות","80100",NA,NA
"7290027600007","2015-07-06","1","164","7","1","שופרסל","שופרסל שלי","שלי רמת גן- ביאליק","רח. ביאליק 76","רמת גן","5244136",NA,NA
"7290027600007","2015-07-06","2","167","7","1","שופרסל","שופרסל דיל","דיל ראשל""צ- הלח""י","הלח""י 8","ראשוןלציון","7570689",NA,NA
"7290027600007","2015-07-06","1","168","7","1","שופרסל","שופרסל שלי","שלי אשדוד- כינרת","שכונת י""א כנרת","אשדוד","7770071",NA,NA
"7290027600007","2015-07-06","2","174","7","1","שופרסל","שופרסל דיל","דיל ערד- קניון","הקנאים 29","ערד","8902342",NA,NA
"7290027600007","2015-07-06","1","175","7","1","שופרסל","שופרסל שלי","שלי טבריה","הבנים 6","טבריה","1420168",NA,NA
"7290027600007","2015-07-06","2","180","7","1","שופרסל","שופרסל דיל","דיל ק.מוצקין- בן גוריון","שד' בן גוריון 84","קרית מוצקין","2642439",NA,NA
"7290027600007","2015-07-06","2","183","7","1","שופרסל","שופרסל דיל","דיל אשדוד- הרצל","רח' הרצל 1","אשדוד","7745401",NA,NA
"7290027600007","2015-07-06","1","185","7","1","שופרסל","שופרסל שלי","שלי אילתהקניון האדום","הקניון האדום","אילת","8801401",NA,NA
"7290027600007","2015-07-06","2","187","7","1","שופרסל","שופרסל דיל","דיל קרית שמונה- הנשיא","הנשיא 4","קרית-שמונה","1102632",NA,NA
"7290027600007","2015-07-06","2","190","7","1","שופרסל","שופרסל דיל","דיל חצור- הגלילית","קניון גליל עליון","חצור-הגלילית","1030000",NA,NA
"7290027600007","2015-07-06","2","191","7","1","שופרסל","שופרסל דיל","דיל אריאל- דרך עפרון","דרך עפרון 14","אריאל","4070913",NA,NA
"7290027600007","2015-07-06","1","196","7","1","שופרסל","שופרסל שלי","שלי-אבן גבירול","אבן גבירול 124","תל-אביב","6203854",NA,NA
"7290027600007","2015-07-06","2","197","7","1","שופרסל","שופרסל דיל","דיל נהריה- מבואות","מזרעה,חאמד סנטר","נהריה","2244743",NA,NA
"7290027600007","2015-07-06","2","199","7","1","שופרסל","שופרסל דיל","דיל בת ים- בלפור","בלפור 25","בת ים","0",NA,NA
"7290027600007","2015-07-06","2","205","7","1","שופרסל","שופרסל דיל","דיל יהוד- אלטלף","אלטלף 4 א.ת יהוד","יהוד","5621604",NA,NA
"7290027600007","2015-07-06","1","207","7","1","שופרסל","שופרסל שלי","שלי אור יהודה-אליהו סעדו","אליהו סעדון 128","אור יהודה","6039727",NA,NA
"7290027600007","2015-07-06","2","209","7","1","שופרסל","שופרסל דיל","דיל אשקלון- רוטשילד","אדמונד רוטשילד 8","אשקלון","7822602",NA,NA
"7290027600007","2015-07-06","2","211","7","1","שופרסל","שופרסל דיל","דיל כרמיאל- אזור התעשיה","א.ת חוצות כרמיאל","כרמיאל","2165006",NA,NA
"7290027600007","2015-07-06","1","212","7","1","שופרסל","שופרסל שלי","שלי חיפה- ורדיה","ורדיה 10","חיפה","3465710",NA,NA
"7290027600007","2015-07-06","2","214","7","1","שופרסל","שופרסל דיל","דיל קרית גת- מלכי ישראל","מלכי ישראל 178","קרית גת","8205002",NA,NA
"7290027600007","2015-07-06","2","218","7","1","שופרסל","שופרסל דיל","דיל עפולה- יצחק רבין","שד' יצחק רבין 5","עפולה","1834171",NA,NA
"7290027600007","2015-07-06","6","219","7","1","שופרסל","יש חסד","יש חסד בני ברק- עזרא","עזרה בני ברק","בני ברק","5155103",NA,NA
"7290027600007","2015-07-06","1","220","7","1","שופרסל","שופרסל שלי","שלי אשקלון- כיכר צפניה","מרכזון מסחר רחל","אשקלון","7843110",NA,NA
"7290027600007","2015-07-06","2","222","7","1","שופרסל","שופרסל דיל","דיל רמות ב""ש ב'","הערים התאומות 28","באר שבע","",NA,NA
"7290027600007","2015-07-06","7","223","7","1","שופרסל","שופרסל אקספרס","אקספרס ראשל""צ- פיינשטיין","פינשטיין27","ראשון לציון","",NA,NA
"7290027600007","2015-07-06","7","224","7","1","שופרסל","שופרסל אקספרס","אקספרס ראשל""צ-נווה דקלים","נווה דקלים 44","ראשון לציון","",NA,NA
"7290027600007","2015-07-06","2","226","7","1","שופרסל","שופרסל דיל","דיל כרמיאל","ההגנה 2","כרמיאל","",NA,NA
"7290027600007","2015-07-06","2","227","7","1","שופרסל","שופרסל דיל","דיל-איקאה קרית אתא","דרך חיפה 52","קרית אתא","",NA,NA
"7290027600007","2015-07-06","1","228","7","1","שופרסל","שופרסל שלי","שלי בנימינה - הגביע","הגביע 1","בנימינה","3056601",NA,NA
"7290027600007","2015-07-06","2","229","7","1","שופרסל","שופרסל דיל","דיל ת""א- יגאל אלון","יגאל אלון 76","תל אביב","6706701",NA,NA
"7290027600007","2015-07-06","1","230","7","1","שופרסל","שופרסל שלי","שלי כ""ס- ויצמן","ויצמן 29","כפר סבא","4435227",NA,NA
"7290027600007","2015-07-06","1","6","7","1","שופרסל","שופרסל שלי","שלי חולון- קוגל","שד' קוגל 40","חולון","5825816",NA,NA
"7290027600007","2015-07-06","4","138","7","1","שופרסל","שופרסל דיל אקסטרא","דיל אקסטרה ב""ש-סולל בונה","סולל בונה 2","באר שבע","",NA,NA
"7290027600007","2015-07-06","2","141","7","1","שופרסל","שופרסל דיל","דיל יוקנעם- שדרות רבין","שדרות רבין 9","יקנעם","2060000",NA,NA
"7290027600007","2015-07-06","1","146","7","1","שופרסל","שופרסל שלי","שלי גבעתיים- הסתדרות","הסתדרות 27","גבעתיים","5358503",NA,NA
"7290027600007","2015-07-06","2","152","7","1","שופרסל","שופרסל דיל","דיל ערד- ישפרו המנוף","המנוף 7","ערד","8909460",NA,NA
"7290027600007","2015-07-06","2","155","7","1","שופרסל","שופרסל דיל","דיל צור יגאל- מרכז מסחרי","מרכז מסחרי","צור-יגאל","4486400",NA,NA
"7290027600007","2015-07-06","5","161","7","1","שופרסל","יש בשכונה","יש יהוד- ויצמן","וייצמן 55","יהוד","5624210",NA,NA
"7290027600007","2015-07-06","4","166","7","1","שופרסל","שופרסל דיל אקסטרא","דיל אקסטרה  אשדוד- הבושם","הבושם 7 א.ת. קלה","אשדוד","7761007",NA,NA
"7290027600007","2015-07-06","2","177","7","1","שופרסל","שופרסל דיל","דיל מצפה רמון- בן גוריון","מרכז מסחרי","מצפה-רמון","8060000",NA,NA
"7290027600007","2015-07-06","2","181","7","1","שופרסל","שופרסלדיל","דיל אשקלון- רמז","דוד רמז 39","אשקלון","7853339",NA,NA
"7290027600007","2015-07-06","2","182","7","1","שופרסל","שופרסל דיל","דיל דימונה- גולדה מאיר","גולדה מאיר 1","דימונה","86000",NA,NA
"7290027600007","2015-07-06","1","11","7","1","שופרסל","שופרסל שלי","שלי ת""א- נורדאו","אבן גבירול 157","תל אביב","6203719",NA,NA
"7290027600007","2015-07-06","2","18","7","1","שופרסל","שופרסל דיל","דיל חולון-קרן היסוד","קרן היסוד 1 ק.שר","חולון","5848930",NA,NA
"7290027600007","2015-07-06","1","27","7","1","שופרסל","שופרסל שלי","שלי רעננה- אחוזה","אחוזה 82","רעננה","4320945",NA,NA
"7290027600007","2015-07-06","1","31","7","1","שופרסל","שופרסל שלי","שלי קרית ים- ז'בוטינסקי","ז'בוטיסקי/שד' ים","קרית ים","2901711",NA,NA
"7290027600007","2015-07-06","1","33","7","1","שופרסל","שופרסל שלי","שלי חיפה- סטלה","טשרניחובסקי/35","חיפה","3570323",NA,NA
"7290027600007","2015-07-06","1","34","7","1","שופרסל","שופרסל שלי","שלי רמת השרון- סוקולוב","סוקולוב 48","רמת-השרון","4723514",NA,NA
"7290027600007","2015-07-06","2","184","7","1","שופרסל","שופרסל דיל","דילראשל""צ- זבוטינסקי","זבוטינסקי 16","ראשון לציון","",NA,NA
"7290027600007","2015-07-06","2","188","7","1","שופרסל","שופרסל דיל","דיל ירוחם- צבי בורנשטיין","צבי בורנשטין","ירוחם","8050000",NA,NA
"7290027600007","2015-07-06","1","193","7","1","שופרסל","שופרסל שלי","שלי ראשל""צ- מזרח","שד' יעקב 50","ראשון לציון","7550903",NA,NA
"7290027600007","2015-07-06","2","195","7","1","שופרסל","שופרסל דיל","דיל קריון- דרך עכו","דרך עכו  192","קרית ביאליק","2723211",NA,NA
"7290027600007","2015-07-06","2","198","7","1","שופרסל","שופרסל דיל","דיל מישור אדומים- נביעות","נביעות 2","מעלה אדומים","9801459",NA,NA
"7290027600007","2015-07-06","2","203","7","1","שופרסל","שופרסל דיל","דיל רמלה לוד- הצופית","הצופית 40","רמלה","",NA,NA
"7290027600007","2015-07-06","2","208","7","1","שופרסל","שופרסל דיל","דיל אילת נחל אורה","ירושלים השלמה 52","אילת","",NA,NA
"7290027600007","2015-07-06","2","210","7","1","שופרסל","שופרסל דיל","דיל ראשל""צ- שמוטקין","שמוטקין 30","ראשון לציון","7536333",NA,NA
"7290027600007","2015-07-06","2","244","7","1","שופרסל","שופרסל דיל","דיל גלילות רמת השרון","צומת גלילות","רמת השרון","47100",NA,NA
"7290027600007","2015-07-06","1","247","7","1","שופרסל","שופרסל שלי","שלי חולון- רבינוביץ","רבינוביץ 58","חולון","5867256",NA,NA
"7290027600007","2015-07-06","2","249","7","1","שופרסל","שופרסל דיל","דיל נתניה- פולג","גיבורי ישראל 5","נתניה","4250409",NA,NA
"7290027600007","2015-07-06","2","260","7","1","שופרסל","שופרסל דיל","דיל ירושלים-קניון תלפיות","האומן 17","ירושלים","9342111",NA,NA
"7290027600007","2015-07-06","2","276","7","1","שופרסל","שופרסל דיל","דיל אמט""ל רחובות","רח משה יתום  46","רחובות","76396",NA,NA
"7290027600007","2015-07-06","2","283","7","1","שופרסל","שופרסל דיל","דיל קרית עקרון- ביל""ו","מ.תדיראן,ק.עקרון","רחובות","7692000",NA,NA
"7290027600007","2015-07-06","6","295","7","1","שופרסל","יש חסד","יש חסד בני ברק-שלמה המלך","שלמה המלך   12","בני ברק","5155205",NA,NA
"7290027600007","2015-07-06","7","296","7","1","שופרסל","שופרסל אקספרס","אקספרס פ""ת רחל המשוררת","רחל המשוררת 29","פתח תקוה","",NA,NA
"7290027600007","2015-07-06","6","300","7","1","שופרסל","יש חסד","יש חסד בארות יצחק- פאוור","בארות יצחק","בארות יצחק","",NA,NA
"7290027600007","2015-07-06","7","304","7","1","שופרסל","שופרסל אקספרס","אקספרס קריית חיים","ציזלינג אהרון 24","קרית חיים","2627012",NA,NA
"7290027600007","2015-07-06","5","307","7","1","שופרסל","יש בשכונה","יש קרית אתא- זבולון"," רח.זבולון 4","קרית אתא","2806007",NA,NA
"7290027600007","2015-07-06","1","308","7","1","שופרסל","שופרסל שלי","שלי קרית אתא- איינשטין","איינשטיין 20","קרית אתא","2805152",NA,NA
"7290027600007","2015-07-06","7","311","7","1","שופרסל","שופרסל אקספרס","אקספרס רחובות- בוסתנאי","בוסתנאי 14","רחובות","",NA,NA
"7290027600007","2015-07-06","1","313","7","1","שופרסל","שופרסל שלי","שלי קרית חיים-אח""י אילת","שד.אח""י אילת 20","קרית חיים","2626907",NA,NA
"7290027600007","2015-07-06","7","318","7","1","שופרסל","שופרסל אקספרס","אקספרס חולון - וולפסון","הלוחמים 62","חולון","",NA,NA
"7290027600007","2015-07-06","7","325","7","1","שופרסל","שופרסל אקספרס","אקספרס ששתהימים נס ציונ"," - בקרוב -","נס ציונה","",NA,NA
"7290027600007","2015-07-06","7","327","7","1","שופרסל","שופרסל אקספרס","אקספרס חיפה- ראול ולנברג","ראול וולנברג 9","חיפה","3499009",NA,NA
"7290027600007","2015-07-06","7","331","7","1","שופרסל","שופרסל אקספרס","אקספרס ת""א- תוספתא","תוספתא 15","תל אביב","",NA,NA
"7290027600007","2015-07-06","7","335","7","1","שופרסל","שופרסל אקספרס","אקספרס כ""ס- בן גוריון","בן גוריון 35","כפר סבא","",NA,NA
"7290027600007","2015-07-06","2","339","7","1","שופרסל","שופרסל דיל","דיל טבריה- העמקים","העמקים 1","טבריה","1420401",NA,NA
"7290027600007","2015-07-06","2","342","7","1","שופרסל","שופרסל דיל","דיל כרמיאל- קניון לב","מורד הגיא 100","כרמיאל","2192401",NA,NA
"7290027600007","2015-07-06","1","9","7","1","שופרסל","שופרסל שלי","שלי נתניה- ויצמן","שד' ויצמן 27","נתניה","4225012",NA,NA
"7290027600007","2015-07-06","1","10","7","1","שופרסל","שופרסל שלי","שלי חולון- חנקין","חנקין  79","חולון","5834321",NA,NA
"7290027600007","2015-07-06","1","17","7","1","שופרסל","שופרסל שלי","שלי חיפה- חורב","חורב 15","חיפה","3434119",NA,NA
"7290027600007","2015-07-06","1","19","7","1","שופרסל","שופרסל שלי","שלי חיפה- זיו","כצנלסון/מנדל 67","חיפה","3276617",NA,NA
"7290027600007","2015-07-06","5","21","7","1","שופרסל","יש בשכונה","יש מרים ירושלים-  פארן","פארן 7 רמת אשכול","ירושלים","9780209",NA,NA
"7290027600007","2015-07-06","1","22","7","1","שופרסל","שופרסל שלי","שלי נתניה- סמילנסקי","סמילנסקי 13","נתניה","4243111",NA,NA
"7290027600007","2015-07-06","4","35","7","1","שופרסל","שופרסל דיל אקסטרא","דיל אקסטרה באר-שבע ולפסו","רח' וולפסון 13","באר שבע","8489721",NA,NA
"7290027600007","2015-07-06","1","38","7","1","שופרסל","שופרסל שלי","שלי חיפה- דניה","ליבריה 2 דניה","חיפה","3491370",NA,NA
"7290027600007","2015-07-06","1","42","7","1","שופרסל","שופרסל שלי","שלי ירושלים- ניות","בורלא 1 שכ.ניות","ירושלים","9371401",NA,NA
"7290027600007","2015-07-06","2","45","7","1","שופרסל","שופרסל דיל","דיל ירושלים-תלפיות","פייר קניג 35","ירושלים","9346943",NA,NA
"7290027600007","2015-07-06","2","47","7","1","שופרסל","שופרסל דיל","דיל קטרפילר- ההסתדרות","שדרות סתדרות 251","חיפה","2620241",NA,NA
"7290027600007","2015-07-06","2","49","7","1","שופרסל","שופרסל דיל","דיל ב""ש- הר בוקר","הר בוקר  17","באר שבע","8489819",NA,NA
"7290027600007","2015-07-06","2","55","7","1","שופרסל","שופרסל דיל","דיל כ""ס- צומת","נתיב האבות 3","כפר סבא","4427728",NA,NA
"7290027600007","2015-07-06","1","59","7","1","שופרסל","שופרסל שלי","שלי פרדס חנה כרכור- הדקל","הדקלים 99","פרדס-חנה","3702195",NA,NA
"7290027600007","2015-07-06","5","66","7","1","שופרסל","יש בשכונה","יש ירושלים- רמות","שד גוםדה מאיר801","ירושלים","9773314",NA,NA
"7290027600007","2015-07-06","1","67","7","1","שופרסל","שופרסל שלי","שלי גבעת שמואל-בן גוריון","בן-גוריון 18","גבעת-שמואל","5401783",NA,NA
"7290027600007","2015-07-06","1","69","7","1","שופרסל","שופרסל שלי","שלי ת""א- רמת אביב ב","טאגור 38","תל אביב","6920340",NA,NA
"7290027600007","2015-07-06","2","74","7","1","שופרסל","שופרסל דיל","דיל נתניה- הדרים","הכדר 2","נתניה","4237782",NA,NA
"7290027600007","2015-07-06","2","75","7","1","שופרסל","שופרסל דיל","דיל ירושלים- כנפי נשרים","כנפי נשרים 24","ירושלים","9546439",NA,NA
"7290027600007","2015-07-06","5","78","7","1","שופרסל","יש בשכונה","יש הר נוף ירושלים-שאולזו","שאולזון 56","ירושלים","9540057",NA,NA
"7290027600007","2015-07-06","1","79","7","1","שופרסל","שופרסל שלי","שלי ראשל""צ- הנחשול","נחשול 30","ראשון לציון","7543771",NA,NA
"7290027600007","2015-07-06","2","118","7","1","שופרסל","שופרסל דיל","דיל אילת  הסתת","הסתת 15 א תעשיה","אילת","8850415",NA,NA
"7290027600007","2015-07-06","6","349","7","1","שופרסל","יש חסד","יש חסד צפת- כנען","הר כנען","צפת","13200",NA,NA
"7290027600007","2015-07-06","2","351","7","1","שופרסל","שופרסל דיל","דיל יבנה- הירמוך","הירמוך 1","יבנה","8122005",NA,NA
"7290027600007","2015-07-06","6","133","7","1","שופרסל","יש חסד","יש חסד ביתר עילית-  הר""ן","","","9056506",NA,NA
"7290027600007","2015-07-06","1","343","7","1","שופרסל","שופרסל שלי","שלי ראש העין- ברקן","בזק 1 פינת ברקן","ראש העין","4863016",NA,NA
"7290027600007","2015-07-06","8","346","7","1","שופרסל","אורגניק מרקט","אורגניק קרית אונו-ירמיהו","ירמיהו 52","קריית אונו","",NA,NA
"7290696200003","16/13/YYYY 13:13:22","001","001","","1","ויקטורי","","גן-יבנה","הכישור 8","גן יבנה","",NA,NA
"7290696200003","16/12/YYYY 13:12:46","001","002","","1","ויקטורי","","גדרה","פינס 3","גדרה","",NA,NA
"7290696200003","16/19/YYYY 13:19:17","001","003","","1","ויקטורי","","שדרות","סמטת הפלדה 3","שדרות","",NA,NA
"7290696200003","14/03/YYYY 17:03:53","001","005","","1","ויקטורי","","אורנית","הערבה 10","אורנית","",NA,NA
"7290696200003","14/43/YYYY 16:43:33","001","007","","1","ויקטורי","","פתח תקווה","בר כוכבא 18","פתח תקווה","",NA,NA
"7290696200003","16/14/YYYY 13:14:15","001","008","","1","ויקטורי","","אשדוד","דוד המלך 18","אשדוד","",NA,NA
"7290696200003","14/01/YYYY 17:01:32","001","010","","1","ויקטורי","","לוד","יוספטל 23","לוד","",NA,NA
"7290696200003","16/09/YYYY 13:09:22","001","014","","1","ויקטורי","","בית שמש","הרצל 7","בית שמש","",NA,NA
"7290696200003","16/11/YYYY 13:11:24","001","016","","1","ויקטורי","","פלורנטין","סלמה 53","תל אביב","",NA,NA
"7290696200003","16/14/YYYY 13:14:57","001","018","","1","ויקטורי","","אשדוד 18 מהדרין","חנה סנש 1","אשדוד","",NA,NA
"7290696200003","14/02/YYYY 17:02:17","001","026","","1","ויקטורי","","ראש העין","שבזי 26","ראש העין","",NA,NA
"7290696200003","16/08/YYYY 13:08:30","001","028","","1","ויקטורי","","גני תקווה","הכרמל 20","גני תקווה","",NA,NA
"7290696200003","14/03/YYYY 17:03:03","001","030","","1","ויקטורי","","אלקנה","שיר השירים 75/1","אלקנה","",NA,NA
"7290696200003","14/40/YYYY 16:40:18","001","034","","1","ויקטורי","","מוצקין","שד ירושלים 1","קרית מוצקין","",NA,NA
"7290696200003","14/42/YYYY 16:42:04","001","036","","1","ויקטורי","","כפר-סבא","נתיב האבות 14","כפר סבא","",NA,NA
"7290696200003","16/16/YYYY 13:16:19","001","041","","1","ויקטורי","","ברנע","רחבעם זאבי ","אשקלון","",NA,NA
"7290696200003","14/41/YYYY 16:41:04","001","043","","1","ויקטורי","","רכסים","הכלניות 49","רכסים","",NA,NA
"7290696200003","16/10/YYYY 13:10:50","001","044","","1","ויקטורי","","לינקולן תל אביב","לינקולן 16","תל-אביב","67134",NA,NA
"7290696200003","16/15/YYYY 13:15:37","001","052","","1","ויקטורי","","אשקלון","בן צבי 8","אשקלון","",NA,NA
"7290696200003","16/17/YYYY 13:17:09","001","054","","1","ויקטורי","","קרית מלאכי","זבוטינסקי 8","קרית מלאכי","",NA,NA
"7290696200003","16/17/YYYY 13:17:56","001","055","","1","ויקטורי","","קרית גת","הגפן 3","קרית גת","",NA,NA
"7290696200003","16/12/YYYY 13:12:10","001","061","","1","ויקטורי","","אוניברסיטה ת""א","גורג וויז 1","תל אביב","",NA,NA
"7290696200003","16/10/YYYY 13:10:13","001","062","","1","ויקטורי","","תל-אביב","אחד העם 13","תל אביב","",NA,NA
"7290696200003","16/20/YYYY 13:20:16","001","068","","1","ויקטורי","","באר שבע","בן גוריון 15","באר שבע","",NA,NA
"7290696200003","16/19/YYYY 13:19:47","001","072","","1","ויקטורי","","קרית גת ביג ","דרך הדרום 3","קרית גת","82021",NA,NA
"7290696200003","14/55/YYYY 16:55:44","001","077","","3","ויקטורי","","לוד נתב""ג","פסח לב 2","לוד","",NA,NA
"7290696200003","14/45/YYYY 16:45:02","001","078","","1","ויקטורי","","רמלה","הרצל 91","רמלה","",NA,NA
"7290696200003","14/40/YYYY 16:40:10","001","086","","1","ויקטורי","","טבעון","המרווה 1","טבעון","",NA,NA
"7290696200003","14/42/YYYY 16:42:53","001","090","","0","ויקטורי","","נתניה","האורזים 4","נתניה","42377",NA,NA
"7290661400001","22/41/YYYY 08:41:36","001","001","","1","מחסני השוק","","1 ב""ש-בית אשל","בית אשל 1","באר שבע","",NA,NA
"7290661400001","22/44/YYYY 08:44:45","001","011","","1","מחסני השוק","","11  עין יהב","ד.נ.ערבה 86820","עין יהב","",NA,NA
"7290661400001","22/47/YYYY 08:47:36","001","015","","1","מחסני השוק","","15  שכונה ט","שד` ירושלים 10","באר שבע","",NA,NA
"7290661400001","22/50/YYYY 08:50:52","001","020","","1","מחסני השוק","","20 להבים","מרכז מסחרי להבים ","להבים","",NA,NA
"7290661400001","22/05/YYYY 09:05:38","001","030","","1","מחסני השוק","","30 נווה זאב","מאפו 7","באר שבע","",NA,NA
"7290661400001","22/05/YYYY 09:05:27","001","040","","1","מחסני השוק","","40 אופקים","יהדות דרום אפריקה 14","אופקים","87573",NA,NA
"7290661400001","22/02/YYYY 09:02:25","001","050","","1","מחסני השוק","","50 רד""ק","רחבת רד""ק 28","באר שבע","",NA,NA
"7290661400001","22/20/YYYY 09:20:54","001","055","","1","מחסני השוק","","55  יד בנימין","יד בנימין ","יד בנימין","",NA,NA
"7290661400001","22/05/YYYY 09:05:09","001","060","","1","מחסני השוק","","60 דימונה","מרכז פרץ סנטר ","דימונה","",NA,NA
"7290661400001","22/45/YYYY 09:45:02","001","065","","1","מחסני השוק","","65 קרית אתא","חנקין 1","קרית אתא","28212",NA,NA
"7290661400001","22/09/YYYY 09:09:33","001","070","","1","מחסני השוק","","70 אורגים","האורגים 7","באר שבע","",NA,NA
"7290661400001","22/26/YYYY 09:26:25","001","071","","1","מחסני השוק","","71 קריית מלאכי","צה""ל 1","קרית מלאכי","",NA,NA
"7290661400001","22/33/YYYY 09:33:38","001","072","","1","מחסני השוק","","72 אשדוד הפלמ""ח (ג)","הפלמ""ח 20","אשדוד","77376",NA,NA
"7290661400001","22/37/YYYY 09:37:01","001","075","","1","מחסני השוק","","75 טבריה הדר","יהודה הלוי 113","טבריה","14246",NA,NA
"7290661400001","22/39/YYYY 09:39:09","001","076","","1","מחסני השוק","","76 צפת","לוחמי הגטאות 1","צפת","13401",NA,NA
"7290661400001","22/42/YYYY 09:42:59","001","077","","1","מחסני השוק","","77 קרית גת","דרך הדרום 1","קרית גת","82021",NA,NA
"7290661400001","22/13/YYYY 09:13:10","001","080","","1","מחסני השוק","","80 המשחררים","דרך המשחררים 100","באר שבע","",NA,NA
"7290661400001","22/16/YYYY 09:16:00","001","081","","1","מחסני השוק","","81 מבצע עובדה- מצדה","מבצע עובדה 2","באר שבע","",NA,NA
"7290661400001","01/00/YYYY 00:00:00","001","090","","0","מחסני השוק","","90 מרלוג-מרכז רשת"," ","","",NA,NA
"7290661400001","22/23/YYYY 09:23:22","001","091","","1","מחסני השוק","","91 זבוטינסקי","ז`בוטינסקי 128","רמת גן","52602",NA,NA
"7290661400001","22/18/YYYY 09:18:22","001","098","","1","מחסני השוק","","אילת 98","הספן 1","אילת","",NA,NA
"7290058179503","21/37/YYYY 17:37:22","001","001","","1","מחסני להב","","חולון","הלוחמים 1","תל אביב","",NA,NA
"7290058179503","21/37/YYYY 17:37:55","001","010","","1","מחסני להב","","אשדוד","שהם רובע י""ז 2","אשדוד","",NA,NA
"7290058179503","21/38/YYYY 17:38:27","001","011","","1","מחסני להב","","באר שבע","שדרות דוד טוביה 125","באר שבע","",NA,NA
"7290058179503","21/38/YYYY 17:38:46","001","015","","1","מחסני להב","","רגבה","חוצות רגבה 5","רגבה","",NA,NA
"7290058179503","21/39/YYYY 17:39:05","001","020","","1","מחסני להב","","נתניה","הרצל 58","נתניה","",NA,NA
"7290058179503","21/39/YYYY 17:39:24","001","025","","1","מחסני להב","","רמת אביב","איינשטיין 64","תל אביב","",NA,NA
"7290058179503","21/40/YYYY 17:40:29","001","030","","1","מחסני להב","","חיפה","ההסתדרות 248","קרית אתא","",NA,NA
"7290058179503","21/40/YYYY 17:40:47","001","040","","1","מחסני להב","","נצרת","חרוד 1","נצרת עלית","",NA,NA
"7290058179503","21/41/YYYY 17:41:01","001","045","","1","מחסני להב","","מוצקין","דרך עכו 165","קרית מוצקין","26412",NA,NA
"7290058179503","21/41/YYYY 17:41:26","001","050","","1","מחסני להב","","סיביניה","קרן היסוד 62","קרית ביאליק","",NA,NA
"7290058179503","21/41/YYYY 17:41:53","001","060","","1","מחסני להב","","רמז","זלמן שניאור 1","חיפה רמות רמז","",NA,NA
"7290058179503","21/42/YYYY 17:42:11","001","065","","1","מחסני להב","","קרית ים 65","ברזילי 1","קרית ים","",NA,NA
"7290058179503","21/42/YYYY 17:42:40","001","075","","1","מחסני להב","","נתניה א.תעשיה","הקדר 6","נתניה","",NA,NA
"7290058179503","21/42/YYYY 17:42:59","001","085","","1","מחסני להב","","כצנלסון","שדרות כצנלסון 10","קרית אתא","",NA,NA
