"chainid","lastupdatedate","subchainid","storeid","bikoretno","storetype","chainname","subchainname","storename","address","city","zipcode","xmldocversion","lastupdatetime","latitude","longitude","address.full","chainname_en","provider"
7290725900003,"09/06/2015 17:24",0,1,0,1,"יינות ביתן מרכז הרשת","","01 חאן","הרצל 33","אשקלון","78601",NA,NA,31.6651632,34.5868148,"הרצל 33,אשקלון","bitan","private"
7290725900003,"09/06/2015 17:24",0,3,0,1,"יינות ביתן מרכז הרשת","","03 ראשלצ","שמוטקין 29","ראשון לציון","7536332",NA,NA,31.9793014,34.8126846,"שמוטקין 29,ראשון לציון","bitan","private"
7290725900003,"09/06/2015 17:24",0,4,0,1,"יינות ביתן מרכז הרשת","","04 צפוני","הפנינים 38 ת.ד 125","אשקלון","7810101",NA,NA,31.6685237,34.6016297,"הפנינים 38 ת.ד 125,אשקלון","bitan","private"
7290725900003,"09/06/2015 17:24",0,5,0,1,"יינות ביתן מרכז הרשת","","05 חולון ביתן","דוד שאלתיאל 16","חולון","5845116",NA,NA,32.0028927,34.7723008,"דוד שאלתיאל 16,חולון","bitan","private"
7290725900003,"09/06/2015 17:24",0,6,0,1,"יינות ביתן מרכז הרשת","","06 א.ת אשדוד","האורגים 13","אשדוד","7760924",NA,NA,31.8116995,34.6596315,"האורגים 13,אשדוד","bitan","private"
7290725900003,"09/06/2015 17:24",0,7,0,1,"יינות ביתן מרכז הרשת","","07 סיטי אשדוד","הבנים 3","אשדוד","7744402",NA,NA,31.794757,34.6394161,"הבנים 3,אשדוד","bitan","private"
7290725900003,"09/06/2015 17:24",0,8,0,1,"יינות ביתן מרכז הרשת","","08 כ-חנ קריית שמונה","שדרות תל חי 93","קריית שמונה","1103021",NA,NA,33.2100076,35.5701054,"שדרות תל חי 93,קריית שמונה","bitan","private"
7290725900003,"09/06/2015 17:24",0,9,0,1,"יינות ביתן מרכז הרשת","","09 רעננה","זרחין 12","רעננה","4366240",NA,NA,32.1956426,34.8826528,"זרחין 12,רעננה","bitan","private"
7290725900003,"09/06/2015 17:24",0,10,0,1,"יינות ביתן מרכז הרשת","","10 כפר סבא","","","",NA,NA,32.175873,34.934006,",","bitan","private"
7290725900003,"09/06/2015 17:24",0,11,0,1,"יינות ביתן מרכז הרשת","","11 ראש העין","המרץ 13","ראש העין","4801713",NA,NA,32.1057762,34.9391184,"המרץ 13,ראש העין","bitan","private"
7290725900003,"09/06/2015 17:24",0,12,0,1,"יינות ביתן מרכז הרשת","","12 פתח תקוה","בר כוכבא 63","פתח תקווה","4922055",NA,NA,32.0967422,34.8857209,"בר כוכבא 63,פתח תקווה","bitan","private"
7290725900003,"09/06/2015 17:24",0,13,0,1,"יינות ביתן מרכז הרשת","","13 אייר פורט סיטי","","","",NA,NA,31.985969,34.915184,",","bitan","private"
7290725900003,"09/06/2015 17:24",0,14,0,1,"יינות ביתן מרכז הרשת","","14 אלפי מנשה","חלוצי התעשייה 9","אלפי מנשה","4485100",NA,NA,32.1695526,34.9963362,"חלוצי התעשייה 9,אלפי מנשה","bitan","private"
7290725900003,"09/06/2015 17:24",0,15,0,1,"יינות ביתן מרכז הרשת","","15 נתניה","הפלדה 13","נתניה","4237823",NA,NA,32.3179825,34.8777439,"הפלדה 13,נתניה","bitan","private"
7290725900003,"09/06/2015 17:24",0,16,0,1,"יינות ביתן מרכז הרשת","","16 מעלה אדומים","צמח השדה 29","מעלה אדומים","9853636",NA,NA,31.7671393,35.3018083,"צמח השדה 29,מעלה אדומים","bitan","private"
7290725900003,"09/06/2015 17:24",0,17,0,1,"יינות ביתן מרכז הרשת","","17 חולון הסיירים","המרכבה 73","חולון","5885140",NA,NA,32.0029703,34.8046261,"המרכבה 73,חולון","bitan","private"
7290725900003,"09/06/2015 17:24",0,18,0,1,"יינות ביתן מרכז הרשת","","18 חדרה","צהל","חדרה","3822013",NA,NA,32.443089,34.9389648,"צהל,חדרה","bitan","private"
7290725900003,"09/06/2015 17:24",0,19,0,1,"יינות ביתן מרכז הרשת","","19 תל מונד","בני דרור","תל מונד","0",NA,NA,32.2502328,34.9248736,"בני דרור,תל מונד","bitan","private"
7290725900003,"09/06/2015 17:24",0,20,0,1,"יינות ביתן מרכז הרשת","","20 הרצלה א.תעשיה","החושלים 3","הרצליה","4672403",NA,NA,32.1584071,34.8072119,"החושלים 3,הרצליה","bitan","private"
7290725900003,"09/06/2015 17:24",0,21,0,1,"יינות ביתן מרכז הרשת","","21 ראשלצ לישנסקי","לישנסקי 18","ראשון לציון","7565033",NA,NA,31.9920574,34.7667982,"לישנסקי 18,ראשון לציון","bitan","private"
7290725900003,"09/06/2015 17:24",0,22,0,1,"יינות ביתן מרכז הרשת","","22 רחובות שוק","האלוף יעקב פרי 1","רחובות","0",NA,NA,31.8969036,34.7857047,"האלוף יעקב פרי 1,רחובות","bitan","private"
7290725900003,"09/06/2015 17:24",0,30,0,1,"יינות ביתן מרכז הרשת","","30 אילת","חטיבת גולני 41","אילת","8852607",NA,NA,29.5657849,34.9552637,"חטיבת גולני 41,אילת","bitan","private"
7290725900003,"09/06/2015 17:24",0,31,0,1,"יינות ביתן מרכז הרשת","","31 אילת צפוני","ברקת 13","אילת","8854038",NA,NA,29.5499377,34.9473111,"ברקת 13,אילת","bitan","private"
7290725900003,"09/06/2015 17:24",0,33,0,1,"יינות ביתן מרכז הרשת","","33 כ-חנ בית שמש","יגאל אלון 1","בית שמש","9906201",NA,NA,31.7562899,34.9899373,"יגאל אלון 1,בית שמש","bitan","private"
7290725900003,"09/06/2015 17:24",0,34,0,1,"יינות ביתן מרכז הרשת","","34 כ-חנ רחובות","אופמהיימר 10","רחובות","7670110",NA,NA,31.9107588,34.8069406,"אופמהיימר 10,רחובות","bitan","private"
7290725900003,"09/06/2015 17:24",0,35,0,1,"יינות ביתן מרכז הרשת","","35 כ-חנ ירקונים","ירקונים 50","פתח תקווה","4927134",NA,NA,32.1031109,34.8982922,"ירקונים 50,פתח תקווה","bitan","private"
7290725900003,"09/06/2015 17:24",0,36,0,1,"יינות ביתן מרכז הרשת","","36 כ-חנ עפולה","קהילת ציון 1","עפולה","1830101",NA,NA,32.6075369,35.2915077,"קהילת ציון 1,עפולה","bitan","private"
7290725900003,"09/06/2015 17:24",0,37,0,1,"יינות ביתן מרכז הרשת","","37 כ-חנ אור יהודה","המפעל 13","אור יהודה","6022113",NA,NA,32.0343119,34.8498847,"המפעל 13,אור יהודה","bitan","private"
7290725900003,"09/06/2015 17:24",0,38,0,1,"יינות ביתן מרכז הרשת","","38 כ-חנ טבריה","יהודה הלוי 113","טבריה","1421636",NA,NA,32.7887659,35.5338213,"יהודה הלוי 113,טבריה","bitan","private"
7290725900003,"09/06/2015 17:24",0,39,0,1,"יינות ביתן מרכז הרשת","","39 כ-חנ נצרת","שכונת דיר אל חלאט","נצרת תחתית","1600000",NA,NA,32.7141886,35.2898174,"שכונת דיר אל חלאט,נצרת תחתית","bitan","private"
7290725900003,"09/06/2015 17:24",0,40,0,1,"יינות ביתן מרכז הרשת","","40 כ-חנ מודיעין","","","",NA,NA,31.904244,34.878207,",","bitan","private"
7290725900003,"09/06/2015 17:24",0,41,0,1,"יינות ביתן מרכז הרשת","","41 כ-חנ אור עקיבא","האילן 2","אור עקיבא","3060000",NA,NA,32.5193358,34.9216448,"האילן 2,אור עקיבא","bitan","private"
7290725900003,"09/06/2015 17:24",0,42,0,1,"יינות ביתן מרכז הרשת","","42 כ-חנ קריית אתא","ההסתדרות 247","קריית אתא","2620237",NA,NA,32.8115219,35.0707886,"ההסתדרות 247,קריית אתא","bitan","private"
7290725900003,"09/06/2015 17:24",0,43,0,1,"יינות ביתן מרכז הרשת","","43 כ-חנ נתיבות","בעלי המלאכה 11","נתיבות","85200",NA,NA,31.4177892,34.593072,"בעלי המלאכה 11,נתיבות","bitan","private"
7290725900003,"09/06/2015 17:24",0,44,0,1,"יינות ביתן מרכז הרשת","","44 כ-חנ מעלות","שלמה  שרירא 3","מעלות","2105209",NA,NA,33.020972,35.2774798,"שלמה  שרירא 3,מעלות","bitan","private"
7290725900003,"09/06/2015 17:24",0,45,0,1,"יינות ביתן מרכז הרשת","","45 כ-חנ כרמיאל","היוצרים 15","כרמיאל","2165241",NA,NA,32.9248955,35.3144539,"היוצרים 15,כרמיאל","bitan","private"
7290725900003,"09/06/2015 17:24",0,46,0,1,"יינות ביתן מרכז הרשת","","46 כ-חנ רמלה","קלאוזנר 10","רמלה","7243224",NA,NA,31.9229092,34.8779067,"קלאוזנר 10,רמלה","bitan","private"
7290725900003,"09/06/2015 17:24",0,47,0,1,"יינות ביתן מרכז הרשת","","47 כ-חנ תל אביב","נחלת יצחק 20","תל אביב","6744818",NA,NA,32.074587,34.798138,"נחלת יצחק 20,תל אביב","bitan","private"
7290725900003,"09/06/2015 17:24",0,48,0,1,"יינות ביתן מרכז הרשת","","48 כ-חנ אשדוד","גיא אוני 1","אשדוד","7764449",NA,NA,31.7857778,34.6612254,"גיא אוני 1,אשדוד","bitan","private"
7290725900003,"09/06/2015 17:24",0,49,0,1,"יינות ביתן מרכז הרשת","","49 כ-חנ טירת הכרמל","קרן היסוד 2","טירת הכרמל","3902621",NA,NA,32.7692046,34.9676331,"קרן היסוד 2,טירת הכרמל","bitan","private"
7290725900003,"09/06/2015 17:24",0,52,0,1,"יינות ביתן מרכז הרשת","","52 כ-חנ יבנה","המיסב 7","יבנה","8121307",NA,NA,31.8635589,34.7428099,"המיסב 7,יבנה","bitan","private"
7290725900003,"09/06/2015 17:24",0,53,0,1,"יינות ביתן מרכז הרשת","","53 כמ-חנ נהריה","הגדוד העברי 21","נהריה","2226908",NA,NA,33.0190295,35.0942113,"הגדוד העברי 21,נהריה","bitan","private"
7290725900003,"09/06/2015 17:24",0,55,0,1,"יינות ביתן מרכז הרשת","","55 כ-חנ דליית אל כרמל","דרך ראשית 672","דליית אל כרמל","3005600",NA,NA,32.6919355,35.057486,"דרך ראשית 672,דליית אל כרמל","bitan","private"
7290725900003,"09/06/2015 17:24",0,56,0,1,"יינות ביתן מרכז הרשת","","56 כ-חנ ערד","התעשיה 60","ערד","8909424",NA,NA,31.2472661,35.1999096,"התעשיה 60,ערד","bitan","private"
7290725900003,"09/06/2015 17:24",0,57,0,1,"יינות ביתן מרכז הרשת","","57 כ-חנ בית שאן","א.ת צפוני","בית שאן","1172504",NA,NA,32.497103,35.497336,"א.ת צפוני,בית שאן","bitan","private"
7290725900003,"09/06/2015 17:24",0,60,0,1,"יינות ביתן מרכז הרשת","","60 בסיטי אשדוד","","","",NA,NA,31.800003,34.641229,",","bitan","private"
7290725900003,"09/06/2015 17:24",0,61,0,1,"יינות ביתן מרכז הרשת","","61 בסיטי נתניה","הארי 12","נתניה","4252611",NA,NA,32.3122566,34.8568996,"הארי 12,נתניה","bitan","private"
7290725900003,"09/06/2015 17:24",0,62,0,1,"יינות ביתן מרכז הרשת","","62 בסיטי מודיעין","עמק החולה 76","מודיעין","7170399",NA,NA,31.8963542,35.011694,"עמק החולה 76,מודיעין","bitan","private"
7290725900003,"09/06/2015 17:24",0,63,0,1,"יינות ביתן מרכז הרשת","","63 בסיטי קרית ראשון","החלמונית 29","ראשון לציון","7542033",NA,NA,31.969688,34.7830275,"החלמונית 29,ראשון לציון","bitan","private"
7290725900003,"09/06/2015 17:24",0,64,0,1,"יינות ביתן מרכז הרשת","","64 הרצליה ליד הבית","רבי עקיבא 50","הרצליה","4642360",NA,NA,32.1537412,34.8500906,"רבי עקיבא 50,הרצליה","bitan","private"
7290725900003,"09/06/2015 17:24",0,65,0,1,"יינות ביתן מרכז הרשת","","65 בסיטי אשקלון","קיבוץ גלויות 5","אשקלון","7834104",NA,NA,31.6656884,34.5672266,"קיבוץ גלויות 5,אשקלון","bitan","private"
7290725900003,"09/06/2015 17:24",0,67,0,1,"יינות ביתן מרכז הרשת","","67 חולון ליד הבית","המרגנית 2","חולון","5845909",NA,NA,32.0095984,34.7788649,"המרגנית 2,חולון","bitan","private"
7290725900003,"09/06/2015 17:24",0,71,0,1,"יינות ביתן מרכז הרשת","","71 כ-חנ כוכב יאיר","דרך המרכז","4","4486400",NA,NA,32.22307,34.9987995,"דרך המרכז,4","bitan","private"
7290725900003,"09/06/2015 17:24",0,72,0,1,"יינות ביתן מרכז הרשת","","72 כ-חנ מגדל העמק","רמת יזראעל 11","מגדל העמק","38830",NA,NA,32.6741588,35.2388217,"רמת יזראעל 11,מגדל העמק","bitan","private"
7290725900003,"09/06/2015 17:24",0,73,0,1,"יינות ביתן מרכז הרשת","","73 כ-חנ עתלית","רחוב הרדוף","עתלית","3030000",NA,NA,32.691335,34.940421,"רחוב הרדוף,עתלית","bitan","private"
7290725900003,"09/06/2015 17:24",0,74,0,1,"יינות ביתן מרכז הרשת","","74 כ-חנ רמלה לוין","אבא אחימאיר 1","רמלה לוין","7228401",NA,NA,31.9394802,34.8724188,"אבא אחימאיר 1,רמלה לוין","bitan","private"
7290725900003,"09/06/2015 17:24",0,75,0,1,"יינות ביתן מרכז הרשת","","75 כ-חנ קרית ביאליק","שדרות חן 1","קריית ביאליק","2750901",NA,NA,32.861041,35.0953769,"שדרות חן 1,קריית ביאליק","bitan","private"
7290725900003,"09/06/2015 17:24",0,76,0,1,"יינות ביתן מרכז הרשת","","76 כ-חנ תל ציון","אהבת ציון פינת קהילת יעקב","תל ציון","9062200",NA,NA,31.88053,35.2400727,"אהבת ציון פינת קהילת יעקב,תל ציון","bitan","private"
7290725900003,"09/06/2015 17:24",0,77,0,1,"יינות ביתן מרכז הרשת","","77 כ-חנ כוכב יעקב","הכסף 1","כוכב יעקב","9062200",NA,NA,31.8814102,35.2447015,"הכסף 1,כוכב יעקב","bitan","private"
7290725900003,"09/06/2015 17:24",0,78,0,1,"יינות ביתן מרכז הרשת","","78 כ-חנ בית אל","הראיה 34","בית אל","9063100",NA,NA,31.9432942,35.2227103,"הראיה 34,בית אל","bitan","private"
7290725900003,"09/06/2015 17:24",0,79,0,1,"יינות ביתן מרכז הרשת","","79 כ-חנ פ``ת  לב סביונים","חיה פינשטיין 11","פתח תקווה","4956970",NA,NA,32.1003695,34.883975,"חיה פינשטיין 11,פתח תקווה","bitan","private"
7290725900003,"09/06/2015 17:24",0,80,0,1,"יינות ביתן מרכז הרשת","","80 כ-חנ טבעון","קק""ל 16","קרית טבעון","3608208",NA,NA,32.7107964,35.121818,"קק""ל 16,קרית טבעון","bitan","private"
7290725900003,"09/06/2015 17:24",0,81,0,1,"יינות ביתן מרכז הרשת","","81 כ-חנ ראשון מערב","השירה העברית 10","ראשון לציון","7573105",NA,NA,31.9776087,34.7695563,"השירה העברית 10,ראשון לציון","bitan","private"
7290725900003,"09/06/2015 17:24",0,82,0,1,"יינות ביתן מרכז הרשת","","82 כ-חנ נצרת עלית","היצירה 12","נצרת עלית","1700000",NA,NA,32.7149654,35.3360183,"היצירה 12,נצרת עלית","bitan","private"
7290725900003,"09/06/2015 17:24",0,83,0,1,"יינות ביתן מרכז הרשת","","83 כ-חנ צור יצחק","נחל קנה 9","צור יצחק","4580800",NA,NA,32.241228,34.9977193,"נחל קנה 9,צור יצחק","bitan","private"
7290725900003,"09/06/2015 17:24",0,84,0,1,"יינות ביתן מרכז הרשת","","84 כ-חנ מתן","הדר 84","מתן","4585800",NA,NA,32.1591929,34.9728828,"הדר 84,מתן","bitan","private"
7290725900003,"09/06/2015 17:24",0,90,0,1,"יינות ביתן מרכז הרשת","","90 ירושלים נווה יעקב","גדליה נוימן","6","9355506",NA,NA,31.8410862,35.2484406,"גדליה נוימן,6","bitan","private"
7290725900003,"09/06/2015 17:24",0,91,0,1,"יינות ביתן מרכז הרשת","","91 ירושלים ריינס","ריינס 6 שכונת קרית משה","ירושלים","9542731",NA,NA,31.784153,35.192678,"ריינס 6 שכונת קרית משה,ירושלים","bitan","private"
7290725900003,"09/06/2015 17:24",0,99,0,2,"יינות ביתן מרכז הרשת","","99 אתר אינטרנט מי סופר מרקט","www.ybitan.co.il","","0",NA,NA,NA,NA,"www.ybitan.co.il,","bitan","private"
7290725900003,"09/06/2015 17:24",0,101,0,1,"יינות ביתן מרכז הרשת","","101 טופ מרקט שלומציון","","","",NA,NA,31.828048,35.2326467,",","bitan","private"
7290725900003,"09/06/2015 17:24",0,102,0,1,"יינות ביתן מרכז הרשת","","102 טופ מרקט ת-מרכזית","","","",NA,NA,31.788598,35.202527,",","bitan","private"
7290058140886,"05/07/2015",NA,1,6,1,"רמי לוי שיווק השקמה",NA,"תלפיות","האומן 15, ירושלים","תלפיות","unknown",0,"20:05:00",31.7495351,35.2104532,"האומן 15, ירושלים,תלפיות","ramilevi","cerberus"
7290058140886,"05/07/2015",NA,2,5,1,"רמי לוי שיווק השקמה",NA,"בזק מחסני מזון","יד חרוצים 18 ,תלפיות","בזק מחסני מזון","unknown",0,"20:05:00",31.7510596,35.2159843,"יד חרוצים 18 ,תלפיות,בזק מחסני מזון","ramilevi","cerberus"
7290058140886,"05/07/2015",NA,3,4,1,"רמי לוי שיווק השקמה",NA,"רמות","דרך החורש 90 ,רמות","רמות","unknown",0,"20:05:00",32.702566,35.172172,"דרך החורש 90 ,רמות,רמות","ramilevi","cerberus"
7290058140886,"05/07/2015",NA,5,2,1,"רמי לוי שיווק השקמה",NA,"רב מכר","הפרסה 3, ירושלים","רב מכר","unknown",0,"20:05:00",31.7509161,35.2102152,"הפרסה 3, ירושלים,רב מכר","ramilevi","cerberus"
7290058140886,"05/07/2015",NA,6,1,1,"רמי לוי שיווק השקמה",NA,"מישור אדומים","איתם 1, מעלה אדומים","מישור אדומים","unknown",0,"20:05:00",31.7929525,35.3345321,"איתם 1, מעלה אדומים,מישור אדומים","ramilevi","cerberus"
7290058140886,"05/07/2015",NA,8,9,1,"רמי לוי שיווק השקמה",NA,"שער בנימין","שער בנימין","שער בנימין","unknown",0,"20:05:00",32.3202684,34.8557654,"שער בנימין,שער בנימין","ramilevi","cerberus"
7290058140886,"05/07/2015",NA,9,8,1,"רמי לוי שיווק השקמה",NA,"קסיטנה","באר טוביה","קסיטנה","unknown",0,"20:05:00",31.731421,34.755965,"באר טוביה,קסיטנה","ramilevi","cerberus"
7290058140886,"05/07/2015",NA,10,4,1,"רמי לוי שיווק השקמה",NA,"מודיעין חדש","יהושוע חנקין 14, עפולה","עפולה","unknown",0,"20:05:00",32.6041918,35.2940811,"יהושוע חנקין 14, עפולה,עפולה","ramilevi","cerberus"
7290058140886,"05/07/2015",NA,11,3,1,"רמי לוי שיווק השקמה",NA,"עפולה","החוזה מלובלין 2 ביתר עלית","ביתר עלית","unknown",0,"20:05:00",31.6996106,35.108179,"החוזה מלובלין 2 ביתר עלית,ביתר עלית","ramilevi","cerberus"
7290058140886,"05/07/2015",NA,12,2,1,"רמי לוי שיווק השקמה",NA,"ביתר עלית","בית הדפוס 13, גבעת שאול","גבעת שאול","unknown",0,"20:05:00",31.7861472,35.187363,"בית הדפוס 13, גבעת שאול,גבעת שאול","ramilevi","cerberus"
7290058140886,"05/07/2015",NA,13,1,1,"רמי לוי שיווק השקמה",NA,"גבעת שאול","צומת פוריה טבריה","טבריה","unknown",0,"20:05:00",32.795859,35.530973,"צומת פוריה טבריה,טבריה","ramilevi","cerberus"
7290058140886,"05/07/2015",NA,14,0,1,"רמי לוי שיווק השקמה",NA,"טבריה","דרך בר יהודה נשר","נשר","unknown",0,"20:05:00",32.7749219,35.0428149,"דרך בר יהודה נשר,נשר","ramilevi","cerberus"
7290058140886,"05/07/2015",NA,15,9,1,"רמי לוי שיווק השקמה",NA,"נשר","צומת שילת","מודיעין חדש","unknown",0,"20:05:00",31.9148868,35.0205212,"צומת שילת,מודיעין חדש","ramilevi","cerberus"
7290058140886,"05/07/2015",NA,16,8,1,"רמי לוי שיווק השקמה",NA,"רמת גן  איילון","מבצע קדש 66 רמת גן","רמת גן  איילון","unknown",0,"20:05:00",32.1016683,34.8298488,"מבצע קדש 66 רמת גן,רמת גן  איילון","ramilevi","cerberus"
7290058140886,"05/07/2015",NA,17,7,1,"רמי לוי שיווק השקמה",NA,"ראש העין","צומת קסם","ראש העין","unknown",0,"20:05:00",32.095838,34.952177,"צומת קסם,ראש העין","ramilevi","cerberus"
7290058140886,"05/07/2015",NA,19,5,1,"רמי לוי שיווק השקמה",NA,"אדמרליטי","חלוצי התעשיה 73 חיפה","אדמרליטי","unknown",0,"20:05:00",32.8191073,35.0540507,"חלוצי התעשיה 73 חיפה,אדמרליטי","ramilevi","cerberus"
7290058140886,"05/07/2015",NA,20,1,1,"רמי לוי שיווק השקמה",NA,"זכרון יעקב","קניון זכרון יעקב","זכרון יעקב","unknown",0,"20:05:00",32.571286,34.948114,"קניון זכרון יעקב,זכרון יעקב","ramilevi","cerberus"
7290058140886,"05/07/2015",NA,22,9,1,"רמי לוי שיווק השקמה",NA,"כנפי נשרים","כנפי נשרים 26, גבעת שאול","כנפי נשרים","unknown",0,"20:05:00",31.7875371,35.1827787,"כנפי נשרים 26, גבעת שאול,כנפי נשרים","ramilevi","cerberus"
7290058140886,"05/07/2015",NA,23,8,1,"רמי לוי שיווק השקמה",NA,"גוש עציון","צומת גוש עציון","גוש עציון","unknown",0,"20:05:00",31.646357,35.132512,"צומת גוש עציון,גוש עציון","ramilevi","cerberus"
7290058140886,"05/07/2015",NA,24,7,1,"רמי לוי שיווק השקמה",NA,"נתניה","רח האורזים 2 נתניה","נתניה","unknown",0,"20:05:00",32.321458,34.853196,"רח האורזים 2 נתניה,נתניה","ramilevi","cerberus"
7290058140886,"05/07/2015",NA,25,6,1,"רמי לוי שיווק השקמה",NA,"מודעין ישפרו","מתחם ישפרו סנטר, מודיעין","מודעין ישפרו","unknown",0,"20:05:00",31.8884272,34.9611837,"מתחם ישפרו סנטר, מודיעין,מודעין ישפרו","ramilevi","cerberus"
7290058140886,"05/07/2015",NA,26,5,1,"רמי לוי שיווק השקמה",NA,"אשדוד","רח היהלומים אשדוד","אשדוד","unknown",0,"20:05:00",31.815582,34.660299,"רח היהלומים אשדוד,אשדוד","ramilevi","cerberus"
7290058140886,"05/07/2015",NA,27,4,1,"רמי לוי שיווק השקמה",NA,"באר שבע","רח הל""ע קניון מול 7 באר שבע","באר שבע","unknown",0,"20:05:00",31.252973,34.791462,"רח הל""ע קניון מול 7 באר שבע,באר שבע","ramilevi","cerberus"
7290058140886,"05/07/2015",NA,28,3,1,"רמי לוי שיווק השקמה",NA,"עכו","רח בולטימור 2 עכו","עכו","unknown",0,"20:05:00",32.8992151,35.086634,"רח בולטימור 2 עכו,עכו","ramilevi","cerberus"
7290058140886,"05/07/2015",NA,29,2,1,"רמי לוי שיווק השקמה",NA,"פרדס חנה ביג","רח תדהר פרדס חנה","פרדס חנה ביג","unknown",0,"20:05:00",32.4906573,34.9749155,"רח תדהר פרדס חנה,פרדס חנה ביג","ramilevi","cerberus"
7290058140886,"05/07/2015",NA,30,8,1,"רמי לוי שיווק השקמה",NA,"קדימה","רח הזרם 2 קדימה צורן","קדימה","unknown",0,"20:05:00",32.274961,34.920325,"רח הזרם 2 קדימה צורן,קדימה","ramilevi","cerberus"
7290058140886,"05/07/2015",NA,31,7,1,"רמי לוי שיווק השקמה",NA,"נתיבות","בית הגדי נתיבות","נתיבות","unknown",0,"20:05:00",31.4300822,34.5844731,"בית הגדי נתיבות,נתיבות","ramilevi","cerberus"
7290058140886,"05/07/2015",NA,32,6,1,"רמי לוי שיווק השקמה",NA,"נהריה","נהריה","נהריה","unknown",0,"20:05:00",33.0085361,35.0980514,"נהריה,נהריה","ramilevi","cerberus"
7290058140886,"05/07/2015",NA,33,5,1,"רמי לוי שיווק השקמה",NA,"כפר סבא","רח גלגלי הפלדה 5 ","כפר סבא","unknown",0,"20:05:00",32.1728625,34.9267139,"רח גלגלי הפלדה 5 ,כפר סבא","ramilevi","cerberus"
7290058140886,"05/07/2015",NA,34,4,1,"רמי לוי שיווק השקמה",NA,"פתח תקווה","רח הסיבים 37 פתח תקווה","פתח תקווה","unknown",0,"20:05:00",32.0871836,34.8565036,"רח הסיבים 37 פתח תקווה,פתח תקווה","ramilevi","cerberus"
7290058140886,"05/07/2015",NA,35,3,1,"רמי לוי שיווק השקמה",NA,"אשקלון","רח הנפח אשקלון","אשקלון","unknown",0,"20:05:00",31.635733,34.552176,"רח הנפח אשקלון,אשקלון","ramilevi","cerberus"
7290058140886,"05/07/2015",NA,36,2,1,"רמי לוי שיווק השקמה",NA,"כרמיאל","כרמיאל רחוב היוצרים 7","כרמיאל","unknown",0,"20:05:00",32.9234893,35.3086168,"כרמיאל רחוב היוצרים 7,כרמיאל","ramilevi","cerberus"
7290058140886,"05/07/2015",NA,37,1,1,"רמי לוי שיווק השקמה",NA,"נתניה חדש","רח המחקר נתניה","נתניה חדש","unknown",0,"20:05:00",32.2914174,34.8630164,"רח המחקר נתניה,נתניה חדש","ramilevi","cerberus"
7290058140886,"05/07/2015",NA,38,0,1,"רמי לוי שיווק השקמה",NA,"קרית שמונה","איזור תעשיה צפוני קרית שמונה","קרית שמונה","unknown",0,"20:05:00",33.207933,35.570246,"איזור תעשיה צפוני קרית שמונה,קרית שמונה","ramilevi","cerberus"
7290103152017,"05/07/2015",NA,1,6,1,"אושר עד",NA,"מגדל העמק","האיצטדיון 11","מגדל העמק","unknown",0,"20:05:00",32.6695346,35.2369178,"האיצטדיון 11,מגדל העמק","osherad","cerberus"
7290103152017,"05/07/2015",NA,3,4,1,"אושר עד",NA,"גבעת שאול","בית הדפוס 29","ירושלים","unknown",0,"20:05:00",31.7853781,35.1834369,"בית הדפוס 29,ירושלים","osherad","cerberus"
7290103152017,"05/07/2015",NA,5,2,1,"אושר עד",NA,"קרית ביאליק","הנס מולר 6, צור שלום","קרית ביאליק","unknown",0,"20:05:00",32.8620622,35.0978254,"הנס מולר 6, צור שלום,קרית ביאליק","osherad","cerberus"
7290103152017,"05/07/2015",NA,6,1,1,"אושר עד",NA,"כנות","אדום 24 פארק התעשיות כנות","כנות","unknown",0,"20:05:00",31.817531,34.785101,"אדום 24 פארק התעשיות כנות,כנות","osherad","cerberus"
7290103152017,"05/07/2015",NA,9,8,1,"אושר עד",NA,"אשדוד","בעלי המלאכה 4","אשדוד","unknown",0,"20:05:00",31.815315,34.662847,"בעלי המלאכה 4,אשדוד","osherad","cerberus"
7290103152017,"05/07/2015",NA,10,4,1,"אושר עד",NA,"פתח תקווה - סגולה","unknown","פתח תקווה","unknown",0,"20:05:00",32.1040672,34.8942848,"unknown,פתח תקווה","osherad","cerberus"
7290103152017,"05/07/2015",NA,11,3,1,"אושר עד",NA,"בני ברק","הקישון 11","בני ברק","unknown",0,"20:05:00",32.0988219,34.8307818,"הקישון 11,בני ברק","osherad","cerberus"
7290103152017,"05/07/2015",NA,13,1,1,"אושר עד",NA,"באר שבע","הקוצר 15 אזור תעשיה עמק שרה","באר שבע","unknown",0,"20:05:00",31.239754,34.785934,"הקוצר 15 אזור תעשיה עמק שרה,באר שבע","osherad","cerberus"
7290103152017,"05/07/2015",NA,14,0,1,"אושר עד",NA,"חדרה","המסגר 22 אזה""ת הצפוני","חדרה","unknown",0,"20:05:00",32.449022,34.9139077,"המסגר 22 אזה""ת הצפוני,חדרה","osherad","cerberus"
7290103152017,"05/07/2015",NA,16,8,1,"אושר עד",NA,"בית שמש - גליל","unknown","בית שמש","unknown",0,"20:05:00",31.7478383,34.9907577,"unknown,בית שמש","osherad","cerberus"
7290103152017,"05/07/2015",NA,20,1,1,"אושר עד",NA,"לוד","בת שבע 1 מתחם טלרד","לוד","unknown",0,"20:05:00",31.951014,34.888075,"בת שבע 1 מתחם טלרד,לוד","osherad","cerberus"
7290103152017,"05/07/2015",NA,22,9,1,"אושר עד",NA,"אשקלון בת הדר","unknown","אשקלון בת הדר","unknown",0,"20:05:00",31.646387,34.596476,"unknown,אשקלון בת הדר","osherad","cerberus"
7290103152017,"05/07/2015",NA,26,5,1,"אושר עד",NA,"תלפיות","פייר קניג 26 קניון הדר","ירושלים","unknown",0,"20:05:00",31.768319,35.21371,"פייר קניג 26 קניון הדר,ירושלים","osherad","cerberus"
7290103152017,"05/07/2015",NA,28,3,1,"אושר עד",NA,"שמגר","שמגר 16","ירושלים","unknown",0,"20:05:00",31.7944579,35.2084273,"שמגר 16,ירושלים","osherad","cerberus"
7290492000005,"06/07/2015",NA,501,1,1,"Dor Alon",NA,"Am-pm בן יהודה","בן יהודה 30","תל אביב","6380407",0,"07:00:00",32.07608,34.76811,"בן יהודה 30,תל אביב","doralon","cerberus"
7290492000005,"06/07/2015",NA,502,0,1,"Dor Alon",NA,"Am-pm פינסקר","פינסקר 10","תל אביב","6332315",0,"07:00:00",32.07379,34.76935,"פינסקר 10,תל אביב","doralon","cerberus"
7290492000005,"06/07/2015",NA,503,9,1,"Dor Alon",NA,"Am-pm ארלוזרוב","דיזנגוף 193","תל אביב","6346232",0,"07:00:00",32.08666,34.77485,"דיזנגוף 193,תל אביב","doralon","cerberus"
7290492000005,"06/07/2015",NA,504,8,1,"Dor Alon",NA,"Am-pm נורדאו","בן יהודה 195","תל אביב","6347312",0,"07:00:00",32.0921,34.77457,"בן יהודה 195,תל אביב","doralon","cerberus"
7290492000005,"06/07/2015",NA,505,7,1,"Dor Alon",NA,"Am-pmאלנבי","אלנבי 115","תל אביב","6581708",0,"07:00:00",32.06245,34.77334,"אלנבי 115,תל אביב","doralon","cerberus"
7290492000005,"06/07/2015",NA,506,6,1,"Dor Alon",NA,"Am-pm קינג גורג","קינג גורג 24","תל אביב","6326708",0,"07:00:00",32.07191,34.77349,"קינג גורג 24,תל אביב","doralon","cerberus"
7290492000005,"06/07/2015",NA,507,5,1,"Dor Alon",NA,"Am-pm 24 שנקין","שנקין 24","תל אביב","6523132",0,"07:00:00",32.06927,34.77283,"שנקין 24,תל אביב","doralon","cerberus"
7290492000005,"06/07/2015",NA,508,4,1,"Dor Alon",NA,"Am-pm  אבן גבירול","אבן גבירול 14","תל אביב","6407716",0,"07:00:00",32.0727,34.78192,"אבן גבירול 14,תל אביב","doralon","cerberus"
7290492000005,"06/07/2015",NA,509,3,1,"Dor Alon",NA,"Am-pm זמנהוף","קינג גורג 99","תל אביב","6433831",0,"07:00:00",32.07742,34.77776,"קינג גורג 99,תל אביב","doralon","cerberus"
7290492000005,"06/07/2015",NA,510,9,1,"Dor Alon",NA,"Am-pm לינקולן","לינקולן 9","תל אביב","6522041",0,"07:00:00",32.06692,34.78182,"לינקולן 9,תל אביב","doralon","cerberus"
7290492000005,"06/07/2015",NA,511,8,1,"Dor Alon",NA,"Am-pm  הרצל","הרצל 91","תל אביב","6655414",0,"07:00:00",32.05487,34.77086,"הרצל 91,תל אביב","doralon","cerberus"
7290492000005,"06/07/2015",NA,512,7,1,"Dor Alon",NA,"Am-pm  כל-בו שלום","אחד העם 9","תל אביב","6525101",0,"07:00:00",32.06359,34.76948,"אחד העם 9,תל אביב","doralon","cerberus"
7290492000005,"06/07/2015",NA,513,6,1,"Dor Alon",NA,"Am-pm פרנקל","פרנקל 15","תל אביב","6608419",0,"07:00:00",32.11152,34.79929,"פרנקל 15,תל אביב","doralon","cerberus"
7290492000005,"06/07/2015",NA,514,5,1,"Dor Alon",NA,"Am-pm גורדון","דיזנגוף 136","תל אביב","6346109",0,"07:00:00",32.08215,34.77386,"דיזנגוף 136,תל אביב","doralon","cerberus"
7290492000005,"06/07/2015",NA,515,4,1,"Dor Alon",NA,"Am-pm שדרות ירושלים","שדרות ירושלים 11","תל אביב","6811406",0,"07:00:00",32.05566,34.75978,"שדרות ירושלים 11,תל אביב","doralon","cerberus"
7290492000005,"06/07/2015",NA,516,3,1,"Dor Alon",NA,"Am-pm הרואה ר""ג","הרואה 9","תל אביב","5242223",0,"07:00:00",32.0853,34.78177,"הרואה 9,תל אביב","doralon","cerberus"
7290492000005,"06/07/2015",NA,517,2,1,"Dor Alon",NA,"Am-pm זבוטינסקי ר""ג","זבוטינסקי 86","תל אביב","5244215",0,"07:00:00",32.08815,34.78217,"זבוטינסקי 86,תל אביב","doralon","cerberus"
7290492000005,"06/07/2015",NA,518,1,1,"Dor Alon",NA,"Am-pm זבוטינסקי ת""א","אבן גבירול 136","תל אביב","6296601",0,"07:00:00",32.08826,34.78247,"אבן גבירול 136,תל אביב","doralon","cerberus"
7290492000005,"06/07/2015",NA,519,0,1,"Dor Alon",NA,"Am-pm נחלת יצחק","נחלת יצחק","תל אביב","6744809",0,"07:00:00",32.0756,34.79919,"נחלת יצחק,תל אביב","doralon","cerberus"
7290492000005,"06/07/2015",NA,521,5,1,"Dor Alon",NA,"Am-pm הדר דפנה","שד שאול המלך 41","תל אביב","6473302",0,"07:00:00",32.07782,34.7912,"שד שאול המלך 41,תל אביב","doralon","cerberus"
7290492000005,"06/07/2015",NA,522,4,1,"Dor Alon",NA,"Am-pmדרייב סטור","דרך  נימר 170","תל אביב","6250782",0,"07:00:00",32.1120161,34.7925184,"דרך  נימר 170,תל אביב","doralon","cerberus"
7290492000005,"06/07/2015",NA,523,3,1,"Dor Alon",NA,"Am-pm טופ מרקט","דיזנגוף 224","תל אביב","6311519",0,"07:00:00",32.08866,34.77539,"דיזנגוף 224,תל אביב","doralon","cerberus"
7290492000005,"06/07/2015",NA,524,2,1,"Dor Alon",NA,"Am-pm היי מרקט","בן יהודה 61","תל אביב","6340126",0,"07:00:00",32.07952,34.76946,"בן יהודה 61,תל אביב","doralon","cerberus"
7290492000005,"06/07/2015",NA,525,1,1,"Dor Alon",NA,"Am-pm אסף הרופא","צריפין","צריפין","70300",0,"07:00:00",31.95712,34.84081,"צריפין,צריפין","doralon","cerberus"
7290492000005,"06/07/2015",NA,529,7,1,"Dor Alon",NA,"Am-pm בן גוריון","בן גוריון 119","בת ים","5956005",0,"07:00:00",32.01454,34.73875,"בן גוריון 119,בת ים","doralon","cerberus"
7290492000005,"06/07/2015",NA,531,2,1,"Dor Alon",NA,"Am-pmכצנלסון גבעתיים","כצנלסון 129","גבעיים","5327314",0,"07:00:00",32.07654,34.81588,"כצנלסון 129,גבעיים","doralon","cerberus"
7290492000005,"06/07/2015",NA,532,1,1,"Dor Alon",NA,"Am-pm סלומון","סלומון 24","תל אביב","6811133",0,"07:00:00",32.06132,34.77991,"סלומון 24,תל אביב","doralon","cerberus"
7290492000005,"06/07/2015",NA,533,0,1,"Dor Alon",NA,"Am-pm י.ל פרץ","י.ל פרץ 29","תל אביב","6685402",0,"07:00:00",32.05924,34.77593,"י.ל פרץ 29,תל אביב","doralon","cerberus"
7290492000005,"06/07/2015",NA,534,9,1,"Dor Alon",NA,"Am-pm בוגרשוב","בוגרשוב 49","תל אביב","6314513",0,"07:00:00",32.07594,34.77168,"בוגרשוב 49,תל אביב","doralon","cerberus"
7290492000005,"06/07/2015",NA,535,8,1,"Dor Alon",NA,"Am-pm שנקין59","שנקין 59","תל אביב","6523313",0,"07:00:00",32.06834,34.77742,"שנקין 59,תל אביב","doralon","cerberus"
7290492000005,"06/07/2015",NA,536,7,1,"Dor Alon",NA,"Am-pmזבוטינסקי 44","זבוטינסקי 44","רמת גן","5248504",0,"07:00:00",32.08453,34.80955,"זבוטינסקי 44,רמת גן","doralon","cerberus"
7290492000005,"06/07/2015",NA,537,6,1,"Dor Alon",NA,"Am-pm סוקולוב","סוקולוב 10","הרצליה","4649713",0,"07:00:00",32.16698,34.83987,"סוקולוב 10,הרצליה","doralon","cerberus"
7290492000005,"06/07/2015",NA,538,5,1,"Dor Alon",NA,"Am-pm נחלת בנימין","נחלת בנימין 85","תל אביב","6610207",0,"07:00:00",32.06092,34.77262,"נחלת בנימין 85,תל אביב","doralon","cerberus"
7290492000005,"06/07/2015",NA,540,0,1,"Dor Alon",NA,"Am-pm טברסקי","יצחק שדה 35","תל אביב","6721309",0,"07:00:00",32.065,34.78867,"יצחק שדה 35,תל אביב","doralon","cerberus"
7290492000005,"06/07/2015",NA,542,8,1,"Dor Alon",NA,"Am-pm שד יהודית","שד יהודית 16","תל אביב","6701618",0,"07:00:00",32.07004,34.79009,"שד יהודית 16,תל אביב","doralon","cerberus"
7290492000005,"06/07/2015",NA,543,7,1,"Dor Alon",NA,"Am-pm כיכר רבין","אבן גבירול 72/74","תל אביב","6416203",0,"07:00:00",32.08063,34.78137,"אבן גבירול 72/74,תל אביב","doralon","cerberus"
7290492000005,"06/07/2015",NA,544,6,1,"Dor Alon",NA,"Am-pm ברודצקי","ברודצקי 15","תל אביב","6905126",0,"07:00:00",32.1067,34.79763,"ברודצקי 15,תל אביב","doralon","cerberus"
7290492000005,"06/07/2015",NA,545,5,1,"Dor Alon",NA,"Am-pm הנשיא הרצליה","הנשיא יצחק בן צבי 75","הרצליה פיתוח","4639975",0,"07:00:00",32.18055,34.81129,"הנשיא יצחק בן צבי 75,הרצליה פיתוח","doralon","cerberus"
7290492000005,"06/07/2015",NA,548,2,1,"Dor Alon",NA,"Am-pm נווה מונסון","רחוב השקד 30","נווה מונסון","6019000",0,"07:00:00",32.06626,34.85962,"רחוב השקד 30,נווה מונסון","doralon","cerberus"
7290492000005,"06/07/2015",NA,549,1,1,"Dor Alon",NA,"Am-pm הוד השרון","סוקולוב 11","רמת השרון","4528440",0,"07:00:00",32.13947,34.83573,"סוקולוב 11,רמת השרון","doralon","cerberus"
7290492000005,"06/07/2015",NA,551,6,1,"Dor Alon",NA,"Am-pm הדר נס ציונה","השייטת 4","נס ציונה","7420812",0,"07:00:00",31.93059,34.79116,"השייטת 4,נס ציונה","doralon","cerberus"
7290492000005,"06/07/2015",NA,553,4,1,"Dor Alon",NA,"Am-pm החשמל","החשמל 11","תל אביב","6618905",0,"07:00:00",32.06131,34.77568,"החשמל 11,תל אביב","doralon","cerberus"
7290492000005,"06/07/2015",NA,554,3,1,"Dor Alon",NA,"Am-pm ווינשל","וינשל 6","תל אביב","6941331",0,"07:00:00",32.11817,34.82396,"וינשל 6,תל אביב","doralon","cerberus"
7290492000005,"06/07/2015",NA,556,1,1,"Dor Alon",NA,"Am- pm עליית הנוער","עליית הנוער 27","גבעתיים","5340101",0,"07:00:00",32.07486,34.80154,"עליית הנוער 27,גבעתיים","doralon","cerberus"
7290492000005,"06/07/2015",NA,557,0,1,"Dor Alon",NA,"Am-pm אבן גבירול 91","אבן גבירול 91","תל אביב","6404619",0,"07:00:00",32.08516,34.78167,"אבן גבירול 91,תל אביב","doralon","cerberus"
7290492000005,"06/07/2015",NA,558,9,1,"Dor Alon",NA,"Am-pm המלכות","הרוגי המלכות 9 שיכון דן","תל אביב","6971409",0,"07:00:00",32.10957,34.83295,"הרוגי המלכות 9 שיכון דן,תל אביב","doralon","cerberus"
7290492000005,"06/07/2015",NA,647,2,1,"Dor Alon",NA,"להבות חביבה","כביש 581 בין צומת הרוא""ה וצומת ברקאי","להבות חביבה","3883500",0,"07:00:00",32.395376,35.0086964,"כביש 581 בין צומת הרוא""ה וצומת ברקאי,להבות חביבה","doralon","cerberus"
7290492000005,"06/07/2015",NA,648,1,1,"Dor Alon",NA,"גשר הזיו","אמצע כביש נהריה ראש הנקרה -מס 4","גשר הזיו","22815",0,"07:00:00",33.0444917,35.10777,"אמצע כביש נהריה ראש הנקרה -מס 4,גשר הזיו","doralon","cerberus"
7290492000005,"06/07/2015",NA,649,0,1,"Dor Alon",NA,"עינת -ב מרכולית","קיבוץ עינת ליד ראש העין","unknown","48805",0,"07:00:00",32.0879439,34.9416487,"קיבוץ עינת ליד ראש העין,unknown","doralon","cerberus"
7290492000005,"06/07/2015",NA,655,1,1,"Dor Alon",NA,"משמר השרון","צ.העוגן כביש 4 קיבוץ משמר השרון","משמר השרון","40270",0,"07:00:00",32.358352,34.907557,"צ.העוגן כביש 4 קיבוץ משמר השרון,משמר השרון","doralon","cerberus"
7290492000005,"06/07/2015",NA,656,0,1,"Dor Alon",NA,"עין שמר","צומת כרכור ליד פרדס חנה כביש 65","עין שמר","37064",0,"07:00:00",32.4651798,34.9922276,"צומת כרכור ליד פרדס חנה כביש 65,עין שמר","doralon","cerberus"
7290492000005,"06/07/2015",NA,657,9,1,"Dor Alon",NA,"עינת","קיבוץ עינת ליד ראש העין","עינת","48805",0,"07:00:00",32.08195,34.93751,"קיבוץ עינת ליד ראש העין,עינת","doralon","cerberus"
7290492000005,"06/07/2015",NA,662,1,1,"Dor Alon",NA,"בית השיטה-קיבוץ","צומת בית השיטה כביש 70","בית השיטה","10801",0,"07:00:00",32.5512825,35.4399595,"צומת בית השיטה כביש 70,בית השיטה","doralon","cerberus"
7290492000005,"06/07/2015",NA,701,9,1,"Dor Alon",NA,"גשר","קיבוץ גשר","קיבוץ גשר","15157",0,"07:00:00",32.62121,35.55038,"קיבוץ גשר,קיבוץ גשר","doralon","cerberus"
7290492000005,"06/07/2015",NA,702,8,1,"Dor Alon",NA,"כפר הנשיא","קיבוץ כפר הנשיא","קיבוץ כפר הנשיא","1230500",0,"07:00:00",32.97414,35.60404,"קיבוץ כפר הנשיא,קיבוץ כפר הנשיא","doralon","cerberus"
7290492000005,"06/07/2015",NA,704,6,1,"Dor Alon",NA,"איילת השחר","קיבוץ איילת השחר","קיבוץ איילת  השחר","12200",0,"07:00:00",33.021575,35.574045,"קיבוץ איילת השחר,קיבוץ איילת  השחר","doralon","cerberus"
7290492000005,"06/07/2015",NA,705,5,1,"Dor Alon",NA,"שדה ורבורג","קיבוץ שדה ורבורג","קיבוץ שדה ורבורג","44935",0,"07:00:00",32.20869,34.90325,"קיבוץ שדה ורבורג,קיבוץ שדה ורבורג","doralon","cerberus"
7290492000005,"06/07/2015",NA,706,4,1,"Dor Alon",NA,"בית יהושוע","מושב בית יהושוע","מושב בית יהושוע","40591",0,"07:00:00",32.25886,34.86689,"מושב בית יהושוע,מושב בית יהושוע","doralon","cerberus"
7290492000005,"06/07/2015",NA,707,3,1,"Dor Alon",NA,"דגניה א","קיבות דגניה","קיבוץ דגניה","15120",0,"07:00:00",32.70769,35.57693,"קיבות דגניה,קיבוץ דגניה","doralon","cerberus"
7290492000005,"06/07/2015",NA,708,2,1,"Dor Alon",NA,"בן נון","קיבות בן נון","קיבוץ בן נון","99780",0,"07:00:00",31.862714,34.946991,"קיבות בן נון,קיבוץ בן נון","doralon","cerberus"
7290492000005,"06/07/2015",NA,709,1,1,"Dor Alon",NA,"נווה ירק  מושב","מושב נווה ירק","מושב נווה ירק","49945",0,"07:00:00",32.13165,34.92321,"מושב נווה ירק,מושב נווה ירק","doralon","cerberus"
7290492000005,"06/07/2015",NA,710,7,1,"Dor Alon",NA,"העוגן","קיבוץ העוגן","קיבוץ העוגן","4288000",0,"07:00:00",32.35976,34.92327,"קיבוץ העוגן,קיבוץ העוגן","doralon","cerberus"
7290492000005,"06/07/2015",NA,711,6,1,"Dor Alon",NA,"מעוז חיים","קיבוץ מעוז חיים","קיבוץ מעוז חיים","10845",0,"07:00:00",32.49249,35.55122,"קיבוץ מעוז חיים,קיבוץ מעוז חיים","doralon","cerberus"
7290492000005,"06/07/2015",NA,712,5,1,"Dor Alon",NA,"הגושרים","קיבוץ הגושרים","קיבוץ הגושרים","13325",0,"07:00:00",33.21711,35.62714,"קיבוץ הגושרים,קיבוץ הגושרים","doralon","cerberus"
7290492000005,"06/07/2015",NA,713,4,1,"Dor Alon",NA,"חגור","מושב חגור","מושב חגור","45870",0,"07:00:00",32.139034,34.9486356,"מושב חגור,מושב חגור","doralon","cerberus"
7290492000005,"06/07/2015",NA,714,3,1,"Dor Alon",NA,"בית זרע","קיבוץ בית זרע","קיבוץ בית זרע","1513500",0,"07:00:00",32.687757,35.575241,"קיבוץ בית זרע,קיבוץ בית זרע","doralon","cerberus"
7290492000005,"06/07/2015",NA,715,2,1,"Dor Alon",NA,"שדי חמד-מושב","מושב שדי חמד","מושב שדי חמד","45855",0,"07:00:00",32.16026,34.94423,"מושב שדי חמד,מושב שדי חמד","doralon","cerberus"
7290492000005,"06/07/2015",NA,716,1,1,"Dor Alon",NA,"צור משה","מושב צור משה","מושב צור משה","40600",0,"07:00:00",32.29849,34.91265,"מושב צור משה,מושב צור משה","doralon","cerberus"
7290492000005,"06/07/2015",NA,717,0,1,"Dor Alon",NA,"לכיש","מושב לכיש","מושב לכיש","unknown",0,"07:00:00",31.56091,34.84409,"מושב לכיש,מושב לכיש","doralon","cerberus"
7290492000005,"06/07/2015",NA,719,8,1,"Dor Alon",NA,"אחיטוב","מושב אחיטוב","מושב אחיטוב","38855",0,"07:00:00",32.38978,34.99383,"מושב אחיטוב,מושב אחיטוב","doralon","cerberus"
7290492000005,"06/07/2015",NA,720,4,1,"Dor Alon",NA,"סגולה","קיבוץ סגולה","מושב סגולה","79835",0,"07:00:00",31.67152,34.78133,"קיבוץ סגולה,מושב סגולה","doralon","cerberus"
7290492000005,"06/07/2015",NA,721,3,1,"Dor Alon",NA,"מכמורת","מושב מכמורת","מושב מכמורת","40297",0,"07:00:00",32.40527,34.87336,"מושב מכמורת,מושב מכמורת","doralon","cerberus"
7290492000005,"06/07/2015",NA,722,2,1,"Dor Alon",NA,"ישרש","מושב ישרש","מושב ישרש","76838",0,"07:00:00",31.91526,34.85052,"מושב ישרש,מושב ישרש","doralon","cerberus"
7290492000005,"06/07/2015",NA,723,1,1,"Dor Alon",NA,"ברור חיל","קיבוץ ברור חיל","קיבוץ ברור חיל","79152",0,"07:00:00",31.55789,34.64601,"קיבוץ ברור חיל,קיבוץ ברור חיל","doralon","cerberus"
7290492000005,"06/07/2015",NA,724,0,1,"Dor Alon",NA,"נהלל","מושב נהלל","מושב נהלל","10600",0,"07:00:00",32.68966,35.19699,"מושב נהלל,מושב נהלל","doralon","cerberus"
7290492000005,"06/07/2015",NA,725,9,1,"Dor Alon",NA,"גונן","קיבוץ גונן","קיבוץ גונן","1213000",0,"07:00:00",33.12403,35.64615,"קיבוץ גונן,קיבוץ גונן","doralon","cerberus"
7290492000005,"06/07/2015",NA,726,8,1,"Dor Alon",NA,"נורדיה","מושב נורדיה","מושב נורדיה","42954",0,"07:00:00",32.31474,34.89749,"מושב נורדיה,מושב נורדיה","doralon","cerberus"
7290492000005,"06/07/2015",NA,727,7,1,"Dor Alon",NA,"גבע כרמל","קיבוץ גבע כרמל","מושב גבע כרמל","30855",0,"07:00:00",32.6634,34.9553,"קיבוץ גבע כרמל,מושב גבע כרמל","doralon","cerberus"
7290492000005,"06/07/2015",NA,728,6,1,"Dor Alon",NA,"אחוזת ברק","מושב אחוזת ברק","מושב אחוזת ברק","19323",0,"07:00:00",32.64362,35.33743,"מושב אחוזת ברק,מושב אחוזת ברק","doralon","cerberus"
7290492000005,"06/07/2015",NA,729,5,1,"Dor Alon",NA,"בית אורן","קיבוץ בית אורן","קיבוץ בית אורן","30044",0,"07:00:00",32.73057,35.00659,"קיבוץ בית אורן,קיבוץ בית אורן","doralon","cerberus"
7290492000005,"06/07/2015",NA,730,1,1,"Dor Alon",NA,"מגדים","קיבוץ מגדים","מושב מגשים","30875",0,"07:00:00",32.7321474,34.9600831,"קיבוץ מגדים,מושב מגשים","doralon","cerberus"
7290492000005,"06/07/2015",NA,731,0,1,"Dor Alon",NA,"גן יאשיה","unknown","unknown","unknown",0,"07:00:00",32.3541099,34.9959023,"unknown,unknown","doralon","cerberus"
7290492000005,"06/07/2015",NA,824,9,1,"Dor Alon",NA,"צמח סופר אלונית","צומת צמח מרכז מסחרי","unknown","15105",0,"07:00:00",32.7027519,35.5835973,"צומת צמח מרכז מסחרי,unknown","doralon","cerberus"
7290700100008,"06/07/2015",NA,2,5,1,"כל בו חצי חינם",NA,"הכישור חולון","הכישור 22","חולון","unknown",0,"01:00:00",32.0073482,34.8065854,"הכישור 22,חולון","hazihinam","cerberus"
7290700100008,"06/07/2015",NA,4,3,1,"כל בו חצי חינם",NA,"מרכבה","המרכבה 51","חולון","unknown",0,"01:00:00",32.0034033,34.8050897,"המרכבה 51,חולון","hazihinam","cerberus"
7290700100008,"06/07/2015",NA,5,2,1,"כל בו חצי חינם",NA,"הלח""י ראשון לציון","הלח""י 16","ראשון לציון","unknown",0,"01:00:00",31.9730015,34.7925013,"הלח""י 16,ראשון לציון","hazihinam","cerberus"
7290700100008,"06/07/2015",NA,6,1,1,"כל בו חצי חינם",NA,"הוד השרון","הרקון","הוד השרון","unknown",0,"01:00:00",32.13791,34.902868,"הרקון,הוד השרון","hazihinam","cerberus"
7290700100008,"06/07/2015",NA,7,0,1,"כל בו חצי חינם",NA,"ירקות הלח""י","הלח""י 16","ראשון לציון","unknown",0,"01:00:00",31.9730015,34.7925013,"הלח""י 16,ראשון לציון","hazihinam","cerberus"
7290700100008,"06/07/2015",NA,8,9,1,"כל בו חצי חינם",NA,"תוצרת חקלאית שוק","לוי משה 8","ראשון לציון","unknown",0,"01:00:00",31.9867317,34.7726794,"לוי משה 8,ראשון לציון","hazihinam","cerberus"
7290700100008,"06/07/2015",NA,17,3,1,"כל בו חצי חינם",NA,"ירקות מרכבה","המרכבה 31","חולון","unknown",0,"01:00:00",32.0106578,34.8081211,"המרכבה 31,חולון","hazihinam","cerberus"
7290785400000,"14/06/2015",NA,1,6,1,"קשת טעמים",NA,"קרית חיים","איצטדיון 25","קרית חיים","unknown",0,"23:05:00",32.8225355,35.0577499,"איצטדיון 25,קרית חיים","keshet","cerberus"
7290785400000,"14/06/2015",NA,2,5,1,"קשת טעמים",NA,"נהריה","לוחמי הגטאות 9","נהריה","unknown",0,"23:05:00",33.0044596,35.0979685,"לוחמי הגטאות 9,נהריה","keshet","cerberus"
7290785400000,"14/06/2015",NA,3,4,1,"קשת טעמים",NA,"נשר","הזית 1","נשר","unknown",0,"23:05:00",32.7734172,35.0388585,"הזית 1,נשר","keshet","cerberus"
7290785400000,"14/06/2015",NA,4,3,1,"קשת טעמים",NA,"הדר","שבתאי לוי 21","חיפה","unknown",0,"23:05:00",32.8142947,34.9934378,"שבתאי לוי 21,חיפה","keshet","cerberus"
7290785400000,"14/06/2015",NA,5,2,1,"קשת טעמים",NA,"קרית אליעזר","תל אביב 11","חיפה","unknown",0,"23:05:00",32.825022,34.9883319,"תל אביב 11,חיפה","keshet","cerberus"
7290785400000,"14/06/2015",NA,6,1,1,"קשת טעמים",NA,"כרמיאל","הכבאי 1","כרמיאל","unknown",0,"23:05:00",32.9230471,35.3049049,"הכבאי 1,כרמיאל","keshet","cerberus"
7290785400000,"14/06/2015",NA,7,0,1,"קשת טעמים",NA,"נתניה","זנגביל 13","נתניה","unknown",0,"23:05:00",32.3304551,34.8609518,"זנגביל 13,נתניה","keshet","cerberus"
7290785400000,"14/06/2015",NA,8,9,1,"קשת טעמים",NA,"נצרת","עמל 1","נצרת עילית","unknown",0,"23:05:00",32.7033006,35.3228709,"עמל 1,נצרת עילית","keshet","cerberus"
7290785400000,"14/06/2015",NA,9,8,1,"קשת טעמים",NA,"אשדוד","קניון עד הלום","אשדוד","unknown",0,"23:05:00",31.804381,34.655314,"קניון עד הלום,אשדוד","keshet","cerberus"
7290785400000,"14/06/2015",NA,10,8,1,"קשת טעמים",NA,"גבעת רם","בציר 46","כרמיאל","unknown",0,"23:05:00",32.913088,35.2761673,"בציר 46,כרמיאל","keshet","cerberus"
7290785400000,"14/06/2015",NA,11,7,1,"קשת טעמים",NA,"יוקנעם","הירדן 64","יוקנעם","unknown",0,"23:05:00",32.641767,35.09006,"הירדן 64,יוקנעם","keshet","cerberus"
7290785400000,"14/06/2015",NA,12,6,1,"קשת טעמים",NA,"חדרה","דוד אלעזר 27","חדרה","unknown",0,"23:05:00",32.4401459,34.9100022,"דוד אלעזר 27,חדרה","keshet","cerberus"
7290785400000,"14/06/2015",NA,13,5,1,"קשת טעמים",NA,"ראשון לציון","ברשבסקי 33","ראשון לציון","99999",0,"23:05:00",31.973185,34.8124833,"ברשבסקי 33,ראשון לציון","keshet","cerberus"
7290785400000,"14/06/2015",NA,14,4,1,"קשת טעמים",NA,"פולג","המלאכה 28","נתניה","unknown",0,"23:05:00",32.2825917,34.859939,"המלאכה 28,נתניה","keshet","cerberus"
7290873900009,"07/06/2015",NA,1,5,1,"סופר דוש",NA,"חנות 1","לא ידוע 22","לא ידוע","unknown",0,"01:00:00",32.0220521,34.7412971,"לא ידוע 22,לא ידוע","superdosh","cerberus"
7290873900009,"07/06/2015",NA,2,2,1,"סופר דוש",NA,"חנות 2","לא ידוע","ראשון לציון","unknown",0,"01:00:00",32.0127172,34.7523566,"לא ידוע,ראשון לציון","superdosh","cerberus"
7290873900009,"07/06/2015",NA,3,0,1,"סופר דוש",NA,"חנות 3י","לא ידוע"," ון לציון","unknown",0,"01:00:00",32.010217,34.7477796,"לא ידוע, ון לציון","superdosh","cerberus"
7290873900009,"07/06/2015",NA,4,9,1,"סופר דוש",NA,"חנות 4","  לא ידוע","לא ידוע","unknown",0,"01:00:00",32.0155883,34.7552267,"  לא ידוע,לא ידוע","superdosh","cerberus"
7290803800003,"07/07/2015",NA,4,3,1,"מ. יוחננוף ובניו",NA,"בילו","צומת ביל""ו","unknown","unknown",0,"01:00:00",31.8601148,34.8144544,"צומת ביל""ו,unknown","yohananof","cerberus"
7290803800003,"07/07/2015",NA,5,2,1,"מ. יוחננוף ובניו",NA,"אשדוד","זבוטינסקי 27, סטאר סנטר","אשדוד","unknown",0,"01:00:00",31.804381,34.655314,"זבוטינסקי 27, סטאר סנטר,אשדוד","yohananof","cerberus"
7290803800003,"07/07/2015",NA,8,9,1,"מ. יוחננוף ובניו",NA,"אחד העם","רחוב אחד העם 19","רחובות","unknown",0,"01:00:00",31.8982543,34.8116588,"רחוב אחד העם 19,רחובות","yohananof","cerberus"
7290803800003,"07/07/2015",NA,9,8,1,"מ. יוחננוף ובניו",NA,"נתיבות","רחוב בעלי המלאכה 2, א.התעשיה","נתיבות","unknown",0,"01:00:00",31.423196,34.595254,"רחוב בעלי המלאכה 2, א.התעשיה,נתיבות","yohananof","cerberus"
7290803800003,"07/07/2015",NA,13,3,1,"מ. יוחננוף ובניו",NA,"חוצות המפרץ","החרושת 10 חוצות המפרץ","חיפה","unknown",0,"01:00:00",32.7940463,34.989571,"החרושת 10 חוצות המפרץ,חיפה","yohananof","cerberus"
7290803800003,"07/07/2015",NA,15,1,1,"מ. יוחננוף ובניו",NA,"אור יהודה","רחוב הפלדה 1","אור יהודה","unknown",0,"01:00:00",32.0326189,34.851129,"רחוב הפלדה 1,אור יהודה","yohananof","cerberus"
7290055755557,"20/05/2015 13:10",0,1,0,1,"עדן טבע מרקט","","01 עדן פולג נתניה*","","","",NA,NA,32.2767266,34.8623309,",","eden","private"
7290055755557,"20/05/2015 13:10",0,1,0,1,"עדן טבע מרקט","","02 עדן ראשל``צ*","","","",NA,NA,31.9848989,34.769306,",","eden","private"
7290055755557,"20/05/2015 13:10",0,1,0,1,"עדן טבע מרקט","","עדן אור יהודה","","","",NA,NA,NA,NA,",","eden","private"
7290055755557,"20/05/2015 13:10",0,1,0,1,"עדן טבע מרקט","","04 עדן חוצות  המפרץ*","","","",NA,NA,NA,NA,",","eden","private"
7290055755557,"20/05/2015 13:10",0,1,0,1,"עדן טבע מרקט","","05 עדן אשדוד","","","",NA,NA,NA,NA,",","eden","private"
7290055755557,"20/05/2015 13:10",0,1,0,1,"עדן טבע מרקט","","עדן  רמת השרון","","","",NA,NA,NA,NA,",","eden","private"
7290055755557,"20/05/2015 13:10",0,1,0,1,"עדן טבע מרקט","","07 עדן רמת גן","","","",NA,NA,32.0834141,34.8156055,",","eden","private"
7290055755557,"20/05/2015 13:10",0,1,0,1,"עדן טבע מרקט","","08 עדן כפר סבא*","","","",NA,NA,32.1716981,34.9279191,",","eden","private"
7290055755557,"20/05/2015 13:10",0,1,0,1,"עדן טבע מרקט","","09 עדן גן העיר ת``א","","","",NA,NA,32.0827929,34.7812867,",","eden","private"
7290055755557,"20/05/2015 13:10",0,1,0,1,"עדן טבע מרקט","","עדן מתחם U","","","",NA,NA,NA,NA,",","eden","private"
7290055755557,"20/05/2015 13:10",0,1,0,1,"עדן טבע מרקט","","11 עדן באר שבע*","","","",NA,NA,31.243857,34.809777,",","eden","private"
7290055755557,"20/05/2015 13:10",0,1,0,1,"עדן טבע מרקט","","עדן פתח תקווה","","","",NA,NA,NA,NA,",","eden","private"
7290055755557,"20/05/2015 13:10",0,1,0,1,"עדן טבע מרקט","","13 עדן רמות*","","","",NA,NA,NA,NA,",","eden","private"
7290055755557,"20/05/2015 13:10",0,1,0,1,"עדן טבע מרקט","","30 עדן במגה רעננה","","","",NA,NA,32.1950149,34.8805997,",","eden","private"
7290055755557,"20/05/2015 13:10",0,1,0,1,"עדן טבע מרקט","","עדן במגה רחובות","","","",NA,NA,NA,NA,",","eden","private"
7290055755557,"20/05/2015 13:10",0,1,0,1,"עדן טבע מרקט","","32 עדן במגה מלחה","","","",NA,NA,31.7516012,35.187316,",","eden","private"
7290055755557,"20/05/2015 13:10",0,1,0,1,"עדן טבע מרקט","","עדן במגה מודי ישן","","","",NA,NA,31.8905213,34.9627233,",","eden","private"
7290055755557,"20/05/2015 13:10",0,1,0,1,"עדן טבע מרקט","","34 עדן במגה נשר חיפה","","","",NA,NA,32.7780769,35.0388364,",","eden","private"
7290055755557,"20/05/2015 13:10",0,1,0,1,"עדן טבע מרקט","","עדן במגה רמות ירושלים","","","",NA,NA,31.8178845,35.1944212,",","eden","private"
7290055755557,"20/05/2015 13:10",0,1,0,1,"עדן טבע מרקט","","36 עדן במגה רמת החייל","","","",NA,NA,32.1131743,34.843435,",","eden","private"
7290055755557,"20/05/2015 13:10",0,1,0,1,"עדן טבע מרקט","","עדן במגה חולון","","","",NA,NA,NA,NA,",","eden","private"
7290055755557,"20/05/2015 13:10",0,1,0,1,"עדן טבע מרקט","","38 עדן שבעת הכוכבים הרצליה","","","",NA,NA,32.165057,34.8239744,",","eden","private"
7290055755557,"20/05/2015 13:10",0,1,0,1,"עדן טבע מרקט","","39 עדן במגה מגדלי יו","","","",NA,NA,32.0908515,34.7933505,",","eden","private"
7290055755557,"20/05/2015 13:10",0,1,0,1,"עדן טבע מרקט","","40 עדן במגה שהם","","","",NA,NA,32.0052213,34.946922,",","eden","private"
7290055755557,"20/05/2015 13:10",0,1,0,1,"עדן טבע מרקט","","41 עדן במגה מודיעין","","","",NA,NA,31.8994238,35.0048244,",","eden","private"
7290055755557,"20/05/2015 13:10",0,1,0,1,"עדן טבע מרקט","","42 עדן במגה יד אליהו","","","",NA,NA,32.0622338,34.792015,",","eden","private"
7290055755557,"20/05/2015 13:10",0,1,0,1,"עדן טבע מרקט","","43 עדן במגה אור יהודה","","","",NA,NA,32.0344152,34.8485927,",","eden","private"
7290055755557,"20/05/2015 13:10",0,1,0,1,"עדן טבע מרקט","","44 עדן במגה רמת השרון","","","",NA,NA,32.1286834,34.8587271,",","eden","private"
7290055755557,"20/05/2015 13:10",0,1,0,1,"עדן טבע מרקט","","45 עדן במגה קסטרא חיפה","","","",NA,NA,NA,NA,",","eden","private"
7290055755557,"20/05/2015 13:10",0,1,0,1,"עדן טבע מרקט","","46 עדן במגה חדרה","","","",NA,NA,NA,NA,",","eden","private"
7290055755557,"20/05/2015 13:10",0,1,0,1,"עדן טבע מרקט","","47 עדן במגה נווה אמירים","","","",NA,NA,32.1545308,34.8422653,",","eden","private"
7290055755557,"20/05/2015 13:10",0,1,0,1,"עדן טבע מרקט","","91 עדן מפעל בשר מוצרים מוגמרים","","","",NA,NA,NA,NA,",","eden","private"
7290055755557,"20/05/2015 13:10",0,1,0,2,"עדן טבע מרקט","","95 עדן אתר האינטרנט","www.edenteva.co.il","","0",NA,NA,NA,NA,"www.edenteva.co.il,","eden","private"
7290055755557,"20/05/2015 13:10",0,1,0,1,"עדן טבע מרקט","","96 עדן מחסן שוק סיטונאי","","","",NA,NA,NA,NA,",","eden","private"
7290055755557,"20/05/2015 13:10",0,1,0,1,"עדן טבע מרקט","","97 עדן מפעל בשר עדן טבע","","","",NA,NA,NA,NA,",","eden","private"
7290055755557,"20/05/2015 13:10",0,1,0,1,"עדן טבע מרקט","","עדן טבע מרקט","","","0",NA,NA,NA,NA,",","eden","private"
7290055755557,"20/05/2015 13:10",0,1,0,1,"עדן טבע מרקט","","99 עדן לוגיסטיקה","","","",NA,NA,NA,NA,",","eden","private"
7290055700007,"20150706",5,10,8,1,"רשת מגה","מגה בעיר","מב. פנקס","46-50 פנקס","תל-אביב","201103",NA,"10141",32.0908942,34.7887123,"46-50 פנקס,תל-אביב","mega","private"
7290055700007,"20150706",5,11,6,1,"רשת מגה","מגה בעיר","מב. כיכר דיזנגוף","9 ככר דיזנגוף","תל-אביב","200909",NA,"10141",32.0781483,34.7737669,"9 ככר דיזנגוף,תל-אביב","mega","private"
7290055700007,"20150706",5,13,2,1,"רשת מגה","מגה בעיר","מב. ויצמן תל אביב","20 ויצמן","תל-אביב","200411",NA,"10141",32.082935,34.7891301,"20 ויצמן,תל-אביב","mega","private"
7290055700007,"20150706",5,14,0,1,"רשת מגה","מגה בעיר","מב. חיפה גרינברג","20 א.צ גרינברג","חיפה","201010",NA,"10141",32.7756464,34.9915618,"20 א.צ גרינברג,חיפה","mega","private"
7290055700007,"20150706",5,15,9,1,"רשת מגה","מגה בעיר","מב. רמת הטייסים","2 עודד","תל-אביב","200411",NA,"10141",32.0582117,34.8117082,"2 עודד,תל-אביב","mega","private"
7290055700007,"20150706",5,18,3,1,"רשת מגה","מגה בעיר","מב. עוזיאל בת-ים","5 עוזיאל","בת-ים","200406",NA,"10141",32.0228889,34.7476276,"5 עוזיאל,בת-ים","mega","private"
7290055700007,"20150706",5,19,1,1,"רשת מגה","מגה בעיר","מב. ככר ויצמן חולון","48 סוקולוב","חולון","200807",NA,"10141",32.0227021,34.7744415,"48 סוקולוב,חולון","mega","private"
7290055700007,"20150706",5,20,5,1,"רשת מגה","מגה בעיר","מב. לה-גרדיה ת""א","78 לה גרדיה","תל-אביב","200411",NA,"10141",32.0592139,34.8027179,"78 לה גרדיה,תל-אביב","mega","private"
7290055700007,"20150706",5,21,3,1,"רשת מגה","מגה בעיר","מב. אבן גבירול","30 אבן גבירול","תל-אביב","200411",NA,"10141",32.0749745,34.7817983,"30 אבן גבירול,תל-אביב","mega","private"
7290055700007,"20150706",5,22,1,1,"רשת מגה","מגה בעיר","מב. מגדל נחום","65 שדרות העצמאות","בת-ים","200406",NA,"10141",32.0269326,34.7482315,"65 שדרות העצמאות,בת-ים","mega","private"
7290055700007,"20150706",5,24,8,1,"רשת מגה","מגה בעיר","מב. יהודה מכבי","48 יהודה המכבי","תל-אביב","200411",NA,"10141",32.0939271,34.7919482,"48 יהודה המכבי,תל-אביב","mega","private"
7290055700007,"20150706",5,25,6,1,"רשת מגה","מגה בעיר","מב. רמת-יוסף","20 מבצע סיני","בת-ים","200406",NA,"10141",32.0205224,34.7587659,"20 מבצע סיני,בת-ים","mega","private"
7290055700007,"20150706",5,32,9,1,"רשת מגה","מגה בעיר","מב. נאות רחל","21 קדושי קהיר","חולון","200406",NA,"10141",32.0183437,34.7634849,"21 קדושי קהיר,חולון","mega","private"
7290055700007,"20150706",5,33,7,1,"רשת מגה","מגה בעיר","מב. נאות אפקה","15 לאה","תל-אביב","200411",NA,"10141",32.1199276,34.8210174,"15 לאה,תל-אביב","mega","private"
7290055700007,"20150706",5,34,5,1,"רשת מגה","מגה בעיר","מב. נאות שושנים חולו","24 משה רום","חולון","201106",NA,"10141",32.015833,34.787384,"24 משה רום,חולון","mega","private"
7290055700007,"20150706",15,35,3,1,"רשת מגה","YOU יו","הצרכניה אשדוד ד","25 רוגוזין","אשדוד","201505",NA,"10141",31.8040249,34.6425649,"25 רוגוזין,אשדוד","mega","private"
7290055700007,"20150706",5,46,0,1,"רשת מגה","מגה בעיר","מב. בן גוריון גבעתים","162 בן גוריון","גבעתיים","200411",NA,"10141",32.0775345,34.8191115,"162 בן גוריון,גבעתיים","mega","private"
7290055700007,"20150706",5,48,0,1,"רשת מגה","מגה בעיר","מב. הרצוג ירושלים","61 הרצוג","ירושלים","201010",NA,"10141",31.766708,35.2047975,"61 הרצוג,ירושלים","mega","private"
7290055700007,"20150706",5,49,3,1,"רשת מגה","מגה בעיר","מב. הרוא""ה רמת-גן","2 הרוא""ה","רמת-גן","200411",NA,"10141",32.0838078,34.8158231,"2 הרוא""ה,רמת-גן","mega","private"
7290055700007,"20150706",5,50,7,1,"רשת מגה","מגה בעיר","מב. ערד מרכז","39 יהודה","ערד","200403",NA,"10141",31.2570029,35.212762,"39 יהודה,ערד","mega","private"
7290055700007,"20150706",5,51,5,1,"רשת מגה","מגה בעיר","מב. רווה ר""ג","113 עוזיאל","רמת-גן","200411",NA,"10141",32.068657,34.8219373,"113 עוזיאל,רמת-גן","mega","private"
7290055700007,"20150706",5,52,3,1,"רשת מגה","מגה בעיר","מב. דימונה מרכז","הנשיא","דימונה","200411",NA,"10141",31.0620401,35.0286485,"הנשיא,דימונה","mega","private"
7290055700007,"20150706",5,55,8,1,"רשת מגה","מגה בעיר","מב. רמת-החייל","7 ד.מ. מרכוס","תל-אביב","200411",NA,"10141",32.0852999,34.7817676,"7 ד.מ. מרכוס,תל-אביב","mega","private"
7290055700007,"20150706",5,58,0,1,"רשת מגה","מגה בעיר","מב. עמק הברכה ת""א","עמק הברכה","תל-אביב","201206",NA,"10141",32.0761171,34.7988525,"עמק הברכה,תל-אביב","mega","private"
7290055700007,"20150706",15,61,0,1,"רשת מגה","YOU יו","הצרכניה רובע ט' ב""ש","42 שדרות י-ם","באר-שבע","201505",NA,"10141",31.7826928,35.2101516,"42 שדרות י-ם,באר-שבע","mega","private"
7290055700007,"20150706",5,62,0,1,"רשת מגה","מגה בעיר","מב. ירושלים נתניה","29 ירושלים","נתניה","200411",NA,"10141",32.3238272,34.8550972,"29 ירושלים,נתניה","mega","private"
7290055700007,"20150706",5,69,8,1,"רשת מגה","מגה בעיר","מב. בית אבות","2 שד.הארזים","רמת-אפעל","200411",NA,"10141",32.0511815,34.8373682,"2 שד.הארזים,רמת-אפעל","mega","private"
7290055700007,"20150706",5,70,1,1,"רשת מגה","מגה בעיר","מב. הנשיא קרית-אונו","57  הנשיא","קרית-אונו","200411",NA,"10141",32.0604841,34.8564529,"57  הנשיא,קרית-אונו","mega","private"
7290055700007,"20150706",18,72,0,1,"רשת מגה","זול בשפע","ש. קניון עזריאלי ק""א","18 המיסדים","קרית אתא","201402",NA,"10141",32.8035448,35.1052582,"18 המיסדים,קרית אתא","mega","private"
7290055700007,"20150706",5,75,2,1,"רשת מגה","מגה בעיר","מב. רמת-אפעל","16 שד.האורנים","רמת-אפעל","200403",NA,"10141",32.0462738,34.8355963,"16 שד.האורנים,רמת-אפעל","mega","private"
7290055700007,"20150706",5,81,0,1,"רשת מגה","מגה בעיר","מב. קרן היסוד רעננה","1 קרן היסוד","רעננה","200408",NA,"10141",32.1819281,34.8704414,"1 קרן היסוד,רעננה","mega","private"
7290055700007,"20150706",5,82,0,1,"רשת מגה","מגה בעיר","מב. מרכז רעננה","114 אחוזה","רעננה","200408",NA,"10141",32.1804487,34.8751402,"114 אחוזה,רעננה","mega","private"
7290055700007,"20150706",18,83,0,1,"רשת מגה","זול בשפע","ש. מרכז גולן רעננה","2 הגדוד העברי","רעננה","201108",NA,"10141",32.1829016,34.8652907,"2 הגדוד העברי,רעננה","mega","private"
7290055700007,"20150706",5,85,0,1,"רשת מגה","מגה בעיר","מב. קרית שרת רעננה","1 התקומה","רעננה","200408",NA,"10141",32.1952385,34.8544319,"1 התקומה,רעננה","mega","private"
7290055700007,"20150706",5,87,0,1,"רשת מגה","מגה בעיר","מב. ותיקים רעננה","11 ההסתדרות","רעננה","201109",NA,"10141",32.1862476,34.8763598,"11 ההסתדרות,רעננה","mega","private"
7290055700007,"20150706",7,88,0,1,"רשת מגה","מגה בול","בול עכו אשל הירדן","יהושפט פינת העצמאות","עכו","200901",NA,"10141",32.9258398,35.0764207,"יהושפט פינת העצמאות,עכו","mega","private"
7290055700007,"20150706",5,89,2,1,"רשת מגה","מגה בעיר","מב. מרכז אילת","שד.התמרים","אילת","200411",NA,"10141",29.5610439,34.9510095,"שד.התמרים,אילת","mega","private"
7290055700007,"20150706",5,90,6,1,"רשת מגה","מגה בעיר","מב. מרכז נתניה","שטמפר","נתניה","200411",NA,"10141",32.328351,34.854516,"שטמפר,נתניה","mega","private"
7290055700007,"20150706",5,91,4,1,"רשת מגה","מגה בעיר","מב. נוה אביבים","13 אופנהיימר","תל-אביב","200411",NA,"10141",32.1204742,34.8003003,"13 אופנהיימר,תל-אביב","mega","private"
7290055700007,"20150706",5,98,1,1,"רשת מגה","מגה בעיר","מב. אזורים נתניה","14 גרינבאום יצחק","נתניה","200411",NA,"10141",32.2949471,34.8505539,"14 גרינבאום יצחק,נתניה","mega","private"
7290055700007,"20150706",5,103,0,1,"רשת מגה","מגה בעיר","מב. קניון כפר-סבא","20 כצנלסון","כפר-סבא","200404",NA,"10141",32.1787,34.9033232,"20 כצנלסון,כפר-סבא","mega","private"
7290055700007,"20150706",5,104,0,1,"רשת מגה","מגה בעיר","מב. הוד השרון","1 שלום עליכם","הוד השרון","200411",NA,"10141",32.1594427,34.8883372,"1 שלום עליכם,הוד השרון","mega","private"
7290055700007,"20150706",5,108,2,1,"רשת מגה","מגה בעיר","מב. בבלי","17 לומד בבלי","תל-אביב","200411",NA,"10141",32.0970052,34.7983989,"17 לומד בבלי,תל-אביב","mega","private"
7290055700007,"20150706",9,109,0,1,"רשת מגה","מגה","מגה לב דיזנגוף","65  דיזנגוף","תל-אביב","201311",NA,"10141",32.0763298,34.7746539,"65  דיזנגוף,תל-אביב","mega","private"
7290055700007,"20150706",15,111,2,1,"רשת מגה","YOU יו","הצרכניה מרכז רמלה","45 שדרות הרצל","רמלה","201505",NA,"10141",31.9315895,34.8693355,"45 שדרות הרצל,רמלה","mega","private"
7290055700007,"20150706",15,112,0,1,"רשת מגה","YOU יו","יד אליהו       ע YOU","53 יגאל אלון","תל-אביב","201412",NA,"10141",32.062235,34.7919967,"53 יגאל אלון,תל-אביב","mega","private"
7290055700007,"20150706",5,113,9,1,"רשת מגה","מגה בעיר","מב. רון כ""ס","2 יעקב כהן","כפר-סבא","200411",NA,"10141",32.1862037,34.9044977,"2 יעקב כהן,כפר-סבא","mega","private"
7290055700007,"20150706",5,114,7,1,"רשת מגה","מגה בעיר","מב. נווה כרמית","65 זבוטינסקי","ראשון-לציון","200411",NA,"10141",31.9669422,34.7994747,"65 זבוטינסקי,ראשון-לציון","mega","private"
7290055700007,"20150706",5,115,0,1,"רשת מגה","מגה בעיר","מב. מכבים","מרכז רננים","מכבים","200411",NA,"10141",31.889235,35.0346342,"מרכז רננים,מכבים","mega","private"
7290055700007,"20150706",5,117,1,1,"רשת מגה","מגה בעיר","מב. חפץ חיים","28 הרצל","פתח-תקוה","201106",NA,"10141",32.0852737,34.8868718,"28 הרצל,פתח-תקוה","mega","private"
7290055700007,"20150706",5,119,0,1,"רשת מגה","מגה בעיר","מב. צמרות          ע","ניסים אלוני","תל-אביב","201011",NA,"10141",32.0890506,34.7969631,"ניסים אלוני,תל-אביב","mega","private"
7290055700007,"20150706",9,120,1,1,"רשת מגה","מגה","מגה יהלומים גבעתיים","1 כורזין","גבעתיים","201311",NA,"10141",32.0592113,34.8165894,"1 כורזין,גבעתיים","mega","private"
7290055700007,"20150706",5,122,8,1,"רשת מגה","מגה בעיר","מב. תל כביר","45 גרינבאום","תל-אביב","201308",NA,"10141",32.0403332,34.7654434,"45 גרינבאום,תל-אביב","mega","private"
7290055700007,"20150706",5,123,6,1,"רשת מגה","מגה בעיר","מב. מגדלי דוד","12 אורי","תל-אביב","200411",NA,"10141",32.0813233,34.7853357,"12 אורי,תל-אביב","mega","private"
7290055700007,"20150706",5,125,2,1,"רשת מגה","מגה בעיר","מב. מעלה אילת","דרך יותם","אילת","200411",NA,"10141",29.5539967,34.9355056,"דרך יותם,אילת","mega","private"
7290055700007,"20150706",5,126,0,1,"רשת מגה","מגה בעיר","מב. ראשל""צ ג","15 ברניצקי","ראשון-לציון","200411",NA,"10141",31.959039,34.7992236,"15 ברניצקי,ראשון-לציון","mega","private"
7290055700007,"20150706",5,127,9,1,"רשת מגה","מגה בעיר","מב. בלינסון פ""ת","13 קפלן","פתח-תקוה","201106",NA,"10141",32.0886284,34.8687683,"13 קפלן,פתח-תקוה","mega","private"
7290055700007,"20150706",5,129,5,1,"רשת מגה","מגה בעיר","מב. מעוז אביב","209 בני אפרים","תל-אביב","200411",NA,"10141",32.1112071,34.816448,"209 בני אפרים,תל-אביב","mega","private"
7290055700007,"20150706",5,130,9,1,"רשת מגה","מגה בעיר","מב. רמת-אביב ג","35 אבא אחימאיר","תל-אביב","201106",NA,"10141",32.1245218,34.8042693,"35 אבא אחימאיר,תל-אביב","mega","private"
7290055700007,"20150706",15,134,0,1,"רשת מגה","YOU יו","שדרות YOU","דרות א.ת פנינת הנגב","שדרות","201407",NA,"10141",31.5220866,34.5978903,"דרות א.ת פנינת הנגב,שדרות","mega","private"
7290055700007,"20150706",5,136,8,1,"רשת מגה","מגה בעיר","מב. אריאל א","הנחשונים 37 מ.מסחרי","אריאל","200411",NA,"10141",32.1058824,35.1725285,"הנחשונים 37 מ.מסחרי,אריאל","mega","private"
7290055700007,"20150706",5,137,0,1,"רשת מגה","מגה בעיר","מב. קריית מוצקין","10 החשמונאים","קרית-מוצקין","201210",NA,"10141",32.8356857,35.0763114,"10 החשמונאים,קרית-מוצקין","mega","private"
7290055700007,"20150706",15,138,4,1,"רשת מגה","YOU יו","חדרה           ע YOU","כביש אזור התעשיה","חדרה","201502",NA,"10141",32.455184,34.906317,"כביש אזור התעשיה,חדרה","mega","private"
7290055700007,"20150706",5,143,0,1,"רשת מגה","מגה בעיר","מב. קניון קיראון","שלמה המלך","קריית אונו","201105",NA,"10141",32.0541195,34.8592106,"שלמה המלך,קריית אונו","mega","private"
7290055700007,"20150706",9,148,0,1,"רשת מגה","מגה","מגה קדימה","המעלית פארק התעשיות","קדימה","201311",NA,"10141",32.274923,34.919701,"המעלית פארק התעשיות,קדימה","mega","private"
7290055700007,"20150706",5,152,0,1,"רשת מגה","מגה בעיר","מב. שבעת הכוכבים   ע","שירת הדבורה","הרצליה","201106",NA,"10141",32.162413,34.844675,"שירת הדבורה,הרצליה","mega","private"
7290055700007,"20150706",5,193,0,1,"רשת מגה","מגה בעיר","מב. מרכז רום","יעל רום 7 אם המושבות","פתח-תקוה","201209",NA,"10141",32.1002363,34.8816024,"יעל רום 7 אם המושבות,פתח-תקוה","mega","private"
7290055700007,"20150706",5,194,0,1,"רשת מגה","מגה בעיר","מב. מרכז השלום","רפאל איתן3אם המושבות","פתח-תקוה","201204",NA,"10141",32.1031477,34.8824303,"רפאל איתן3אם המושבות,פתח-תקוה","mega","private"
7290055700007,"20150706",5,202,0,1,"רשת מגה","מגה בעיר","מב. נווה גנים","271 דרך עכו","קרית-מוצקין","201106",NA,"10141",32.8550093,35.0938575,"271 דרך עכו,קרית-מוצקין","mega","private"
7290055700007,"20150706",5,204,0,1,"רשת מגה","מגה בעיר","מב. כרמליה חיפה","אלכסנדר ינאי 3  חיפה","חיפה","201105",NA,"10141",32.7971449,34.9778331,"אלכסנדר ינאי 3  חיפה,חיפה","mega","private"
7290055700007,"20150706",5,205,0,1,"רשת מגה","מגה בעיר","מב. קרית ביאליק קק""ל","58 קק""ל","קרית-ביאליק","200703",NA,"10141",32.830074,35.0787506,"58 קק""ל,קרית-ביאליק","mega","private"
7290055700007,"20150706",5,207,0,1,"רשת מגה","מגה בעיר","מב. כפר יונה דרום","40 מנחם בגין","כפר-יונה","200712",NA,"10141",32.3121309,34.936942,"40 מנחם בגין,כפר-יונה","mega","private"
7290055700007,"20150706",23,208,0,1,"רשת מגה","תכלס","תכלס בני-ברק","106 כהנמן","בני-ברק","201406",NA,"10141",32.0774564,34.8423468,"106 כהנמן,בני-ברק","mega","private"
7290055700007,"20150706",18,209,0,1,"רשת מגה","זול בשפע","ש. אלעד עילית","שמעון בן שטח","אלעד","201106",NA,"10141",32.054567,34.96424,"שמעון בן שטח,אלעד","mega","private"
7290055700007,"20150706",15,210,0,1,"רשת מגה","YOU יו","סגולה YOU","22 בן ציון גליס","פתח-תקוה","201405",NA,"10141",32.1041163,34.8941818,"22 בן ציון גליס,פתח-תקוה","mega","private"
7290055700007,"20150706",15,211,0,1,"רשת מגה","YOU יו","טבריה עלית YOU","א.ת. טבריה עלית","טבריה","201405",NA,"10141",32.795859,35.530973,"א.ת. טבריה עלית,טבריה","mega","private"
7290055700007,"20150706",15,215,0,1,"רשת מגה","YOU יו","אילת YOU","23 חטיבת גולני","אילת","201405",NA,"10141",29.5628498,34.9551098,"23 חטיבת גולני,אילת","mega","private"
7290055700007,"20150706",5,218,0,1,"רשת מגה","מגה בעיר","מב. אבן יהודה","הדרים פינת המיסדים","אבן-יהודה","200607",NA,"10141",32.276648,34.885087,"הדרים פינת המיסדים,אבן-יהודה","mega","private"
7290055700007,"20150706",5,219,0,1,"רשת מגה","מגה בעיר","מב. גני העיר רחובות","15 דרך ירושלים","רחובות","200411",NA,"10141",31.8897147,34.8299651,"15 דרך ירושלים,רחובות","mega","private"
7290055700007,"20150706",15,222,0,1,"רשת מגה","YOU יו","מודיעין YOU","24 עמק דותן","מודיעין","201407",NA,"10141",31.90005,35.0170084,"24 עמק דותן,מודיעין","mega","private"
7290055700007,"20150706",5,223,0,1,"רשת מגה","מגה בעיר","מב. גני אביב לוד","ארבע עונות 41 ג.אביב","לוד","199812",NA,"10141",31.9586031,34.8798474,"ארבע עונות 41 ג.אביב,לוד","mega","private"
7290055700007,"20150706",5,224,0,1,"רשת מגה","מגה בעיר","מב. בית וגן קרית אתא","10 העצמאות","קרית-אתא","200807",NA,"10141",32.7995785,35.1029684,"10 העצמאות,קרית-אתא","mega","private"
7290055700007,"20150706",15,229,0,1,"רשת מגה","YOU יו","רמת-השרון      ע YOU","החרושת א.ת","רמת-השרון","201501",NA,"10141",32.1291226,34.8590591,"החרושת א.ת,רמת-השרון","mega","private"
7290055700007,"20150706",5,231,0,1,"רשת מגה","מגה בעיר","מב. גן יבנה","הרצל פ.קיבוץ גלויות","גן יבנה","200808",NA,"10141",31.7900958,34.712139,"הרצל פ.קיבוץ גלויות,גן יבנה","mega","private"
7290055700007,"20150706",9,232,0,1,"רשת מגה","מגה","מגה קניון גבעתיים","ויצמן פינת יצחק רבין","גבעתיים","201311",NA,"10141",32.066554,34.808672,"ויצמן פינת יצחק רבין,גבעתיים","mega","private"
7290055700007,"20150706",5,233,0,1,"רשת מגה","מגה בעיר","מב. אשדוד יב","תמוז 14 מרכז מסחרי","אשדוד","200808",NA,"10141",31.804381,34.655314,"תמוז 14 מרכז מסחרי,אשדוד","mega","private"
7290055700007,"20150706",15,237,0,1,"רשת מגה","YOU יו","עפולה YOU","קהילת ציון א.ת","עפולה","201407",NA,"10141",32.610493,35.287922,"קהילת ציון א.ת,עפולה","mega","private"
7290055700007,"20150706",7,238,0,1,"רשת מגה","מגה בול","בול נתיבות","סמילו מרכז מסחרי","נתיבות","201106",NA,"10141",31.423196,34.595254,"סמילו מרכז מסחרי,נתיבות","mega","private"
7290055700007,"20150706",9,241,0,1,"רשת מגה","מגה","מגה עיר ימים נתניה","שדרות בן גוריון","נתניה","201311",NA,"10141",32.2981756,34.8444542,"שדרות בן גוריון,נתניה","mega","private"
7290055700007,"20150706",18,247,0,1,"רשת מגה","זול בשפע","ש. נאות חן חדרה","הלל יפה 5 פ.סמילנסקי","חדרה","201211",NA,"10141",32.4340847,34.9161275,"הלל יפה 5 פ.סמילנסקי,חדרה","mega","private"
7290055700007,"20150706",5,248,0,1,"רשת מגה","מגה בעיר","מב. ראשל""צ ד","33 שמעון פרס","ראשון-לציון","200411",NA,"10141",31.968493,34.7638924,"33 שמעון פרס,ראשון-לציון","mega","private"
7290055700007,"20150706",5,249,0,1,"רשת מגה","מגה בעיר","מב. כפר שלם","10 סנפיר","תל-אביב","200411",NA,"10141",32.0534605,34.8099466,"10 סנפיר,תל-אביב","mega","private"
7290055700007,"20150706",5,251,8,1,"רשת מגה","מגה בעיר","מב. פארק הירקון","1 שלום אש","תל-אביב","200411",NA,"10141",32.1082283,34.81966,"1 שלום אש,תל-אביב","mega","private"
7290055700007,"20150706",5,252,0,1,"רשת מגה","מגה בעיר","מב. תל-מונד","4 השקד","תל-מונד","200411",NA,"10141",32.2577596,34.9193219,"4 השקד,תל-מונד","mega","private"
7290055700007,"20150706",5,253,0,1,"רשת מגה","מגה בעיר","מב. בת גלים","37 העליה השניה","חיפה","201105",NA,"10141",32.8321593,34.9789255,"37 העליה השניה,חיפה","mega","private"
7290055700007,"20150706",5,254,0,1,"רשת מגה","מגה בעיר","מב. מודיעין שמשוני","2 עמק בית שאן","מודיעין","199812",NA,"10141",31.9093414,35.0058328,"2 עמק בית שאן,מודיעין","mega","private"
7290055700007,"20150706",18,256,0,1,"רשת מגה","זול בשפע","ש. מודיעין עלית","אחוזת ברכפלד ק.ספר","מודיעין עלית","201106",NA,"10141",31.9388742,35.0440159,"אחוזת ברכפלד ק.ספר,מודיעין עלית","mega","private"
7290055700007,"20150706",5,257,7,1,"רשת מגה","מגה בעיר","מב. לב נתניה","32 הרב קוק","נתניה","200403",NA,"10141",32.3333419,34.8543108,"32 הרב קוק,נתניה","mega","private"
7290055700007,"20150706",15,258,0,1,"רשת מגה","YOU יו","נצרת YOU","דרך הציונות פ.העמק","נצרת-עלית","201502",NA,"10141",32.700357,35.3115783,"דרך הציונות פ.העמק,נצרת-עלית","mega","private"
7290055700007,"20150706",15,259,0,1,"רשת מגה","YOU יו","חיפה           ע YOU","דרך פרויד","חיפה","201501",NA,"10141",32.7809797,34.9877614,"דרך פרויד,חיפה","mega","private"
7290055700007,"20150706",15,262,0,1,"רשת מגה","YOU יו","יוקנעם YOU","קניון דרכים","יוקנעם","201408",NA,"10141",32.6598057,35.1051698,"קניון דרכים,יוקנעם","mega","private"
7290055700007,"20150706",15,264,0,1,"רשת מגה","YOU יו","אשדוד YOU","א.תעשיה הצפוני","אשדוד","201405",NA,"10141",31.804381,34.655314,"א.תעשיה הצפוני,אשדוד","mega","private"
7290055700007,"20150706",15,266,0,1,"רשת מגה","YOU יו","נתניה YOU","צורן 6 א.ת.דרומי","נתניה","201405",NA,"10141",32.321458,34.853196,"צורן 6 א.ת.דרומי,נתניה","mega","private"
7290055700007,"20150706",15,268,0,1,"רשת מגה","YOU יו","ערד YOU","שמיר 5 א.תעשיה","ערד","201405",NA,"10141",31.261447,35.214862,"שמיר 5 א.תעשיה,ערד","mega","private"
7290055700007,"20150706",15,270,0,1,"רשת מגה","YOU יו","באר-שבע YOU","1 האורגים","באר-שבע","201412",NA,"10141",31.253762,34.8150002,"1 האורגים,באר-שבע","mega","private"
7290055700007,"20150706",18,273,0,1,"רשת מגה","זול בשפע","ש. מגדל העמק","העצמאות","מגדל-העמק","201212",NA,"10141",32.6807564,35.2349601,"העצמאות,מגדל-העמק","mega","private"
7290055700007,"20150706",5,274,0,1,"רשת מגה","מגה בעיר","מב. שרונה רחובות","מדר פינת דרך ירושלים","רחובות","201308",NA,"10141",31.8875987,34.8196086,"מדר פינת דרך ירושלים,רחובות","mega","private"
7290055700007,"20150706",18,275,0,1,"רשת מגה","זול בשפע","ש. עמישב פ""ת","מנחם בגין 94 עמישב","פתח-תקוה","201106",NA,"10141",32.0701403,34.9131669,"מנחם בגין 94 עמישב,פתח-תקוה","mega","private"
7290055700007,"20150706",15,282,0,1,"רשת מגה","YOU יו","נשר            ע YOU","147 דרך בר יהודה","חיפה","201412",NA,"10141",32.7780881,35.0388491,"147 דרך בר יהודה,חיפה","mega","private"
7290055700007,"20150706",5,284,0,1,"רשת מגה","מגה בעיר","מב. אשדוד ח","הרב לוין מ.מסחרי","אשדוד","201310",NA,"10141",31.804381,34.655314,"הרב לוין מ.מסחרי,אשדוד","mega","private"
7290055700007,"20150706",15,285,0,1,"רשת מגה","YOU יו","כרמיאל YOU","כרמיאל סנטר-כביש עכו","כרמיאל","201409",NA,"10141",32.9275395,35.3207908,"כרמיאל סנטר-כביש עכו,כרמיאל","mega","private"
7290055700007,"20150706",5,288,0,1,"רשת מגה","מגה בעיר","מב. זבולון קרית אתא","דרך זבולון פ.העצמאות","קרית-אתא","201308",NA,"10141",32.804652,35.104031,"דרך זבולון פ.העצמאות,קרית-אתא","mega","private"
7290055700007,"20150706",15,293,0,1,"רשת מגה","YOU יו","קריות YOU","ח.תעשיה פ.יגאל ידין","חיפה","201405",NA,"10141",32.7940463,34.989571,"ח.תעשיה פ.יגאל ידין,חיפה","mega","private"
7290055700007,"20150706",5,294,0,1,"רשת מגה","מגה בעיר","מב. שוהם           ע","161 עמק האיילון","שוהם","200411",NA,"10141",32.0052353,34.9469138,"161 עמק האיילון,שוהם","mega","private"
7290055700007,"20150706",5,296,0,1,"רשת מגה","מגה בעיר","מב. נוף זכרון יעקב",".10 חברה חשבונאית","זכרון יעקב","201106",NA,"10141",32.573905,34.951977,".10 חברה חשבונאית,זכרון יעקב","mega","private"
7290055700007,"20150706",5,297,6,1,"רשת מגה","מגה בעיר","מב. צפון באר שבע","101 אברהם אבינו","באר-שבע","201106",NA,"10141",31.2701348,34.7958884,"101 אברהם אבינו,באר-שבע","mega","private"
7290055700007,"20150706",5,301,0,1,"רשת מגה","מגה בעיר","מב. אריאל ב","הציונות 78 רובע ב","אריאל","200411",NA,"10141",32.1050168,35.197091,"הציונות 78 רובע ב,אריאל","mega","private"
7290055700007,"20150706",5,302,0,1,"רשת מגה","מגה בעיר","מב. בית אליעזר","חדרה","חדרה","201106",NA,"10141",32.4340458,34.9196518,"חדרה,חדרה","mega","private"
7290055700007,"20150706",5,305,0,1,"רשת מגה","מגה בעיר","מב. כפר-יונה","6 שרת","כפר-יונה","200411",NA,"10141",32.3178371,34.9342207,"6 שרת,כפר-יונה","mega","private"
7290055700007,"20150706",15,311,0,1,"רשת מגה","YOU יו","ראש העין YOU","א.ת.חדש פארק סיבל","ראש-העין","201405",NA,"10141",32.095838,34.952177,"א.ת.חדש פארק סיבל,ראש-העין","mega","private"
7290055700007,"20150706",15,314,0,1,"רשת מגה","YOU יו","אור יהודה      ע YOU","המפעל 2 א.ת ישן","אור-יהודה","201412",NA,"10141",32.029748,34.856173,"המפעל 2 א.ת ישן,אור-יהודה","mega","private"
7290055700007,"20150706",15,315,0,1,"רשת מגה","YOU יו","תחנה מרכזית ת""א YOU","108 לוינסקי","תל-אביב","201411",NA,"10141",32.0566504,34.7798601,"108 לוינסקי,תל-אביב","mega","private"
7290055700007,"20150706",15,316,0,1,"רשת מגה","YOU יו","קניון לוד YOU","קניון לוד סנטר","לוד","201405",NA,"10141",31.951014,34.888075,"קניון לוד סנטר,לוד","mega","private"
7290055700007,"20150706",5,317,4,1,"רשת מגה","מגה בעיר","מב. בר אילן","האורנים","גבעת-שמואל","200411",NA,"10141",32.041653,34.832645,"האורנים,גבעת-שמואל","mega","private"
7290055700007,"20150706",5,318,0,1,"רשת מגה","מגה בעיר","מב. רמות צהלה","4-6 גרפית","תל-אביב","200411",NA,"10141",32.0852999,34.7817676,"4-6 גרפית,תל-אביב","mega","private"
7290055700007,"20150706",5,321,0,1,"רשת מגה","מגה בעיר","מב. לב אשקלון","שכונת שמשון","אשקלון","200411",NA,"10141",31.655122,34.556197,"שכונת שמשון,אשקלון","mega","private"
7290055700007,"20150706",15,322,0,1,"רשת מגה","YOU יו","מרכז אשקלון YOU","1 שד.בן-גוריון","אשקלון","201405",NA,"10141",31.6604865,34.5894884,"1 שד.בן-גוריון,אשקלון","mega","private"
7290055700007,"20150706",15,323,9,1,"רשת מגה","YOU יו","קניותר נס ציונה YOU","נוה כרמית  מ.מסחרי","נס-ציונה","201407",NA,"10141",31.932111,34.801327,"נוה כרמית  מ.מסחרי,נס-ציונה","mega","private"
7290055700007,"20150706",15,324,7,1,"רשת מגה","YOU יו","בת-ים העמל YOU","עמל 20 א","בת-ים","201405",NA,"10141",32.0056202,34.7477876,"עמל 20 א,בת-ים","mega","private"
7290055700007,"20150706",5,328,0,1,"רשת מגה","מגה בעיר","מב.אלוני השרון נתניה","תום לנטוס 26 ק.השרון","נתניה","201203",NA,"10141",32.321458,34.853196,"תום לנטוס 26 ק.השרון,נתניה","mega","private"
7290055700007,"20150706",5,330,0,1,"רשת מגה","מגה בעיר","מב. קניון אביה ב""ש","קנ.אביה שד.שאול המלך","באר-שבע","201309",NA,"10141",31.2621396,34.776395,"קנ.אביה שד.שאול המלך,באר-שבע","mega","private"
7290055700007,"20150706",5,342,0,1,"רשת מגה","מגה בעיר","מב. אלנבי ירושלים","בית""ר פינת ינובסקי","ירושלים","201201",NA,"10141",31.7555795,35.224678,"בית""ר פינת ינובסקי,ירושלים","mega","private"
7290055700007,"20150706",5,344,0,1,"רשת מגה","מגה בעיר","מב. מזכרת בתיה","8 שדרות אליהו","מזכרת בתיה","200411",NA,"10141",31.8547299,34.8421048,"8 שדרות אליהו,מזכרת בתיה","mega","private"
7290055700007,"20150706",5,350,6,1,"רשת מגה","מגה בעיר","מב. גבעת סביון","78 הגליל","גני-תקוה","201308",NA,"10141",32.0568818,34.8692276,"78 הגליל,גני-תקוה","mega","private"
7290055700007,"20150706",15,351,4,1,"רשת מגה","YOU יו","ראשל""צ YOU","39 צבי פרנק","ראשון-לציון","201405",NA,"10141",31.9701312,34.8129638,"39 צבי פרנק,ראשון-לציון","mega","private"
7290055700007,"20150706",15,352,2,1,"רשת מגה","YOU יו","רעננה          ע YOU","החרושת 14 אזור תעשיה","רעננה","201502",NA,"10141",32.184781,34.871326,"החרושת 14 אזור תעשיה,רעננה","mega","private"
7290055700007,"20150706",15,353,0,1,"רשת מגה","YOU יו","אופקים YOU","א.תעשיה אפקים בנגב","אופקים","201407",NA,"10141",31.311337,34.622824,"א.תעשיה אפקים בנגב,אופקים","mega","private"
7290055700007,"20150706",5,356,0,1,"רשת מגה","מגה בעיר","מב. זכרון מזרח","האנפה פינת החוחית","זכרון יעקב","201106",NA,"10141",32.5668498,34.9634563,"האנפה פינת החוחית,זכרון יעקב","mega","private"
7290055700007,"20150706",5,357,0,1,"רשת מגה","מגה בעיר","מב. קניון חדרה","65 הגיבורים","חדרה","201308",NA,"10141",32.4377009,34.9231583,"65 הגיבורים,חדרה","mega","private"
7290055700007,"20150706",5,358,0,1,"רשת מגה","מגה בעיר","מב. רמת אילון חיפה","29 יגאל אלון","חיפה","200901",NA,"10141",32.7733969,35.0129457,"29 יגאל אלון,חיפה","mega","private"
7290055700007,"20150706",7,360,0,1,"רשת מגה","מגה בול","בול שטמפפר פ""ת","73 שטמפר","פתח-תקוה","201106",NA,"10141",32.0934781,34.8900502,"73 שטמפר,פתח-תקוה","mega","private"
7290055700007,"20150706",18,361,0,1,"רשת מגה","זול בשפע","ש. הרצל חיפה","97 רח' הרצל","חיפה","201112",NA,"10141",32.8048458,35.0033174,"97 רח' הרצל,חיפה","mega","private"
7290055700007,"20150706",5,363,0,1,"רשת מגה","מגה בעיר","מב. קניון אור-יהודה","1 אור נר","אור-יהודה","201308",NA,"10141",32.029748,34.856173,"1 אור נר,אור-יהודה","mega","private"
7290055700007,"20150706",5,365,0,1,"רשת מגה","מגה בעיר","מב. קרית שמונה","קניון שמונה באמצע","קרית-שמונה","201106",NA,"10141",33.207933,35.570246,"קניון שמונה באמצע,קרית-שמונה","mega","private"
7290055700007,"20150706",15,366,0,1,"רשת מגה","YOU יו","בית שאן YOU","1 הגלבוע","בית-שאן","201407",NA,"10141",32.4970838,35.4942302,"1 הגלבוע,בית-שאן","mega","private"
7290055700007,"20150706",9,367,0,1,"רשת מגה","מגה","מגה קניון ירושלים  ע","קניון מלחה","ירושלים","201311",NA,"10141",31.752201,35.18606,"קניון מלחה,ירושלים","mega","private"
7290055700007,"20150706",18,368,0,1,"רשת מגה","זול בשפע","ש. בית שמש","נחל סורק פינת הקישון","בית-שמש","201106",NA,"10141",31.747041,34.988099,"נחל סורק פינת הקישון,בית-שמש","mega","private"
7290055700007,"20150706",5,369,0,1,"רשת מגה","מגה בעיר","מב. מרום נווה","7 לנדאו","רמת-גן","200805",NA,"10141",32.0719015,34.8287104,"7 לנדאו,רמת-גן","mega","private"
7290055700007,"20150706",5,370,0,1,"רשת מגה","מגה בעיר","מב. נווה זאב","64 יוהנה זבוטינסקי","באר-שבע","200901",NA,"10141",31.2364747,34.7708658,"64 יוהנה זבוטינסקי,באר-שבע","mega","private"
7290055700007,"20150706",18,371,0,1,"רשת מגה","זול בשפע","ש. בני-ברק","השלשה 35 פינת השומר","בני-ברק","201106",NA,"10141",32.084932,34.835226,"השלשה 35 פינת השומר,בני-ברק","mega","private"
7290055700007,"20150706",15,372,0,1,"רשת מגה","YOU יו","דימונה YOU","הסדנה א.תעשיה","דימונה","201405",NA,"10141",31.062123,35.024309,"הסדנה א.תעשיה,דימונה","mega","private"
7290055700007,"20150706",15,373,0,1,"רשת מגה","YOU יו","עכו YOU","1 שלום הגליל","עכו","201405",NA,"10141",32.9016029,35.2756942,"1 שלום הגליל,עכו","mega","private"
7290055700007,"20150706",5,374,0,1,"רשת מגה","מגה בעיר","מב. אפרידר אשקלון","5 שדרות ירושלים","אשקלון","201308",NA,"10141",31.6820266,34.5731081,"5 שדרות ירושלים,אשקלון","mega","private"
7290055700007,"20150706",21,375,0,2,"רשת מגה","מגה באינטרנט","מגה באינטרנט","WWW.MEGA.CO.IL","","0",NA,"10141",NA,NA,"WWW.MEGA.CO.IL,","mega","private"
7290055700007,"20150706",5,377,0,1,"רשת מגה","מגה בעיר","מב. פסגות ים","שדרות ירושלים","קרית-ים","200901",NA,"10141",32.8485854,35.0756384,"שדרות ירושלים,קרית-ים","mega","private"
7290055700007,"20150706",5,384,0,1,"רשת מגה","מגה בעיר","מב. פארק רעננה","אחוזה פינת ירושלים","רעננה","201409",NA,"10141",32.185126,34.854023,"אחוזה פינת ירושלים,רעננה","mega","private"
7290055700007,"20150706",5,385,0,1,"רשת מגה","מגה בעיר","מב. בית הכרם","אבי זהר","ירושלים","201106",NA,"10141",31.768319,35.21371,"אבי זהר,ירושלים","mega","private"
7290055700007,"20150706",15,388,0,1,"רשת מגה","YOU יו","מערב ראשלצ YOU","משה דיין,פ.אברהם בר","ראשון-לציון","201412",NA,"10141",31.986453,34.774326,"משה דיין,פ.אברהם בר,ראשון-לציון","mega","private"
7290055700007,"20150706",15,397,0,1,"רשת מגה","YOU יו","עתידים ת""א     ע YOU","126 דבורה הנביאה","תל-אביב","201408",NA,"10141",32.1134535,34.8423485,"126 דבורה הנביאה,תל-אביב","mega","private"
7290055700007,"20150706",5,399,0,1,"רשת מגה","מגה בעיר","מב. תל-ברוך","8 בקר","תל-אביב","201106",NA,"10141",32.1231516,34.8164043,"8 בקר,תל-אביב","mega","private"
7290055700007,"20150706",15,402,0,1,"רשת מגה","YOU יו","כפר-סבא YOU","40 ויצמן פינת כביש","כפר-סבא","201405",NA,"10141",32.1704143,34.9286963,"40 ויצמן פינת כביש,כפר-סבא","mega","private"
7290055700007,"20150706",18,411,0,1,"רשת מגה","זול בשפע","ש. לב הרצליה","2 בן גוריון","הרצליה","201108",NA,"10141",32.1663556,34.8425943,"2 בן גוריון,הרצליה","mega","private"
7290055700007,"20150706",5,412,0,1,"רשת מגה","מגה בעיר","מב. הדר הרצליה","2 הדר","הרצליה","200411",NA,"10141",32.1675871,34.8486459,"2 הדר,הרצליה","mega","private"
7290055700007,"20150706",5,413,0,1,"רשת מגה","מגה בעיר","מב. נווה אמירים    ע","82 בן גוריון","הרצליה","200411",NA,"10141",32.1545315,34.8422469,"82 בן גוריון,הרצליה","mega","private"
7290055700007,"20150706",5,415,0,1,"רשת מגה","מגה בעיר","מב. הרצליה פיתוח","34 זהר טל","הרצליה","200411",NA,"10141",32.1704475,34.8028623,"34 זהר טל,הרצליה","mega","private"
7290055700007,"20150706",5,416,0,1,"רשת מגה","מגה בעיר","מב. נוף ים","10 שער הים","הרצליה","200411",NA,"10141",32.1878511,34.8129112,"10 שער הים,הרצליה","mega","private"
7290055700007,"20150706",5,417,0,1,"רשת מגה","מגה בעיר","מב. נוה עמל","19 כצנלסון","הרצליה","200411",NA,"10141",32.1511827,34.8394723,"19 כצנלסון,הרצליה","mega","private"
7290055700007,"20150706",5,420,0,1,"רשת מגה","מגה בעיר","מב. זרובבל רמה""ש","33 סוקולוב","רמת-השרון","200411",NA,"10141",32.1416236,34.8366561,"33 סוקולוב,רמת-השרון","mega","private"
7290055700007,"20150706",5,422,0,1,"רשת מגה","מגה בעיר","מב. נצר סירני","1 אבנר בן נר","נס ציונה","201305",NA,"10141",31.9229108,34.8107521,"1 אבנר בן נר,נס ציונה","mega","private"
7290055700007,"20150706",18,427,0,1,"רשת מגה","זול בשפע","ש. אלעד","32 בן זכאי","אלעד","201106",NA,"10141",32.0480064,34.9546471,"32 בן זכאי,אלעד","mega","private"
7290055700007,"20150706",5,428,0,1,"רשת מגה","מגה בעיר","מב. אודיטוריום חיפה","134 שדרות הנשיא","חיפה","200212",NA,"10141",32.8031519,34.9862851,"134 שדרות הנשיא,חיפה","mega","private"
7290055700007,"20150706",5,429,0,1,"רשת מגה","מגה בעיר","מב. נווה שקמה ראשל""צ","פינת תור הזהב רובע ה","ראשון-לציון","200411",NA,"10141",31.9730015,34.7925013,"פינת תור הזהב רובע ה,ראשון-לציון","mega","private"
7290055700007,"20150706",15,431,0,1,"רשת מגה","YOU יו","ספיר י-ם YOU","2 אלוף יקותיאל אדם","ירושלים","201502",NA,"10141",31.8190612,35.2344106,"2 אלוף יקותיאל אדם,ירושלים","mega","private"
7290055700007,"20150706",5,433,0,1,"רשת מגה","מגה בעיר","מב. נווה סביון","חיים בר לב מרכז מסחר","אור-יהודה","201106",NA,"10141",32.029748,34.856173,"חיים בר לב מרכז מסחר,אור-יהודה","mega","private"
7290055700007,"20150706",15,436,0,1,"רשת מגה","YOU יו","ביג באר שבע YOU","דרך בית לחם","באר-שבע","201405",NA,"10141",31.2447037,34.7792459,"דרך בית לחם,באר-שבע","mega","private"
7290055700007,"20150706",5,442,0,1,"רשת מגה","מגה בעיר","מב. אואזיס ר""ג","87 הרצל","רמת-גן","201308",NA,"10141",32.0879136,34.8147871,"87 הרצל,רמת-גן","mega","private"
7290055700007,"20150706",9,448,0,1,"רשת מגה","מגה","מגה מבשרת","קניון הראל מבשרת","ירושלים","201311",NA,"10141",31.799265,35.149419,"קניון הראל מבשרת,ירושלים","mega","private"
7290055700007,"20150706",9,449,0,1,"רשת מגה","מגה","מגה קניון איילון","מבצע קדש","בני-ברק","201311",NA,"10141",32.100171,34.828516,"מבצע קדש,בני-ברק","mega","private"
7290055700007,"20150706",5,457,0,1,"רשת מגה","מגה בעיר","מב. מודיעין עזריאל ע","שדרות החשמונאים","מודיעין","201106",NA,"10141",31.887632,35.0005329,"שדרות החשמונאים,מודיעין","mega","private"
7290055700007,"20150706",5,462,0,1,"רשת מגה","מגה בעיר","מב. רמת-ישי","מרכז מסחרי קדמת ישי","רמת-ישי","201308",NA,"10141",32.704029,35.166003,"מרכז מסחרי קדמת ישי,רמת-ישי","mega","private"
7290055700007,"20150706",5,464,0,1,"רשת מגה","מגה בעיר","מב. מגדלי כרמל חיפה","20 חנה סנש","חיפה","200411",NA,"10141",32.8014247,34.9962595,"20 חנה סנש,חיפה","mega","private"
7290055700007,"20150706",5,469,0,1,"רשת מגה","מגה בעיר","מב. שער העליה חיפה","שער העליה","חיפה","201106",NA,"10141",32.816059,34.957487,"שער העליה,חיפה","mega","private"
7290055700007,"20150706",5,473,0,1,"רשת מגה","מגה בעיר","מב.הצרכניה אבן יהודה","61 המייסדים","אבן-יהודה","201106",NA,"10141",32.2696258,34.8875417,"61 המייסדים,אבן-יהודה","mega","private"
7290027600007,"06/07/2015",1,374,7,1,"שופרסל","שופרסל שלי","שלי הרצליה- הבנים","הבנים 46","הרצליה","4637948",NA,NA,32.1630262,34.8504376,"הבנים 46,הרצליה","shufersal","private"
7290027600007,"06/07/2015",7,375,7,1,"שופרסל","שופרסל אקספרס","אקספרס כ""ס- הגליל","הגליל 58","כפר סבא","",NA,NA,32.1795443,34.918792,"הגליל 58,כפר סבא","shufersal","private"
7290027600007,"06/07/2015",7,376,7,1,"שופרסל","שופרסל אקספרס","אקספרס רעננה- משה דיין","משה דיין 8","רעננה","",NA,NA,32.1814445,34.8634457,"משה דיין 8,רעננה","shufersal","private"
7290027600007,"06/07/2015",7,377,7,1,"שופרסל","שופרסל אקספרס","אקספרסירושלים- הדסה","בית חולים הדסה","ירושלים","",NA,NA,31.768319,35.21371,"בית חולים הדסה,ירושלים","shufersal","private"
7290027600007,"06/07/2015",7,379,7,1,"שופרסל","שופרסל אקספרס","אקספרס גבעתיים- כצנלסון","כצנלסון 19","גבעתיים","",NA,NA,32.0752987,34.803761,"כצנלסון 19,גבעתיים","shufersal","private"
7290027600007,"06/07/2015",7,362,7,1,"שופרסל","שופרסל אקספרס","אקספרס קרן היסוד ירושלים","קרן היסוד 27","ירושלים","",NA,NA,31.7732379,35.2201933,"קרן היסוד 27,ירושלים","shufersal","private"
7290027600007,"06/07/2015",2,364,7,1,"שופרסל","שופרסל דיל","דיל ק דימה- בן צבי","בן צבי71","קדימה","",NA,NA,32.2731416,34.9110202,"בן צבי71,קדימה","shufersal","private"
7290027600007,"06/07/2015",1,365,7,1,"שופרסל","שופרסל שלי","שלי פרדס חנה כרכור- קדמה","דרך הקידמה צמרת","כרכור","3707307",NA,NA,32.4650543,34.9730631,"דרך הקידמה צמרת,כרכור","shufersal","private"
7290027600007,"06/07/2015",7,380,7,1,"שופרסל","שופרסל אקספרס","אקספרס ת""א- מרמורק","מרמורק 10","תל אביב-יפו","",NA,NA,32.0716348,34.7798519,"מרמורק 10,תל אביב-יפו","shufersal","private"
7290027600007,"06/07/2015",1,366,7,1,"שופרסל","שופרסל שלי","שלי כפר ורדים- מרכז מסחר","מרכז מסחרי כפר ו","כפרורדים","2451700",NA,NA,32.996927,35.274683,"מרכז מסחרי כפר ו,כפרורדים","shufersal","private"
7290027600007,"06/07/2015",7,368,7,1,"שופרסל","שופרסל אקספרס","אקספרס-נשר מרגנית","נשר המרגנית 1","חיפה","",NA,NA,32.7739259,35.0297263,"נשר המרגנית 1,חיפה","shufersal","private"
7290027600007,"06/07/2015",1,369,7,1,"שופרסל","שופרסל שלי","שלי שוהם- תרשיש","עמק איילון פינת","שוהם","6080001",NA,NA,31.9957581,34.9488403,"עמק איילון פינת,שוהם","shufersal","private"
7290027600007,"06/07/2015",7,372,7,1,"שופרסל","שופרסל אקספרס","אקספרס בת ים- חשמונאים","החשמונאים 41","בת ים","",NA,NA,32.018583,34.751075,"החשמונאים 41,בת ים","shufersal","private"
7290027600007,"06/07/2015",7,373,7,1,"שופרסל","שופרסל אקספרס","אקספרס חיפה- אנטוורפן","אנטוורפן 56 דניה","חיפה","",NA,NA,32.7667684,34.9930359,"אנטוורפן 56 דניה,חיפה","shufersal","private"
7290027600007,"06/07/2015",6,608,7,1,"שופרסל","יש חסד","יש חסד ירושלים-קרית שאול","נאג'רה 2","גבעת שאול ים","",NA,NA,31.7921005,35.1919994,"נאג'רה 2,גבעת שאול ים","shufersal","private"
7290027600007,"06/07/2015",6,609,7,1,"שופרסל","יש חסד","יש חסד אלעד-ניסים גאון","ניסים גאון 79","אלעד","",NA,NA,32.0528383,34.9509909,"ניסים גאון 79,אלעד","shufersal","private"
7290027600007,"06/07/2015",6,610,7,1,"שופרסל","יש חסד","יש חסד ירושלים- רמת שלמה","ברכת אברהם 22","ירושלים","",NA,NA,31.811742,35.2173778,"ברכת אברהם 22,ירושלים","shufersal","private"
7290027600007,"06/07/2015",6,611,7,1,"שופרסל","יש חסד","יש חסד בני ברק- השומר","השומר 10","בני ברק","5137705",NA,NA,32.0813691,34.8220284,"השומר 10,בני ברק","shufersal","private"
7290027600007,"06/07/2015",2,215,7,1,"שופרסל","שופרסל דיל","דיל בית שאן-ירושלים הביר","ירושלים הבירה","בית שאן","10900",NA,NA,32.4943637,35.4960482,"ירושלים הבירה,בית שאן","shufersal","private"
7290027600007,"06/07/2015",2,261,7,1,"שופרסל","שופרסל דיל","דיל באר טוביה","אזור התעשיה","באר טוביה","8381500",NA,NA,31.727759,34.750051,"אזור התעשיה,באר טוביה","shufersal","private"
7290027600007,"06/07/2015",1,262,7,1,"שופרסל","שופרסל שלי","שלי מזכרת בתיה- בגין","שד' מנחם בגין 2","מזכרת בתיה","7680400",NA,NA,31.8501796,34.8414467,"שד' מנחם בגין 2,מזכרת בתיה","shufersal","private"
7290027600007,"06/07/2015",7,265,7,1,"שופרסל","שופרסל אקספרס","אקספרס חולון - זלמן ארן","זלמן ארן 1","חולון","",NA,NA,32.0202794,34.7679239,"זלמן ארן 1,חולון","shufersal","private"
7290027600007,"06/07/2015",1,272,7,1,"שופרסל","שופרסל שלי","שלי גבעתיים- ויצמן","ויצמן 20","גבעתיים","5339005",NA,NA,32.0738504,34.8085716,"ויצמן 20,גבעתיים","shufersal","private"
7290027600007,"06/07/2015",7,274,7,1,"שופרסל","שופרסל אקספרס","אקספרס ת""א- פלורנטין","פלורנטין 27","תל אביב","",NA,NA,32.0562623,34.7697224,"פלורנטין 27,תל אביב","shufersal","private"
7290027600007,"06/07/2015",7,277,7,1,"שופרסל","שופרסל אקספרס","אקספרס.בני בנימיןהרצליה","בני בנימין 23","הרצליה","",NA,NA,32.1722964,34.8408206,"בני בנימין 23,הרצליה","shufersal","private"
7290027600007,"06/07/2015",1,278,7,1,"שופרסל","שופרסל שלי","שלי פ""ת -העצמאות","העצמאות 65","פתח תקוה","4937999",NA,NA,32.0747459,34.8694269,"העצמאות 65,פתח תקוה","shufersal","private"
7290027600007,"06/07/2015",7,279,7,1,"שופרסל","שופרסל אקספרס","אקספרס-ת""א דרויאנוב","רח' דרויאנוב 5","תל אביב","",NA,NA,32.0768836,34.771625,"רח' דרויאנוב 5,תל אביב","shufersal","private"
7290027600007,"06/07/2015",2,280,7,1,"שופרסל","שופרסל דיל","דיל חדרה- צה""ל","צהייל 32","חדרה","3822041",NA,NA,32.4391826,34.9299588,"צהייל 32,חדרה","shufersal","private"
7290027600007,"06/07/2015",1,284,7,1,"שופרסל","שופרסל שלי","שלי תל מונד- הדקל","הדקל 49","תלמונד","4060049",NA,NA,32.2535945,34.9181908,"הדקל 49,תלמונד","shufersal","private"
7290027600007,"06/07/2015",1,287,7,1,"שופרסל","שופרסל שלי","שלי גבעתיים-שביט","עמישב 45","גבעתיים","5348832",NA,NA,32.0610717,34.8069621,"עמישב 45,גבעתיים","shufersal","private"
7290027600007,"06/07/2015",5,288,7,1,"שופרסל","יש בשכונה","יש רחובות- סירני","חיים סרני 1","רחובות","7626902",NA,NA,31.8932708,34.8217972,"חיים סרני 1,רחובות","shufersal","private"
7290027600007,"06/07/2015",5,108,7,1,"שופרסל","יש בשכונה","יש קרית עקרון- המלך חסן","המלך חסן השני 11","קרית עקרון","7692000",NA,NA,31.8599028,34.8120659,"המלך חסן השני 11,קרית עקרון","shufersal","private"
7290027600007,"06/07/2015",7,382,7,1,"שופרסל","שופרסל אקספרס","אקספרס פ""ת- היבנר","היבנר 29","פתח תקוה","",NA,NA,32.0803407,34.8755023,"היבנר 29,פתח תקוה","shufersal","private"
7290027600007,"06/07/2015",7,384,7,1,"שופרסל","שופרסל אקספרס","אקספרס קרית ביאליק","שדרות ירושלים 15","קרית ביאליק","",NA,NA,32.8239546,35.0814472,"שדרות ירושלים 15,קרית ביאליק","shufersal","private"
7290027600007,"06/07/2015",8,438,7,1,"שופרסל","אורגניק מרקט","אורגניקהרצליה- הנגב","הנגב 1 צמרות","הרצליה","",NA,NA,32.1507168,34.8451612,"הנגב 1 צמרות,הרצליה","shufersal","private"
7290027600007,"06/07/2015",8,440,7,1,"שופרסל","אורגניק מרקט","אורגניק רחובות- יעקב","יעקב 3","רחובות","",NA,NA,31.8959577,34.8117182,"יעקב 3,רחובות","shufersal","private"
7290027600007,"06/07/2015",8,441,7,1,"שופרסל","אורגניק מרקט","אורגניק ת""א- שינקין","שינקין 59","תל אביב","",NA,NA,32.0683436,34.7774177,"שינקין 59,תל אביב","shufersal","private"
7290027600007,"06/07/2015",7,444,7,1,"שופרסל","שופרסל אקספרס","אקספרס.ב""ש אביסרור","רח' יעקב כהן 8","באר שבע","",NA,NA,31.3004356,34.6220208,"רח' יעקב כהן 8,באר שבע","shufersal","private"
7290027600007,"06/07/2015",2,446,7,1,"שופרסל","שופרסל דיל","חנות גדרון-חולון","","","",NA,NA,NA,NA,",","shufersal","private"
7290027600007,"06/07/2015",2,447,7,1,"שופרסל","שופרסל דיל","חנות גדרון פתח תקוה","הסיבים 39","פתח תקווה","",NA,NA,32.0840059,34.8560232,"הסיבים 39,פתח תקווה","shufersal","private"
7290027600007,"06/07/2015",6,606,7,1,"שופרסל","יש חסד","יש חסד בית שמש- מ. מסחרי","מרכז מסחרי רמה א","בית שמש","99090",NA,NA,31.747041,34.988099,"מרכז מסחרי רמה א,בית שמש","shufersal","private"
7290027600007,"06/07/2015",6,607,7,1,"שופרסל","יש חסד","יש חסד מודיעין עלי-ק.ספר","אבני נזר 46","קרית ספר","",NA,NA,31.9310145,35.0395334,"אבני נזר 46,קרית ספר","shufersal","private"
7290027600007,"06/07/2015",5,178,7,1,"שופרסל","יש בשכונה","יש נצרת עילית-דרך חטיבות","דרך החטיבות 30","נצרת עילית","171000",NA,NA,32.6980969,35.3108772,"דרך החטיבות 30,נצרת עילית","shufersal","private"
7290027600007,"06/07/2015",5,320,7,1,"שופרסל","יש בשכונה","יש עכו- הרצל","הרצל 20 מ.רסקו","עכו","2420531",NA,NA,32.9290262,35.0771632,"הרצל 20 מ.רסקו,עכו","shufersal","private"
7290027600007,"06/07/2015",5,337,7,1,"שופרסל","יש בשכונה","יש אשקלון- התחיה","רח' התחיה 1","אשקלון","7858201",NA,NA,31.6600911,34.588856,"רח' התחיה 1,אשקלון","shufersal","private"
7290027600007,"06/07/2015",2,110,7,1,"שופרסל","שופרסל דיל","דיל בני דרור","צומת בני דרור","בני דרור","4581500",NA,NA,32.261795,34.901791,"צומת בני דרור,בני דרור","shufersal","private"
7290027600007,"06/07/2015",2,113,7,1,"שופרסל","שופרסל דיל","דיל ראשל""צ- גולדה מאיר","גולדה מאיר 1","ראשל""צ","7549050",NA,NA,31.967552,34.7852707,"גולדה מאיר 1,ראשל""צ","shufersal","private"
7290027600007,"06/07/2015",1,117,7,1,"שופרסל","שופרסל שלי","שלי תל אביב-איכילוב","ויצמן 6","ת""א","6423914",NA,NA,32.0801258,34.7898816,"ויצמן 6,ת""א","shufersal","private"
7290027600007,"06/07/2015",2,121,7,1,"שופרסל","שופרסל דיל","דיל נהריה- לוחמי הגטאות","לוחמי הגטאות 36","נהריה","2244744",NA,NA,33.0000551,35.0969422,"לוחמי הגטאות 36,נהריה","shufersal","private"
7290027600007,"06/07/2015",2,413,7,2,"שופרסל","שופרסל דיל","שופרסל ONLINE","","","",NA,NA,NA,NA,",","shufersal","private"
7290027600007,"06/07/2015",2,124,7,1,"שופרסל","שופרסל דיל","דיל בת ים- אורט ישראל","אורט ישראל 25","בת-ים","5959036",NA,NA,32.0092081,34.7462524,"אורט ישראל 25,בת-ים","shufersal","private"
7290027600007,"06/07/2015",1,80,7,1,"שופרסל","שופרסל שלי","שלי ראשל""צ- נווה הדרים","ברנשטיין 2","ראשון לציון","7550302",NA,NA,31.9621297,34.8180353,"ברנשטיין 2,ראשון לציון","shufersal","private"
7290027600007,"06/07/2015",2,83,7,1,"שופרסל","שופרסל דיל","דיל ב""ש- שאול המלך","קניון שאול המלך","באר-שבע","8446811",NA,NA,31.257415,34.768111,"קניון שאול המלך,באר-שבע","shufersal","private"
7290027600007,"06/07/2015",2,92,7,1,"שופרסל","שופרסל דיל","דיל אשדוד- שבט לוי","שבט לוי 12","אשדוד","",NA,NA,31.7773668,34.6370729,"שבט לוי 12,אשדוד","shufersal","private"
7290027600007,"06/07/2015",2,96,7,1,"שופרסל","שופרסל דיל","דיל חדרה- הפרדס","קניון גני הדרים","חדרה","3849207",NA,NA,32.4157283,34.9519493,"קניון גני הדרים,חדרה","shufersal","private"
7290027600007,"06/07/2015",2,107,7,1,"שופרסל","שופרסל דיל","דיל רחובות- קניון","רח' בילו 2","רחובות","7644201",NA,NA,31.8922497,34.8058596,"רח' בילו 2,רחובות","shufersal","private"
7290027600007,"06/07/2015",1,2,7,1,"שופרסל","שופרסל שלי","שלי ירושלים- אגרון","אגרון 1","ירושלים","942650",NA,NA,31.775676,35.218242,"אגרון 1,ירושלים","shufersal","private"
7290027600007,"06/07/2015",1,4,7,1,"שופרסל","שופרסל שלי","שלי חיפה- כרמל","שד' הנשיא 124 מר","חיפה","3463305",NA,NA,32.7940463,34.989571,"שד' הנשיא 124 מר,חיפה","shufersal","private"
7290027600007,"06/07/2015",1,5,7,1,"שופרסל","שופרסל שלי","שלי ירושלים- יובל","אורוגאי 3","ירושלים","9670102",NA,NA,31.7605551,35.1761167,"אורוגאי 3,ירושלים","shufersal","private"
7290027600007,"06/07/2015",6,81,7,1,"שופרסל","יש חסד","יש חסד מודיעין עלית דרום","","יבנה","",NA,NA,31.877958,34.739449,",יבנה","shufersal","private"
7290027600007,"06/07/2015",2,82,7,1,"שופרסל","שופרסל דיל","דיל כ""ס- סביר","התעש 14","כפר סבא","4442514",NA,NA,32.1746164,34.9264465,"התעש 14,כפר סבא","shufersal","private"
7290027600007,"06/07/2015",2,87,7,1,"שופרסל","שופרסל דיל","דיל רעננה- החרושת","החרושת 8","רעננה","4365704",NA,NA,32.1936815,34.8808327,"החרושת 8,רעננה","shufersal","private"
7290027600007,"06/07/2015",2,89,7,1,"שופרסל","שופרסל דיל","דיל עזריאלי - רמלה","שמשון הגיבור 32","רמלה","72500",NA,NA,31.9262681,34.8641581,"שמשון הגיבור 32,רמלה","shufersal","private"
7290027600007,"06/07/2015",2,91,7,1,"שופרסל","שופרסל דיל","דיל עמק חפר- אזור תעשיה","א.ת. עמק חפר","חדרה","3877701",NA,NA,32.396925,35.031799,"א.ת. עמק חפר,חדרה","shufersal","private"
7290027600007,"06/07/2015",1,93,7,1,"שופרסל","שופרסל שלי","שלי יהוד- סביונים","דרך משה דיין 7","יהוד","5645001",NA,NA,32.0322,34.8775926,"דרך משה דיין 7,יהוד","shufersal","private"
7290027600007,"06/07/2015",2,95,7,1,"שופרסל","שופרסל דיל","דיל חדרה- קניון אורות","1ניון אורות","אור עקיבא","3060000",NA,NA,32.501155,34.92663,"1ניון אורות,אור עקיבא","shufersal","private"
7290027600007,"06/07/2015",4,129,7,1,"שופרסל","שופרסל דיל אקסטרא","דיל אקסטרה נתניה- המלאכה","רח' המלאכה 32","נתניה","4250567",NA,NA,32.2843959,34.8605071,"רח' המלאכה 32,נתניה","shufersal","private"
7290027600007,"06/07/2015",7,231,7,1,"שופרסל","שופרסל אקספרס","אקספרס רעננה- רבקה גרובר","רבקה גובר  7","רעננה","",NA,NA,32.1945132,34.8504222,"רבקה גובר  7,רעננה","shufersal","private"
7290027600007,"06/07/2015",1,232,7,1,"שופרסל","שופרסל שלי","שלי צפת- מ.מסחר רמת רזים","מרכז מסחרי רמת","צפת","1341219",NA,NA,32.964648,35.495997,"מרכז מסחרי רמת,צפת","shufersal","private"
7290027600007,"06/07/2015",1,233,7,1,"שופרסל","שופרסל שלי","שלי עשרת- מרכז","מרכז מסחרי עשרת","עשרת","7685800",NA,NA,3.1387329,101.6093535,"מרכז מסחרי עשרת,עשרת","shufersal","private"
7290027600007,"06/07/2015",8,235,7,1,"שופרסל","אורגניק מרקט","אורגניק ת""א- רמת אביב ג","אבא אחימאיר 28","תל אביב","",NA,NA,32.124437,34.80405,"אבא אחימאיר 28,תל אביב","shufersal","private"
7290027600007,"06/07/2015",7,236,7,1,"שופרסל","שופרסל אקספרס","אקספרס אילת שחמון","ששת הימים 310","אילת","",NA,NA,29.5447553,34.9319841,"ששת הימים 310,אילת","shufersal","private"
7290027600007,"06/07/2015",7,239,7,1,"שופרסל","שופרסל אקספרס","אקספרס יפו- הדרור","הדרור 2","תל אביב","",NA,NA,32.0243314,34.791359,"הדרור 2,תל אביב","shufersal","private"
7290027600007,"06/07/2015",2,240,7,1,"שופרסל","שופרסל דיל","דיל רהט","מרכז מסחרי רהט","רהט","8535700",NA,NA,31.394548,34.753934,"מרכז מסחרי רהט,רהט","shufersal","private"
7290027600007,"06/07/2015",2,241,7,1,"שופרסל","שופרסל דיל","דיל בני ברק איילון","הלח""י 28","בני ברק","5120045",NA,NA,32.084932,34.835226,"הלח""י 28,בני ברק","shufersal","private"
7290027600007,"06/07/2015",2,243,7,1,"שופרסל","שופרסל דיל","דיל חדרה- היוצרים","קומבה 40","חדרה","38500",NA,NA,32.4485051,34.91022,"קומבה 40,חדרה","shufersal","private"
7290027600007,"06/07/2015",2,245,7,1,"שופרסל","שופרסל דיל","דיל ירושלים- פסגת זאב","שד' משה דין 106","ירושלים","9783701",NA,NA,31.8280038,35.2401992,"שד' משה דין 106,ירושלים","shufersal","private"
7290027600007,"06/07/2015",2,246,7,1,"שופרסל","שופרסל דיל","דיל טירת הכרמל- המלאכה","המלכה 2","טירת הכרמל","3902621",NA,NA,32.7686053,34.9670196,"המלכה 2,טירת הכרמל","shufersal","private"
7290027600007,"06/07/2015",2,248,7,1,"שופרסל","שופרסל דיל","דיל ב""ש- נווה מנחם","החשמונאים 15","באר שבע","8452015",NA,NA,31.2657792,34.7638802,"החשמונאים 15,באר שבע","shufersal","private"
7290027600007,"06/07/2015",2,251,7,1,"שופרסל","שופרסל דיל","דיל עפולה- כורש","כורש 5","עפולה","1831007",NA,NA,32.610219,35.2939329,"כורש 5,עפולה","shufersal","private"
7290027600007,"06/07/2015",5,254,7,1,"שופרסל","יש בשכונה","יש ב""ש- הרכבת","בן צבי 10","באר שבע","8489328",NA,NA,31.2440416,34.7991582,"בן צבי 10,באר שבע","shufersal","private"
7290027600007,"06/07/2015",2,256,7,1,"שופרסל","שופרסל דיל","דיל ראשל""צ- משורר השואה","משורר השואה 13","ראשון לציון","",NA,NA,31.9826045,34.7916453,"משורר השואה 13,ראשון לציון","shufersal","private"
7290027600007,"06/07/2015",5,257,7,1,"שופרסל","יש בשכונה","יש כ""ס- השקמה","השקמה 75"," כפר סבא","",NA,NA,32.1748729,34.9331661,"השקמה 75, כפר סבא","shufersal","private"
7290027600007,"06/07/2015",2,258,7,1,"שופרסל","שופרסל דיל","דיל אדמירליטי חיפה- איטי","יהודה איטין 4","מפרץ חיפה","",NA,NA,32.7940463,34.989571,"יהודה איטין 4,מפרץ חיפה","shufersal","private"
7290027600007,"06/07/2015",2,259,7,1,"שופרסל","שופרסל דיל","דיל גזית כ""ס- ויצמן","ויצמן 300 מתחם G","כפר סבא","4439656",NA,NA,32.178195,34.90761,"ויצמן 300 מתחם G,כפר סבא","shufersal","private"
7290027600007,"06/07/2015",2,267,7,1,"שופרסל","שופרסל דיל","דיל קצרין- חרמון","חרמון 7 א ת.","קצרין","1290000",NA,NA,32.990998,35.689865,"חרמון 7 א ת.,קצרין","shufersal","private"
7290027600007,"06/07/2015",4,269,7,1,"שופרסל","שופרסל דיל אקסטרא","דיל אקסטרה פ""ת- סגולה","הרב מסעוד אשר20א","פתח תקווה","4900519",NA,NA,32.084041,34.887762,"הרב מסעוד אשר20א,פתח תקווה","shufersal","private"
7290027600007,"06/07/2015",1,271,7,1,"שופרסל","שופרסל שלי","שלי רחובות- יעקובי","פנחס יעקובי 1","רחובות","",NA,NA,31.9699052,34.7975851,"פנחס יעקובי 1,רחובות","shufersal","private"
7290027600007,"06/07/2015",2,281,7,1,"שופרסל","שופרסל דיל","דיל מגדל העמק- המדע","שד' מדע 77","מגדל העמק","",NA,NA,32.6885169,35.2474978,"שד' מדע 77,מגדל העמק","shufersal","private"
7290027600007,"06/07/2015",2,290,7,1,"שופרסל","שופרסל דיל","דיל  פ""ת- יכין סנטר","יצחק רבין 17","פתח-תקווה","4951711",NA,NA,32.0879986,34.8611657,"יצחק רבין 17,פתח-תקווה","shufersal","private"
7290027600007,"06/07/2015",5,293,7,1,"שופרסל","יש בשכונה","יש קרית שמונה-תעשיה דרום","א.תעשיה דרומי","קרית שמונה","11021",NA,NA,33.207933,35.570246,"א.תעשיה דרומי,קרית שמונה","shufersal","private"
7290027600007,"06/07/2015",2,297,7,1,"שופרסל","שופרסל דיל","דיל חדרה- ארבע האגודות","ארבע אגודות 1","חדרה","3843101",NA,NA,32.434266,34.9092613,"ארבע אגודות 1,חדרה","shufersal","private"
7290027600007,"06/07/2015",7,299,7,1,"שופרסל","שופרסל אקספרס","אקספרס הוד השרון","","רמת גן","0",NA,NA,32.068424,34.824785,",רמת גן","shufersal","private"
7290027600007,"06/07/2015",1,302,7,1,"שופרסל","שופרסל שלי","שלי חיפה- קלר","קלר 7","חיפה","3448314",NA,NA,32.8022555,34.9829694,"קלר 7,חיפה","shufersal","private"
7290027600007,"06/07/2015",1,303,7,1,"שופרסל","שופרסל שלי","שלי טבעון- יהודה הנשיא","יהודה הנשיא","קרית טבעון","3604701",NA,NA,32.7132368,35.1275244,"יהודה הנשיא,קרית טבעון","shufersal","private"
7290027600007,"06/07/2015",7,305,7,1,"שופרסל","שופרסל אקספרס","אקספרס ת""א- יהודה המכבי","יהודה מכבי 81","תל אביב-יפו","",NA,NA,32.0941632,34.7930505,"יהודה מכבי 81,תל אביב-יפו","shufersal","private"
7290027600007,"06/07/2015",5,306,7,1,"שופרסל","יש בשכונה","יש נוה שאנן חיפה- חניתה","רח' חניתה 64","חיפה","3244411",NA,NA,32.7900282,35.0136973,"רח' חניתה 64,חיפה","shufersal","private"
7290027600007,"06/07/2015",1,310,7,1,"שופרסל","שופרסל שלי","שלי קרית חיים- דגניה","ד.דגניה 14","קרית חיים","2621019",NA,NA,32.822965,35.075443,"ד.דגניה 14,קרית חיים","shufersal","private"
7290027600007,"06/07/2015",2,312,7,1,"שופרסל","שופרסל דיל","דיל חיפה- קרית אליעזר","ככר מאירהוף","חיפה","35154",NA,NA,32.8247163,34.9828051,"ככר מאירהוף,חיפה","shufersal","private"
7290027600007,"06/07/2015",1,314,7,1,"שופרסל","שופרסל שלי","שלי חיפה- צרפת","דרך צרפת 11","חיפה","3559602",NA,NA,32.820323,34.9586101,"דרך צרפת 11,חיפה","shufersal","private"
7290027600007,"06/07/2015",1,316,7,1,"שופרסל","שופרסלשלי","שלי קרית מוצקין-שד ויצמן","ד.ויצמן 1","קרית מוצקין","2635101",NA,NA,32.838202,35.079523,"ד.ויצמן 1,קרית מוצקין","shufersal","private"
7290027600007,"06/07/2015",7,317,7,1,"שופרסל","שופרסל אקספרס","אקספרס גבעת עדה","חי 67","גבעת עדה","",NA,NA,32.4688226,34.9833654,"חי 67,גבעת עדה","shufersal","private"
7290027600007,"06/07/2015",1,319,7,1,"שופרסל","שופרסל שלי","שלי עכו- שפירא","רח.משה שפירא 28","עכו","2440929",NA,NA,32.9382011,35.0781108,"רח.משה שפירא 28,עכו","shufersal","private"
7290027600007,"06/07/2015",2,321,7,1,"שופרסל","שופרסל דיל","דיל שלומי-מרכז מסחרי","מרכז מסחרי","שלומי","2283200",NA,NA,33.072599,35.143482,"מרכז מסחרי,שלומי","shufersal","private"
7290027600007,"06/07/2015",1,323,7,1,"שופרסל","שופרסל שלי","שלי רסקו נצרת עילית-הדקל","מרכז מסחרי רסקו","נצרת עלית","1765305",NA,NA,32.72015,35.3373675,"מרכז מסחרי רסקו,נצרת עלית","shufersal","private"
7290027600007,"06/07/2015",7,324,7,1,"שופרסל","שופרסל אקספרס","אקספרס סביון- השקמה","השקמה 1","סביון","",NA,NA,32.0488467,34.8751826,"השקמה 1,סביון","shufersal","private"
7290027600007,"06/07/2015",1,326,7,1,"שופרסל","שופרסל שלי","שלי נהריה- הגעתון","רח.הרצל-שד.הגעתו","נהריה","2240029",NA,NA,33.006112,35.096424,"רח.הרצל-שד.הגעתו,נהריה","shufersal","private"
7290027600007,"06/07/2015",1,329,7,1,"שופרסל","שופרסל שלי","שלי יוקנעם עילית-היובלים","מ.מסחרי יקנעם על","יוקנעם","20692",NA,NA,9.9252007,78.1197754,"מ.מסחרי יקנעם על,יוקנעם","shufersal","private"
7290027600007,"06/07/2015",1,330,7,1,"שופרסל","שופרסל שלי","שלי חיפה- נתיב חן","נתיב חן 1,נוה שא","חיפה","3224001",NA,NA,32.7940463,34.989571,"נתיב חן 1,נוה שא,חיפה","shufersal","private"
7290027600007,"06/07/2015",1,333,7,1,"שופרסל","שופרסל שלי","שלי חיפה- אורן","רח.אורן 25 רוממה","חיפה","3473402",NA,NA,32.7847877,34.9958665,"רח.אורן 25 רוממה,חיפה","shufersal","private"
7290027600007,"06/07/2015",7,334,7,1,"שופרסל","שופרסל אקספרס","אקספרס פ""ת - שפירא","קק""ל 35","פתח תקווה","",NA,NA,32.0802251,34.8871444,"קק""ל 35,פתח תקווה","shufersal","private"
7290027600007,"06/07/2015",1,336,7,1,"שופרסל","שופרסל שלי","שלי חיפה- רמות ספיר","רח' גוט לוין 48","חיפה","3292240",NA,NA,32.7845725,35.0040314,"רח' גוט לוין 48,חיפה","shufersal","private"
7290027600007,"06/07/2015",7,338,7,1,"שופרסל","שופרסל אקספרס","אקספרס כוכב הצפון","בוני העיר 9","ת""א","",NA,NA,32.1010612,34.7834679,"בוני העיר 9,ת""א","shufersal","private"
7290027600007,"06/07/2015",7,340,7,1,"שופרסל","שופרסל אקספרס","אקספרס ת""א- זריצקי","זריצקי 4","תלאביב","",NA,NA,32.1146358,34.7910518,"זריצקי 4,תלאביב","shufersal","private"
7290027600007,"06/07/2015",7,341,7,1,"שופרסל","שופרסל אקספרס","אקספרס רמת גן- הרוא""ה","הרוא""ה 131","רמת גן","",NA,NA,32.0784385,34.8253436,"הרוא""ה 131,רמת גן","shufersal","private"
7290027600007,"06/07/2015",2,344,7,1,"שופרסל","שופרסל דיל","דיל מעלות- דרך האלוף עוז","קניון כוכב הצפון","מעלות","21020",NA,NA,33.0191729,35.2830189,"קניון כוכב הצפון,מעלות","shufersal","private"
7290027600007,"06/07/2015",7,347,7,1,"שופרסל","שופרסל אקספרס","אקספרס גדרה- דרך הפרחים","דרך הפרחים 38","גדרה","",NA,NA,31.809778,34.7846022,"דרך הפרחים 38,גדרה","shufersal","private"
7290027600007,"06/07/2015",7,348,7,1,"שופרסל","שופרסל אקספרס","אקספרס פ""ת-קק""ל","קק""ל 2","פתח תקווה","",NA,NA,32.0788817,34.8822282,"קק""ל 2,פתח תקווה","shufersal","private"
7290027600007,"06/07/2015",2,350,7,1,"שופרסל","שופרסל דיל","דיל גבעת אולגה-הרב ניסים","שד' ברוך בוארון1","גבעת אולגה","",NA,NA,32.439367,34.8834405,"שד' ברוך בוארון1,גבעת אולגה","shufersal","private"
7290027600007,"06/07/2015",2,352,7,1,"שופרסל","שופרסל דיל","דיל חיפה- קניון","כניסה דרומית לחי","חיפה","35084",NA,NA,32.7940463,34.989571,"כניסה דרומית לחי,חיפה","shufersal","private"
7290027600007,"06/07/2015",5,353,7,1,"שופרסל","יש בשכונה","יש ירושלים- מרידור","מרידור 2(פ.זאב)","ירושלים","",NA,NA,31.768319,35.21371,"מרידור 2(פ.זאב),ירושלים","shufersal","private"
7290027600007,"06/07/2015",7,354,7,1,"שופרסל","שופרסל אקספרס","'אקספרס ת""א- קינג ג'ורג","קינג ג'ורג' 58","תל אביב","",NA,NA,32.0752175,34.7761536,"קינג ג'ורג' 58,תל אביב","shufersal","private"
7290027600007,"06/07/2015",8,355,7,1,"שופרסל","אורגניק מרקט","אורגניק ת""א- אהרון בקר","אהרון בקר 8","תל אביב","",NA,NA,32.1231516,34.8164043,"אהרון בקר 8,תל אביב","shufersal","private"
7290027600007,"06/07/2015",1,357,7,1,"שופרסל","שופרסל שלי","שלי צורן קדימה- לב השרון","דרך לב השרון 422","צורן","4282300",NA,NA,32.287673,34.945224,"דרך לב השרון 422,צורן","shufersal","private"
7290027600007,"06/07/2015",2,359,7,1,"שופרסל","שופרסל דיל","דיל חיפה- גרנד קניון","שמחה גולן 54","חיפה","3299001",NA,NA,32.789711,35.0078223,"שמחה גולן 54,חיפה","shufersal","private"
7290027600007,"06/07/2015",7,360,7,1,"שופרסל","שופרסל אקספרס","אקספרס מאירוביץ ראשל""צ","מאירוביץ 17","ראשון לציון","",NA,NA,31.958613,34.808278,"מאירוביץ 17,ראשון לציון","shufersal","private"
7290027600007,"06/07/2015",2,361,7,1,"שופרסל","שופרסל דיל","דיל מגדל העמק- א ת דרומי","אזור התעשייה ב","מגדל העמק","2353021",NA,NA,32.673501,35.243444,"אזור התעשייה ב,מגדל העמק","shufersal","private"
7290027600007,"06/07/2015",1,1,7,1,"שופרסל","שופרסל שלי","שלי ת""א- בן יהודה","בן יהודה 79","תל אביב","6343504",NA,NA,32.0814564,34.7706778,"בן יהודה 79,תל אביב","shufersal","private"
7290027600007,"06/07/2015",1,3,7,1,"שופרסל","שופרסל שלי","שלי גבעתיים- סירקין","סירקין 17","גבעתיים","5325101",NA,NA,32.0782039,34.8152387,"סירקין 17,גבעתיים","shufersal","private"
7290027600007,"06/07/2015",1,7,7,1,"שופרסל","שופרסל שלי","שלי ת""א- ארלוזורוב","ארלוזרוב 53","תל אביב","6264605",NA,NA,32.0860157,34.7787874,"ארלוזרוב 53,תל אביב","shufersal","private"
7290027600007,"06/07/2015",5,12,7,1,"שופרסל","יש בשכונה","יש בני ברק- ירושלים","ירושלים  70","בני-ברק","5144404",NA,NA,32.082802,34.8263789,"ירושלים  70,בני-ברק","shufersal","private"
7290027600007,"06/07/2015",2,13,7,1,"שופרסל","שופרסל דיל","דיל בית שמש- העליה","העליה 1","בית-שמש","9902101",NA,NA,31.7498039,34.9864238,"העליה 1,בית-שמש","shufersal","private"
7290027600007,"06/07/2015",5,15,7,1,"שופרסל","יש בשכונה","יש פ""ת- רוטשילד","רוטשילד 79","פתח-תקוה","4947352",NA,NA,32.0862912,34.8821753,"רוטשילד 79,פתח-תקוה","shufersal","private"
7290027600007,"06/07/2015",1,20,7,1,"שופרסל","שופרסל שלי","שלי רחובות- הרצל","הרצל 183","רחובות","7626902",NA,NA,31.8989846,34.8102107,"הרצל 183,רחובות","shufersal","private"
7290027600007,"06/07/2015",1,23,7,1,"שופרסל","שופרסל שלי","שלי מיתר","מרכז מסחרי מיתר","מיתר","8502500",NA,NA,31.327483,34.939447,"מרכז מסחרי מיתר,מיתר","shufersal","private"
7290027600007,"06/07/2015",1,24,7,1,"שופרסל","שופרסל שלי","שלי אשדוד- הנביאים","הנביאים 3 רובע י","אשדוד","7747303",NA,NA,31.7820812,34.6485716,"הנביאים 3 רובע י,אשדוד","shufersal","private"
7290027600007,"06/07/2015",1,28,7,1,"שופרסל","שופרסל שלי","שלי ת""א- צה""ל","צה""ל 71, מרכ","תל אביב","6935139",NA,NA,32.1215323,34.8347136,"צה""ל 71, מרכ,תל אביב","shufersal","private"
7290027600007,"06/07/2015",1,30,7,1,"שופרסל","שופרסל שלי","שלי רמת גן- קריניצי","יוסף ספיר 9","רמת גן","5262209",NA,NA,32.0554193,34.8493864,"יוסף ספיר 9,רמת גן","shufersal","private"
7290027600007,"06/07/2015",1,32,7,1,"שופרסל","שופרסל שלי","שלי רמת גן- קסם","הירדן 90","רמת-גן","5224701",NA,NA,32.0610908,34.8282486,"הירדן 90,רמת-גן","shufersal","private"
7290027600007,"06/07/2015",1,36,7,1,"שופרסל","שופרסל שלי","שלי כ""ס- רוטשילד","רוטשילד 65","כפר-סבא","4420131",NA,NA,32.1768081,34.9089669,"רוטשילד 65,כפר-סבא","shufersal","private"
7290027600007,"06/07/2015",1,37,7,1,"שופרסל","שופרסל שלי","שלי ב""ש- יעלים","יעלים 34","באר-שבע","8473010",NA,NA,31.2505913,34.7794719,"יעלים 34,באר-שבע","shufersal","private"
7290027600007,"06/07/2015",1,39,7,1,"שופרסל","שופרסל שלי","שלי ת""א-ברזיל","ברזיל 15","רמת אביב א","6946025",NA,NA,32.1113539,34.796384,"ברזיל 15,רמת אביב א","shufersal","private"
7290027600007,"06/07/2015",1,40,7,1,"שופרסל","שופרסל שלי","שלי ב""ש- עומר","רותם מרכ מסחרי ע","עומר","8496500",NA,NA,31.2644842,34.8463297,"רותם מרכ מסחרי ע,עומר","shufersal","private"
7290027600007,"06/07/2015",1,43,7,1,"שופרסל","שופרסל שלי","שלי הוד השרון- הבנים","הבנים 12","הוד השרון","4526814",NA,NA,32.1558108,34.8922648,"הבנים 12,הוד השרון","shufersal","private"
7290027600007,"06/07/2015",2,46,7,1,"שופרסל","שופרסל דיל","דיל רמלה- היצירה","היצירה 1","רמלה","7255621",NA,NA,31.9316255,34.8808589,"היצירה 1,רמלה","shufersal","private"
7290027600007,"06/07/2015",1,48,7,1,"שופרסל","שופרסל שלי","שלי ת""א- רמת אביב ג","אחימאיר 1 פינת ר","תל אביב","6912601",NA,NA,32.0852999,34.7817676,"אחימאיר 1 פינת ר,תל אביב","shufersal","private"
7290027600007,"06/07/2015",1,50,7,1,"שופרסל","שופרסל שלי","שלי מבשרת ציון","שלום 75 שכונה ג","מבשרת ציון","9071425",NA,NA,31.8043227,35.1552549,"שלום 75 שכונה ג,מבשרת ציון","shufersal","private"
7290027600007,"06/07/2015",1,57,7,1,"שופרסל","שופרסל שלי","שלי רמת השרון- אוסישקין","אוסישקין 5","רמת השרון","4721005",NA,NA,32.1382101,34.8414602,"אוסישקין 5,רמת השרון","shufersal","private"
7290027600007,"06/07/2015",2,63,7,1,"שופרסל","שופרסל דיל","דיל פ""ת- בזל","בזל פינת בלטימור","פתח-תקוה","4951034",NA,NA,32.0962508,34.8671058,"בזל פינת בלטימור,פתח-תקוה","shufersal","private"
7290027600007,"06/07/2015",2,65,7,1,"שופרסל","שופרסל דיל","דיל ב""ש- צ'ורלי","אורגים פינתב.ג","באר-שבע","84105",NA,NA,31.252973,34.791462,"אורגים פינתב.ג,באר-שבע","shufersal","private"
7290027600007,"06/07/2015",1,70,7,1,"שופרסל","שופרסל שלי","שלי רמת גן- מרום נווה","תרצה 19 ר""ג","רמת-גן","5236431",NA,NA,32.0725947,34.828702,"תרצה 19 ר""ג,רמת-גן","shufersal","private"
7290027600007,"06/07/2015",4,71,7,1,"שופרסל","שופרסל דיל אקסטרא","דיל אקסטרה תל חנן  נשר","בר יהודה 147","נשר","3688306",NA,NA,32.7780881,35.0388491,"בר יהודה 147,נשר","shufersal","private"
7290027600007,"06/07/2015",1,72,7,1,"שופרסל","שופרסל שלי","שלי רעות","חבל מודיעין","רעות","71908",NA,NA,31.90912,35.002462,"חבל מודיעין,רעות","shufersal","private"
7290027600007,"06/07/2015",2,97,7,1,"שופרסל","שופרסל דיל","דיל קרית שמונה- מתחם ביג","מתחם ביג","קריתשמונה","1162401",NA,NA,33.192985,35.569398,"מתחם ביג,קריתשמונה","shufersal","private"
7290027600007,"06/07/2015",2,98,7,1,"שופרסל","שופרסל דיל","דיל קרית טבעון- אלונים","חוצות אלונים","טבעון","3604701",NA,NA,32.7103706,35.1437445,"חוצות אלונים,טבעון","shufersal","private"
7290027600007,"06/07/2015",1,101,7,1,"שופרסל","שופרסל שלי","שלי הוד השרון- ק מרגלית","נחליאלי 2","הוד השרון","4535502",NA,NA,32.1431665,34.8920639,"נחליאלי 2,הוד השרון","shufersal","private"
7290027600007,"06/07/2015",1,102,7,1,"שופרסל","שופרסל שלי","שלי פרדסיה- הנשיא","הנשיא 1 צ.פרדסיה","פרדסיה","4281500",NA,NA,32.305011,34.911731,"הנשיא 1 צ.פרדסיה,פרדסיה","shufersal","private"
7290027600007,"06/07/2015",1,103,7,1,"שופרסל","שופרסל שלי","שלי שוהם- מרכז מסחרי","מרכז מסחרי","שוהם","6083530",NA,NA,31.999059,34.946308,"מרכז מסחרי,שוהם","shufersal","private"
7290027600007,"06/07/2015",1,104,7,1,"שופרסל","שופרסל שלי","שלי פ""ת- גד מכנס","רוטשילד 180","פתח תקווה","9435700",NA,NA,32.0761705,34.8854359,"רוטשילד 180,פתח תקווה","shufersal","private"
7290027600007,"06/07/2015",2,105,7,1,"שופרסל","שופרסל דיל","דיל פ""ת- אליעזר פרדימן","אליעזר פרידמן 9","פתח תקוה","4941916",NA,NA,32.0794569,34.9025971,"אליעזר פרידמן 9,פתח תקוה","shufersal","private"
7290027600007,"06/07/2015",4,106,7,1,"שופרסל","שופרסל דיל אקסטרא","דיל אקסטרה נס ציונה הפטי","הפטיש 8,א.ת.","נס ציונה","7404730",NA,NA,31.932111,34.801327,"הפטיש 8,א.ת.,נס ציונה","shufersal","private"
7290027600007,"06/07/2015",1,109,7,1,"שופרסל","שופרסל שלי","שלי ראש העין- ז'בוטינסקי","גבעת טל","ראש העין","4857301",NA,NA,32.096187,34.962435,"גבעת טל,ראש העין","shufersal","private"
7290027600007,"06/07/2015",6,111,7,1,"שופרסל","יש חסד","יש חסד טבריה עלית-לב האג","לב האגם 10","טבריה","14431",NA,NA,32.795859,35.530973,"לב האגם 10,טבריה","shufersal","private"
7290027600007,"06/07/2015",1,112,7,1,"שופרסל","שופרסל שלי","שלי.רחובות ההולנדית","הר הצופים","רחובות","",NA,NA,31.8934331,34.7814595,"הר הצופים,רחובות","shufersal","private"
7290027600007,"06/07/2015",2,114,7,1,"שופרסל","שופרסל דיל","דיל ירושלים- גילה","צביה ויצחק 17","ירושלים","9384014",NA,NA,31.7319375,35.1873596,"צביה ויצחק 17,ירושלים","shufersal","private"
7290027600007,"06/07/2015",1,116,7,1,"שופרסל","שופרסל שלי","שלי גבעתיים- מכתש","בורוכוב 54","גבעתיים","5322205",NA,NA,32.0791347,34.8100546,"בורוכוב 54,גבעתיים","shufersal","private"
7290027600007,"06/07/2015",2,119,7,1,"שופרסל","שופרסל דיל","דיל מודיעין- סנטר","צאלון   21","מודיעין","",NA,NA,31.9056967,35.0166939,"צאלון   21,מודיעין","shufersal","private"
7290027600007,"06/07/2015",4,120,7,1,"שופרסל","שופרסל דיל אקסטרא","דיל אקסטרה  חולון-המרכבה","המרכבה 9","חולון","5885107",NA,NA,32.0169349,34.8067142,"המרכבה 9,חולון","shufersal","private"
7290027600007,"06/07/2015",2,122,7,1,"שופרסל","שופרסל דיל","דיל יבנה- ברוש דרך הים","דרך הים 3","יבנה","8157014",NA,NA,31.8904146,34.7841944,"דרך הים 3,יבנה","shufersal","private"
7290027600007,"06/07/2015",2,123,7,1,"שופרסל","שופרסל דיל","דיל חולון- גולדה","גולדה מאיר  7","חולון","5839101",NA,NA,32.0124866,34.779369,"גולדה מאיר  7,חולון","shufersal","private"
7290027600007,"06/07/2015",2,125,7,1,"שופרסל","שופרסל דיל","דיל הרצליה- המנופים","המנופים 9","הרצליה","4672555",NA,NA,32.1602492,34.8081319,"המנופים 9,הרצליה","shufersal","private"
7290027600007,"06/07/2015",2,128,7,1,"שופרסל","שופרסל דיל","דיל טירת הכרמל- נחום חת","נחום חת 5","טירת הכרמל","35085",NA,NA,32.7845233,34.9574308,"נחום חת 5,טירת הכרמל","shufersal","private"
7290027600007,"06/07/2015",2,130,7,1,"שופרסל","שופרסל דיל","דיל נתניה- קלאוזנר עמליה","קלאוזנר 1","נתניה","",NA,NA,32.3065412,34.872107,"קלאוזנר 1,נתניה","shufersal","private"
7290027600007,"06/07/2015",2,132,7,1,"שופרסל","שופרסל דיל","דיל ת""א- השלום","דרך מנחם בגין132","תל אביב","6701101",NA,NA,32.074573,34.7918101,"דרך מנחם בגין132,תל אביב","shufersal","private"
7290027600007,"06/07/2015",2,134,7,1,"שופרסל","שופרסל דיל","דיל מודיעין- ישפרו סנטר","ישפרו סנטר","מודיעין","",NA,NA,31.890256,34.965475,"ישפרו סנטר,מודיעין","shufersal","private"
7290027600007,"06/07/2015",2,135,7,1,"שופרסל","שופרסל דיל","דיל אשקלון- פאור סנטר","צומת כפר סילבר","אשקלון","7929500",NA,NA,31.674518,34.608998,"צומת כפר סילבר,אשקלון","shufersal","private"
7290027600007,"06/07/2015",2,139,7,1,"שופרסל","שופרסל דיל","דיל צפת-  דובק ויצמן","ויצמן 20","צפת","1321736",NA,NA,32.9572232,35.4969772,"ויצמן 20,צפת","shufersal","private"
7290027600007,"06/07/2015",2,142,7,1,"שופרסל","שופרסל דיל","דיל זכרון- המייסדים","המייסדים","זכרון יעקב","3095067",NA,NA,32.5729544,34.9540314,"המייסדים,זכרון יעקב","shufersal","private"
7290027600007,"06/07/2015",2,144,7,1,"שופרסל","שופרסל דיל","דיל שבירו כפר סבא","רפפורט 6","כפר סבא","",NA,NA,32.1924517,34.8919023,"רפפורט 6,כפר סבא","shufersal","private"
7290027600007,"06/07/2015",4,149,7,1,"שופרסל","שופרסל דיל אקסטרא","דיל אקסטרה נצרת  הר יונה","המעין 2","נצרת עילית","1780004",NA,NA,32.7190323,35.3342878,"המעין 2,נצרת עילית","shufersal","private"
7290027600007,"06/07/2015",2,151,7,1,"שופרסל","שופרסל דיל","דיל רעננה- קניון רננים","רח.המלאכה 2","רעננה","4366101",NA,NA,32.1971757,34.8780613,"רח.המלאכה 2,רעננה","shufersal","private"
7290027600007,"06/07/2015",2,153,7,1,"שופרסל","שופרסל דיל","דיל אופקים- ז'בוטינסקי","זבוטינסקי 25","אופקים","8759908",NA,NA,31.3177262,34.6263241,"זבוטינסקי 25,אופקים","shufersal","private"
7290027600007,"06/07/2015",7,154,7,1,"שופרסל","שופרסל אקספרס","אקספרס קריית אונו","ההגנה 1","קרית אונו","",NA,NA,32.0648357,34.8477035,"ההגנה 1,קרית אונו","shufersal","private"
7290027600007,"06/07/2015",2,159,7,1,"שופרסל","שופרסל דיל","דיל רמת הנשיא חיפה","שלמה המלך 55","חיפה","",NA,NA,32.8114071,34.9602106,"שלמה המלך 55,חיפה","shufersal","private"
7290027600007,"06/07/2015",1,160,7,1,"שופרסל","שופרסל שלי","שלי רמת גן- הירדן","הירדן 29","רמת גן","5233317",NA,NA,32.0663212,34.8285072,"הירדן 29,רמת גן","shufersal","private"
7290027600007,"06/07/2015",2,163,7,1,"שופרסל","שופרסל דיל","דיל שדרות- הפלדה","הפלדה קניון אחים","שדרות","80100",NA,NA,31.5214079,34.595511,"הפלדה קניון אחים,שדרות","shufersal","private"
7290027600007,"06/07/2015",1,164,7,1,"שופרסל","שופרסל שלי","שלי רמת גן- ביאליק","רח. ביאליק 76","רמת גן","5244136",NA,NA,32.0855248,34.8112233,"רח. ביאליק 76,רמת גן","shufersal","private"
7290027600007,"06/07/2015",2,167,7,1,"שופרסל","שופרסל דיל","דיל ראשל""צ- הלח""י","הלח""י 8","ראשוןלציון","7570689",NA,NA,31.9874013,34.765597,"הלח""י 8,ראשוןלציון","shufersal","private"
7290027600007,"06/07/2015",1,168,7,1,"שופרסל","שופרסל שלי","שלי אשדוד- כינרת","שכונת י""א כנרת","אשדוד","7770071",NA,NA,31.78197,34.6330254,"שכונת י""א כנרת,אשדוד","shufersal","private"
7290027600007,"06/07/2015",2,174,7,1,"שופרסל","שופרסל דיל","דיל ערד- קניון","הקנאים 29","ערד","8902342",NA,NA,31.260045,35.2081206,"הקנאים 29,ערד","shufersal","private"
7290027600007,"06/07/2015",1,175,7,1,"שופרסל","שופרסל שלי","שלי טבריה","הבנים 6","טבריה","1420168",NA,NA,32.7877918,35.5405637,"הבנים 6,טבריה","shufersal","private"
7290027600007,"06/07/2015",2,180,7,1,"שופרסל","שופרסל דיל","דיל ק.מוצקין- בן גוריון","שד' בן גוריון 84","קרית מוצקין","2642439",NA,NA,32.8399731,35.0803289,"שד' בן גוריון 84,קרית מוצקין","shufersal","private"
7290027600007,"06/07/2015",2,183,7,1,"שופרסל","שופרסל דיל","דיל אשדוד- הרצל","רח' הרצל 1","אשדוד","7745401",NA,NA,31.7894592,34.7126269,"רח' הרצל 1,אשדוד","shufersal","private"
7290027600007,"06/07/2015",1,185,7,1,"שופרסל","שופרסל שלי","שלי אילתהקניון האדום","הקניון האדום","אילת","8801401",NA,NA,29.557669,34.951925,"הקניון האדום,אילת","shufersal","private"
7290027600007,"06/07/2015",2,187,7,1,"שופרסל","שופרסל דיל","דיל קרית שמונה- הנשיא","הנשיא 4","קרית-שמונה","1102632",NA,NA,33.221339,35.5761505,"הנשיא 4,קרית-שמונה","shufersal","private"
7290027600007,"06/07/2015",2,190,7,1,"שופרסל","שופרסל דיל","דיל חצור- הגלילית","קניון גליל עליון","חצור-הגלילית","1030000",NA,NA,32.980382,35.543548,"קניון גליל עליון,חצור-הגלילית","shufersal","private"
7290027600007,"06/07/2015",2,191,7,1,"שופרסל","שופרסל דיל","דיל אריאל- דרך עפרון","דרך עפרון 14","אריאל","4070913",NA,NA,32.1033054,35.1722255,"דרך עפרון 14,אריאל","shufersal","private"
7290027600007,"06/07/2015",1,196,7,1,"שופרסל","שופרסל שלי","שלי-אבן גבירול","אבן גבירול 124","תל-אביב","6203854",NA,NA,32.0870142,34.7821886,"אבן גבירול 124,תל-אביב","shufersal","private"
7290027600007,"06/07/2015",2,197,7,1,"שופרסל","שופרסל דיל","דיל נהריה- מבואות","מזרעה,חאמד סנטר","נהריה","2244743",NA,NA,33.0085361,35.0980514,"מזרעה,חאמד סנטר,נהריה","shufersal","private"
7290027600007,"06/07/2015",2,199,7,1,"שופרסל","שופרסל דיל","דיל בת ים- בלפור","בלפור 25","בת ים","0",NA,NA,32.0288965,34.7450832,"בלפור 25,בת ים","shufersal","private"
7290027600007,"06/07/2015",2,205,7,1,"שופרסל","שופרסל דיל","דיל יהוד- אלטלף","אלטלף 4 א.ת יהוד","יהוד","5621604",NA,NA,32.0337099,34.8927615,"אלטלף 4 א.ת יהוד,יהוד","shufersal","private"
7290027600007,"06/07/2015",1,207,7,1,"שופרסל","שופרסל שלי","שלי אור יהודה-אליהו סעדו","אליהו סעדון 128","אור יהודה","6039727",NA,NA,32.0259424,34.8592267,"אליהו סעדון 128,אור יהודה","shufersal","private"
7290027600007,"06/07/2015",2,209,7,1,"שופרסל","שופרסל דיל","דיל אשקלון- רוטשילד","אדמונד רוטשילד 8","אשקלון","7822602",NA,NA,31.6879189,34.5791804,"אדמונד רוטשילד 8,אשקלון","shufersal","private"
7290027600007,"06/07/2015",2,211,7,1,"שופרסל","שופרסל דיל","דיל כרמיאל- אזור התעשיה","א.ת חוצות כרמיאל","כרמיאל","2165006",NA,NA,32.927265,35.325481,"א.ת חוצות כרמיאל,כרמיאל","shufersal","private"
7290027600007,"06/07/2015",1,212,7,1,"שופרסל","שופרסל שלי","שלי חיפה- ורדיה","ורדיה 10","חיפה","3465710",NA,NA,32.7948448,34.995906,"ורדיה 10,חיפה","shufersal","private"
7290027600007,"06/07/2015",2,214,7,1,"שופרסל","שופרסל דיל","דיל קרית גת- מלכי ישראל","מלכי ישראל 178","קרית גת","8205002",NA,NA,31.6036056,34.7590216,"מלכי ישראל 178,קרית גת","shufersal","private"
7290027600007,"06/07/2015",2,218,7,1,"שופרסל","שופרסל דיל","דיל עפולה- יצחק רבין","שד' יצחק רבין 5","עפולה","1834171",NA,NA,32.6204398,35.3117988,"שד' יצחק רבין 5,עפולה","shufersal","private"
7290027600007,"06/07/2015",6,219,7,1,"שופרסל","יש חסד","יש חסד בני ברק- עזרא","עזרה בני ברק","בני ברק","5155103",NA,NA,32.084932,34.835226,"עזרה בני ברק,בני ברק","shufersal","private"
7290027600007,"06/07/2015",1,220,7,1,"שופרסל","שופרסל שלי","שלי אשקלון- כיכר צפניה","מרכזון מסחר רחל","אשקלון","7843110",NA,NA,31.6687885,34.5742523,"מרכזון מסחר רחל,אשקלון","shufersal","private"
7290027600007,"06/07/2015",2,222,7,1,"שופרסל","שופרסל דיל","דיל רמות ב""ש ב'","הערים התאומות 28","באר שבע","",NA,NA,31.2824239,34.7991,"הערים התאומות 28,באר שבע","shufersal","private"
7290027600007,"06/07/2015",7,223,7,1,"שופרסל","שופרסל אקספרס","אקספרס ראשל""צ- פיינשטיין","פינשטיין27","ראשון לציון","",NA,NA,31.9521174,34.8109934,"פינשטיין27,ראשון לציון","shufersal","private"
7290027600007,"06/07/2015",7,224,7,1,"שופרסל","שופרסל אקספרס","אקספרס ראשל""צ-נווה דקלים","נווה דקלים 44","ראשון לציון","",NA,NA,31.9793824,34.7607196,"נווה דקלים 44,ראשון לציון","shufersal","private"
7290027600007,"06/07/2015",2,226,7,1,"שופרסל","שופרסל דיל","דיל כרמיאל","ההגנה 2","כרמיאל","",NA,NA,32.9042235,35.2814448,"ההגנה 2,כרמיאל","shufersal","private"
7290027600007,"06/07/2015",2,227,7,1,"שופרסל","שופרסל דיל","דיל-איקאה קרית אתא","דרך חיפה 52","קרית אתא","",NA,NA,32.8086571,35.0755753,"דרך חיפה 52,קרית אתא","shufersal","private"
7290027600007,"06/07/2015",1,228,7,1,"שופרסל","שופרסל שלי","שלי בנימינה - הגביע","הגביע 1","בנימינה","3056601",NA,NA,32.5177567,34.940729,"הגביע 1,בנימינה","shufersal","private"
7290027600007,"06/07/2015",2,229,7,1,"שופרסל","שופרסל דיל","דיל ת""א- יגאל אלון","יגאל אלון 76","תל אביב","6706701",NA,NA,32.0652223,34.7925402,"יגאל אלון 76,תל אביב","shufersal","private"
7290027600007,"06/07/2015",1,230,7,1,"שופרסל","שופרסל שלי","שלי כ""ס- ויצמן","ויצמן 29","כפר סבא","4435227",NA,NA,32.1775281,34.8989951,"ויצמן 29,כפר סבא","shufersal","private"
7290027600007,"06/07/2015",1,6,7,1,"שופרסל","שופרסל שלי","שלי חולון- קוגל","שד' קוגל 40","חולון","5825816",NA,NA,32.0236437,34.7743965,"שד' קוגל 40,חולון","shufersal","private"
7290027600007,"06/07/2015",4,138,7,1,"שופרסל","שופרסל דיל אקסטרא","דיל אקסטרה ב""ש-סולל בונה","סולל בונה 2","באר שבע","",NA,NA,31.223593,34.803856,"סולל בונה 2,באר שבע","shufersal","private"
7290027600007,"06/07/2015",2,141,7,1,"שופרסל","שופרסל דיל","דיל יוקנעם- שדרות רבין","שדרות רבין 9","יקנעם","2060000",NA,NA,32.642743,35.0926372,"שדרות רבין 9,יקנעם","shufersal","private"
7290027600007,"06/07/2015",1,146,7,1,"שופרסל","שופרסל שלי","שלי גבעתיים- הסתדרות","הסתדרות 27","גבעתיים","5358503",NA,NA,32.061255,34.8116947,"הסתדרות 27,גבעתיים","shufersal","private"
7290027600007,"06/07/2015",2,152,7,1,"שופרסל","שופרסל דיל","דיל ערד- ישפרו המנוף","המנוף 7","ערד","8909460",NA,NA,31.2476545,35.1961427,"המנוף 7,ערד","shufersal","private"
7290027600007,"06/07/2015",2,155,7,1,"שופרסל","שופרסל דיל","דיל צור יגאל- מרכז מסחרי","מרכז מסחרי","צור-יגאל","4486400",NA,NA,32.2173647,34.9866625,"מרכז מסחרי,צור-יגאל","shufersal","private"
7290027600007,"06/07/2015",5,161,7,1,"שופרסל","יש בשכונה","יש יהוד- ויצמן","וייצמן 55","יהוד","5624210",NA,NA,32.0340684,34.8928431,"וייצמן 55,יהוד","shufersal","private"
7290027600007,"06/07/2015",4,166,7,1,"שופרסל","שופרסל דיל אקסטרא","דיל אקסטרה  אשדוד- הבושם","הבושם 7 א.ת. קלה","אשדוד","7761007",NA,NA,31.804381,34.655314,"הבושם 7 א.ת. קלה,אשדוד","shufersal","private"
7290027600007,"06/07/2015",2,177,7,1,"שופרסל","שופרסל דיל","דיל מצפה רמון- בן גוריון","מרכז מסחרי","מצפה-רמון","8060000",NA,NA,30.612503,34.803422,"מרכז מסחרי,מצפה-רמון","shufersal","private"
7290027600007,"06/07/2015",2,181,7,1,"שופרסל","שופרסלדיל","דיל אשקלון- רמז","דוד רמז 39","אשקלון","7853339",NA,NA,31.668531,34.5844028,"דוד רמז 39,אשקלון","shufersal","private"
7290027600007,"06/07/2015",2,182,7,1,"שופרסל","שופרסל דיל","דיל דימונה- גולדה מאיר","גולדה מאיר 1","דימונה","86000",NA,NA,31.0739807,35.0316057,"גולדה מאיר 1,דימונה","shufersal","private"
7290027600007,"06/07/2015",1,11,7,1,"שופרסל","שופרסל שלי","שלי ת""א- נורדאו","אבן גבירול 157","תל אביב","6203719",NA,NA,32.0912904,34.7828509,"אבן גבירול 157,תל אביב","shufersal","private"
7290027600007,"06/07/2015",2,18,7,1,"שופרסל","שופרסל דיל","דיל חולון-קרן היסוד","קרן היסוד 1 ק.שר","חולון","5848930",NA,NA,32.015833,34.787384,"קרן היסוד 1 ק.שר,חולון","shufersal","private"
7290027600007,"06/07/2015",1,27,7,1,"שופרסל","שופרסל שלי","שלי רעננה- אחוזה","אחוזה 82","רעננה","4320945",NA,NA,32.1795509,34.8791198,"אחוזה 82,רעננה","shufersal","private"
7290027600007,"06/07/2015",1,31,7,1,"שופרסל","שופרסל שלי","שלי קרית ים- ז'בוטינסקי","ז'בוטיסקי/שד' ים","קרית ים","2901711",NA,NA,32.8397855,35.0637257,"ז'בוטיסקי/שד' ים,קרית ים","shufersal","private"
7290027600007,"06/07/2015",1,33,7,1,"שופרסל","שופרסל שלי","שלי חיפה- סטלה","טשרניחובסקי/35","חיפה","3570323",NA,NA,32.8199206,34.9743882,"טשרניחובסקי/35,חיפה","shufersal","private"
7290027600007,"06/07/2015",1,34,7,1,"שופרסל","שופרסל שלי","שלי רמת השרון- סוקולוב","סוקולוב 48","רמת-השרון","4723514",NA,NA,32.1435972,34.8376582,"סוקולוב 48,רמת-השרון","shufersal","private"
7290027600007,"06/07/2015",2,184,7,1,"שופרסל","שופרסל דיל","דילראשל""צ- זבוטינסקי","זבוטינסקי 16","ראשון לציון","",NA,NA,31.9626325,34.8002609,"זבוטינסקי 16,ראשון לציון","shufersal","private"
7290027600007,"06/07/2015",2,188,7,1,"שופרסל","שופרסל דיל","דיל ירוחם- צבי בורנשטיין","צבי בורנשטין","ירוחם","8050000",NA,NA,30.987806,34.928828,"צבי בורנשטין,ירוחם","shufersal","private"
7290027600007,"06/07/2015",1,193,7,1,"שופרסל","שופרסל שלי","שלי ראשל""צ- מזרח","שד' יעקב 50","ראשון לציון","7550903",NA,NA,31.9543371,34.8215084,"שד' יעקב 50,ראשון לציון","shufersal","private"
7290027600007,"06/07/2015",2,195,7,1,"שופרסל","שופרסל דיל","דיל קריון- דרך עכו","דרך עכו  192","קרית ביאליק","2723211",NA,NA,32.8421149,35.0888227,"דרך עכו  192,קרית ביאליק","shufersal","private"
7290027600007,"06/07/2015",2,198,7,1,"שופרסל","שופרסל דיל","דיל מישור אדומים- נביעות","נביעות 2","מעלה אדומים","9801459",NA,NA,31.7852978,35.3341628,"נביעות 2,מעלה אדומים","shufersal","private"
7290027600007,"06/07/2015",2,203,7,1,"שופרסל","שופרסל דיל","דיל רמלה לוד- הצופית","הצופית 40","רמלה","",NA,NA,31.0733155,34.8396061,"הצופית 40,רמלה","shufersal","private"
7290027600007,"06/07/2015",2,208,7,1,"שופרסל","שופרסל דיל","דיל אילת נחל אורה","ירושלים השלמה 52","אילת","",NA,NA,29.5642188,34.9452554,"ירושלים השלמה 52,אילת","shufersal","private"
7290027600007,"06/07/2015",2,210,7,1,"שופרסל","שופרסל דיל","דיל ראשל""צ- שמוטקין","שמוטקין 30","ראשון לציון","7536333",NA,NA,31.9781417,34.8127739,"שמוטקין 30,ראשון לציון","shufersal","private"
7290027600007,"06/07/2015",2,244,7,1,"שופרסל","שופרסל דיל","דיל גלילות רמת השרון","צומת גלילות","רמת השרון","47100",NA,NA,32.138564,34.818979,"צומת גלילות,רמת השרון","shufersal","private"
7290027600007,"06/07/2015",1,247,7,1,"שופרסל","שופרסל שלי","שלי חולון- רבינוביץ","רבינוביץ 58","חולון","5867256",NA,NA,31.9970115,34.7738974,"רבינוביץ 58,חולון","shufersal","private"
7290027600007,"06/07/2015",2,249,7,1,"שופרסל","שופרסל דיל","דיל נתניה- פולג","גיבורי ישראל 5","נתניה","4250409",NA,NA,32.2762486,34.8597243,"גיבורי ישראל 5,נתניה","shufersal","private"
7290027600007,"06/07/2015",2,260,7,1,"שופרסל","שופרסל דיל","דיל ירושלים-קניון תלפיות","האומן 17","ירושלים","9342111",NA,NA,31.7512745,35.2088486,"האומן 17,ירושלים","shufersal","private"
7290027600007,"06/07/2015",2,276,7,1,"שופרסל","שופרסל דיל","דיל אמט""ל רחובות","רח משה יתום  46","רחובות","76396",NA,NA,31.890702,34.7881781,"רח משה יתום  46,רחובות","shufersal","private"
7290027600007,"06/07/2015",2,283,7,1,"שופרסל","שופרסל דיל","דיל קרית עקרון- ביל""ו","מ.תדיראן,ק.עקרון","רחובות","7692000",NA,NA,31.892773,34.811272,"מ.תדיראן,ק.עקרון,רחובות","shufersal","private"
7290027600007,"06/07/2015",6,295,7,1,"שופרסל","יש חסד","יש חסד בני ברק-שלמה המלך","שלמה המלך   12","בני ברק","5155205",NA,NA,32.078581,34.8406846,"שלמה המלך   12,בני ברק","shufersal","private"
7290027600007,"06/07/2015",7,296,7,1,"שופרסל","שופרסל אקספרס","אקספרס פ""ת רחל המשוררת","רחל המשוררת 29","פתח תקוה","",NA,NA,32.0841187,34.8954631,"רחל המשוררת 29,פתח תקוה","shufersal","private"
7290027600007,"06/07/2015",6,300,7,1,"שופרסל","יש חסד","יש חסד בארות יצחק- פאוור","בארות יצחק","בארות יצחק","",NA,NA,32.039916,34.911903,"בארות יצחק,בארות יצחק","shufersal","private"
7290027600007,"06/07/2015",7,304,7,1,"שופרסל","שופרסל אקספרס","אקספרס קריית חיים","ציזלינג אהרון 24","קרית חיים","2627012",NA,NA,32.8227228,35.0756311,"ציזלינג אהרון 24,קרית חיים","shufersal","private"
7290027600007,"06/07/2015",5,307,7,1,"שופרסל","יש בשכונה","יש קרית אתא- זבולון"," רח.זבולון 4","קרית אתא","2806007",NA,NA,32.8058951,35.1034924," רח.זבולון 4,קרית אתא","shufersal","private"
7290027600007,"06/07/2015",1,308,7,1,"שופרסל","שופרסל שלי","שלי קרית אתא- איינשטין","איינשטיין 20","קרית אתא","2805152",NA,NA,32.8136307,35.1157958,"איינשטיין 20,קרית אתא","shufersal","private"
7290027600007,"06/07/2015",7,311,7,1,"שופרסל","שופרסל אקספרס","אקספרס רחובות- בוסתנאי","בוסתנאי 14","רחובות","",NA,NA,31.9034934,34.8121462,"בוסתנאי 14,רחובות","shufersal","private"
7290027600007,"06/07/2015",1,313,7,1,"שופרסל","שופרסל שלי","שלי קרית חיים-אח""י אילת","שד.אח""י אילת 20","קרית חיים","2626907",NA,NA,32.8211491,35.0703188,"שד.אח""י אילת 20,קרית חיים","shufersal","private"
7290027600007,"06/07/2015",7,318,7,1,"שופרסל","שופרסל אקספרס","אקספרס חולון - וולפסון","הלוחמים 62","חולון","",NA,NA,32.0313773,34.7706954,"הלוחמים 62,חולון","shufersal","private"
7290027600007,"06/07/2015",7,325,7,1,"שופרסל","שופרסל אקספרס","אקספרס ששתהימים נס ציונ"," - בקרוב -","נס ציונה","",NA,NA,31.932111,34.801327," - בקרוב -,נס ציונה","shufersal","private"
7290027600007,"06/07/2015",7,327,7,1,"שופרסל","שופרסל אקספרס","אקספרס חיפה- ראול ולנברג","ראול וולנברג 9","חיפה","3499009",NA,NA,32.7801718,34.9851539,"ראול וולנברג 9,חיפה","shufersal","private"
7290027600007,"06/07/2015",7,331,7,1,"שופרסל","שופרסל אקספרס","אקספרס ת""א- תוספתא","תוספתא 15","תל אביב","",NA,NA,32.0974983,34.7987269,"תוספתא 15,תל אביב","shufersal","private"
7290027600007,"06/07/2015",7,335,7,1,"שופרסל","שופרסל אקספרס","אקספרס כ""ס- בן גוריון","בן גוריון 35","כפר סבא","",NA,NA,32.1725843,34.9074262,"בן גוריון 35,כפר סבא","shufersal","private"
7290027600007,"06/07/2015",2,339,7,1,"שופרסל","שופרסל דיל","דיל טבריה- העמקים","העמקים 1","טבריה","1420401",NA,NA,32.7888469,35.5364239,"העמקים 1,טבריה","shufersal","private"
7290027600007,"06/07/2015",2,342,7,1,"שופרסל","שופרסל דיל","דיל כרמיאל- קניון לב","מורד הגיא 100","כרמיאל","2192401",NA,NA,32.908015,35.2934211,"מורד הגיא 100,כרמיאל","shufersal","private"
7290027600007,"06/07/2015",1,9,7,1,"שופרסל","שופרסל שלי","שלי נתניה- ויצמן","שד' ויצמן 27","נתניה","4225012",NA,NA,32.3314229,34.8587878,"שד' ויצמן 27,נתניה","shufersal","private"
7290027600007,"06/07/2015",1,10,7,1,"שופרסל","שופרסל שלי","שלי חולון- חנקין","חנקין  79","חולון","5834321",NA,NA,32.0190267,34.7787693,"חנקין  79,חולון","shufersal","private"
7290027600007,"06/07/2015",1,17,7,1,"שופרסל","שופרסל שלי","שלי חיפה- חורב","חורב 15","חיפה","3434119",NA,NA,32.7840733,34.9869344,"חורב 15,חיפה","shufersal","private"
7290027600007,"06/07/2015",1,19,7,1,"שופרסל","שופרסל שלי","שלי חיפה- זיו","כצנלסון/מנדל 67","חיפה","3276617",NA,NA,32.7940463,34.989571,"כצנלסון/מנדל 67,חיפה","shufersal","private"
7290027600007,"06/07/2015",5,21,7,1,"שופרסל","יש בשכונה","יש מרים ירושלים-  פארן","פארן 7 רמת אשכול","ירושלים","9780209",NA,NA,31.8012849,35.2281633,"פארן 7 רמת אשכול,ירושלים","shufersal","private"
7290027600007,"06/07/2015",1,22,7,1,"שופרסל","שופרסל שלי","שלי נתניה- סמילנסקי","סמילנסקי 13","נתניה","4243111",NA,NA,32.3272741,34.8548871,"סמילנסקי 13,נתניה","shufersal","private"
7290027600007,"06/07/2015",4,35,7,1,"שופרסל","שופרסל דיל אקסטרא","דיל אקסטרה באר-שבע ולפסו","רח' וולפסון 13","באר שבע","8489721",NA,NA,31.24568,34.8006176,"רח' וולפסון 13,באר שבע","shufersal","private"
7290027600007,"06/07/2015",1,38,7,1,"שופרסל","שופרסל שלי","שלי חיפה- דניה","ליבריה 2 דניה","חיפה","3491370",NA,NA,32.769212,35.003784,"ליבריה 2 דניה,חיפה","shufersal","private"
7290027600007,"06/07/2015",1,42,7,1,"שופרסל","שופרסל שלי","שלי ירושלים- ניות","בורלא 1 שכ.ניות","ירושלים","9371401",NA,NA,31.768303,35.202846,"בורלא 1 שכ.ניות,ירושלים","shufersal","private"
7290027600007,"06/07/2015",2,45,7,1,"שופרסל","שופרסל דיל","דיל ירושלים-תלפיות","פייר קניג 35","ירושלים","9346943",NA,NA,31.7535915,35.2141898,"פייר קניג 35,ירושלים","shufersal","private"
7290027600007,"06/07/2015",2,47,7,1,"שופרסל","שופרסל דיל","דיל קטרפילר- ההסתדרות","שדרות סתדרות 251","חיפה","2620241",NA,NA,32.8100357,35.0682247,"שדרות סתדרות 251,חיפה","shufersal","private"
7290027600007,"06/07/2015",2,49,7,1,"שופרסל","שופרסל דיל","דיל ב""ש- הר בוקר","הר בוקר  17","באר שבע","8489819",NA,NA,31.2734262,34.8102629,"הר בוקר  17,באר שבע","shufersal","private"
7290027600007,"06/07/2015",2,55,7,1,"שופרסל","שופרסל דיל","דיל כ""ס- צומת","נתיב האבות 3","כפר סבא","4427728",NA,NA,32.1750166,34.8909233,"נתיב האבות 3,כפר סבא","shufersal","private"
7290027600007,"06/07/2015",1,59,7,1,"שופרסל","שופרסל שלי","שלי פרדס חנה כרכור- הדקל","הדקלים 99","פרדס-חנה","3702195",NA,NA,32.4735228,34.9736856,"הדקלים 99,פרדס-חנה","shufersal","private"
7290027600007,"06/07/2015",5,66,7,1,"שופרסל","יש בשכונה","יש ירושלים- רמות","שד גוםדה מאיר801","ירושלים","9773314",NA,NA,31.8114813,35.2030182,"שד גוםדה מאיר801,ירושלים","shufersal","private"
7290027600007,"06/07/2015",1,67,7,1,"שופרסל","שופרסל שלי","שלי גבעת שמואל-בן גוריון","בן-גוריון 18","גבעת-שמואל","5401783",NA,NA,32.0776202,34.8467983,"בן-גוריון 18,גבעת-שמואל","shufersal","private"
7290027600007,"06/07/2015",1,69,7,1,"שופרסל","שופרסל שלי","שלי ת""א- רמת אביב ב","טאגור 38","תל אביב","6920340",NA,NA,32.1175683,34.7973838,"טאגור 38,תל אביב","shufersal","private"
7290027600007,"06/07/2015",2,74,7,1,"שופרסל","שופרסל דיל","דיל נתניה- הדרים","הכדר 2","נתניה","4237782",NA,NA,32.3237648,34.8720173,"הכדר 2,נתניה","shufersal","private"
7290027600007,"06/07/2015",2,75,7,1,"שופרסל","שופרסל דיל","דיל ירושלים- כנפי נשרים","כנפי נשרים 24","ירושלים","9546439",NA,NA,31.7877348,35.1868687,"כנפי נשרים 24,ירושלים","shufersal","private"
7290027600007,"06/07/2015",5,78,7,1,"שופרסל","יש בשכונה","יש הר נוף ירושלים-שאולזו","שאולזון 56","ירושלים","9540057",NA,NA,31.7863223,35.1739494,"שאולזון 56,ירושלים","shufersal","private"
7290027600007,"06/07/2015",1,79,7,1,"שופרסל","שופרסל שלי","שלי ראשל""צ- הנחשול","נחשול 30","ראשון לציון","7543771",NA,NA,31.9844201,34.7827907,"נחשול 30,ראשון לציון","shufersal","private"
7290027600007,"06/07/2015",2,118,7,1,"שופרסל","שופרסל דיל","דיל אילת  הסתת","הסתת 15 א תעשיה","אילת","8850415",NA,NA,29.557669,34.951925,"הסתת 15 א תעשיה,אילת","shufersal","private"
7290027600007,"06/07/2015",6,349,7,1,"שופרסל","יש חסד","יש חסד צפת- כנען","הר כנען","צפת","13200",NA,NA,32.9794444,35.5175,"הר כנען,צפת","shufersal","private"
7290027600007,"06/07/2015",2,351,7,1,"שופרסל","שופרסל דיל","דיל יבנה- הירמוך","הירמוך 1","יבנה","8122005",NA,NA,31.8877432,34.7310818,"הירמוך 1,יבנה","shufersal","private"
7290027600007,"06/07/2015",6,133,7,1,"שופרסל","יש חסד","יש חסד ביתר עילית-  הר""ן","","","9056506",NA,NA,NA,NA,",","shufersal","private"
7290027600007,"06/07/2015",1,343,7,1,"שופרסל","שופרסל שלי","שלי ראש העין- ברקן","בזק 1 פינת ברקן","ראש העין","4863016",NA,NA,32.0934717,34.9742077,"בזק 1 פינת ברקן,ראש העין","shufersal","private"
7290027600007,"06/07/2015",8,346,7,1,"שופרסל","אורגניק מרקט","אורגניק קרית אונו-ירמיהו","ירמיהו 52","קריית אונו","",NA,NA,32.0564475,34.8662055,"ירמיהו 52,קריית אונו","shufersal","private"
7290696200003,"16/13/YYYY 13:13:22",1,1,NA,1,"ויקטורי","","גן-יבנה","הכישור 8","גן יבנה","",NA,NA,31.7754984,34.7048536,"הכישור 8,גן יבנה","victory","nibit"
7290696200003,"16/12/YYYY 13:12:46",1,2,NA,1,"ויקטורי","","גדרה","פינס 3","גדרה","",NA,NA,31.8164007,34.7775192,"פינס 3,גדרה","victory","nibit"
7290696200003,"16/19/YYYY 13:19:17",1,3,NA,1,"ויקטורי","","שדרות","סמטת הפלדה 3","שדרות","",NA,NA,31.5206626,34.5944603,"סמטת הפלדה 3,שדרות","victory","nibit"
7290696200003,"14/03/YYYY 17:03:53",1,5,NA,1,"ויקטורי","","אורנית","הערבה 10","אורנית","",NA,NA,32.1298686,34.9951192,"הערבה 10,אורנית","victory","nibit"
7290696200003,"14/43/YYYY 16:43:33",1,7,NA,1,"ויקטורי","","פתח תקווה","בר כוכבא 18","פתח תקווה","",NA,NA,32.0917334,34.8854756,"בר כוכבא 18,פתח תקווה","victory","nibit"
7290696200003,"16/14/YYYY 13:14:15",1,8,NA,1,"ויקטורי","","אשדוד","דוד המלך 18","אשדוד","",NA,NA,31.7760173,34.6417835,"דוד המלך 18,אשדוד","victory","nibit"
7290696200003,"14/01/YYYY 17:01:32",1,10,NA,1,"ויקטורי","","לוד","יוספטל 23","לוד","",NA,NA,31.9463438,34.8794005,"יוספטל 23,לוד","victory","nibit"
7290696200003,"16/09/YYYY 13:09:22",1,14,NA,1,"ויקטורי","","בית שמש","הרצל 7","בית שמש","",NA,NA,31.7496446,34.9875532,"הרצל 7,בית שמש","victory","nibit"
7290696200003,"16/11/YYYY 13:11:24",1,16,NA,1,"ויקטורי","","פלורנטין","סלמה 53","תל אביב","",NA,NA,32.0549791,34.7670924,"סלמה 53,תל אביב","victory","nibit"
7290696200003,"16/14/YYYY 13:14:57",1,18,NA,1,"ויקטורי","","אשדוד 18 מהדרין","חנה סנש 1","אשדוד","",NA,NA,31.799681,34.6644439,"חנה סנש 1,אשדוד","victory","nibit"
7290696200003,"14/02/YYYY 17:02:17",1,26,NA,1,"ויקטורי","","ראש העין","שבזי 26","ראש העין","",NA,NA,32.0965077,34.9435848,"שבזי 26,ראש העין","victory","nibit"
7290696200003,"16/08/YYYY 13:08:30",1,28,NA,1,"ויקטורי","","גני תקווה","הכרמל 20","גני תקווה","",NA,NA,32.0588167,34.8802717,"הכרמל 20,גני תקווה","victory","nibit"
7290696200003,"14/03/YYYY 17:03:03",1,30,NA,1,"ויקטורי","","אלקנה","שיר השירים 75/1","אלקנה","",NA,NA,32.112826,35.0271242,"שיר השירים 75/1,אלקנה","victory","nibit"
7290696200003,"14/40/YYYY 16:40:18",1,34,NA,1,"ויקטורי","","מוצקין","שד ירושלים 1","קרית מוצקין","",NA,NA,32.835235,35.0652402,"שד ירושלים 1,קרית מוצקין","victory","nibit"
7290696200003,"14/42/YYYY 16:42:04",1,36,NA,1,"ויקטורי","","כפר-סבא","נתיב האבות 14","כפר סבא","",NA,NA,32.1750166,34.8909233,"נתיב האבות 14,כפר סבא","victory","nibit"
7290696200003,"16/16/YYYY 13:16:19",1,41,NA,1,"ויקטורי","","ברנע","רחבעם זאבי ","אשקלון","",NA,NA,31.6976661,34.5747227,"רחבעם זאבי ,אשקלון","victory","nibit"
7290696200003,"14/41/YYYY 16:41:04",1,43,NA,1,"ויקטורי","","רכסים","הכלניות 49","רכסים","",NA,NA,32.7537633,35.102368,"הכלניות 49,רכסים","victory","nibit"
7290696200003,"16/10/YYYY 13:10:50",1,44,NA,1,"ויקטורי","","לינקולן תל אביב","לינקולן 16","תל-אביב","67134",NA,NA,32.0666183,34.7821853,"לינקולן 16,תל-אביב","victory","nibit"
7290696200003,"16/15/YYYY 13:15:37",1,52,NA,1,"ויקטורי","","אשקלון","בן צבי 8","אשקלון","",NA,NA,31.6760091,34.575068,"בן צבי 8,אשקלון","victory","nibit"
7290696200003,"16/17/YYYY 13:17:09",1,54,NA,1,"ויקטורי","","קרית מלאכי","זבוטינסקי 8","קרית מלאכי","",NA,NA,31.7268585,34.744881,"זבוטינסקי 8,קרית מלאכי","victory","nibit"
7290696200003,"16/17/YYYY 13:17:56",1,55,NA,1,"ויקטורי","","קרית גת","הגפן 3","קרית גת","",NA,NA,31.6068029,34.7700602,"הגפן 3,קרית גת","victory","nibit"
7290696200003,"16/12/YYYY 13:12:10",1,61,NA,1,"ויקטורי","","אוניברסיטה ת""א","גורג וויז 1","תל אביב","",NA,NA,32.1070369,34.8022335,"גורג וויז 1,תל אביב","victory","nibit"
7290696200003,"16/10/YYYY 13:10:13",1,62,NA,1,"ויקטורי","","תל-אביב","אחד העם 13","תל אביב","",NA,NA,32.0637448,34.770768,"אחד העם 13,תל אביב","victory","nibit"
7290696200003,"16/20/YYYY 13:20:16",1,68,NA,1,"ויקטורי","","באר שבע","בן גוריון 15","באר שבע","",NA,NA,31.0693125,35.0346357,"בן גוריון 15,באר שבע","victory","nibit"
7290696200003,"16/19/YYYY 13:19:47",1,72,NA,1,"ויקטורי","","קרית גת ביג ","דרך הדרום 3","קרית גת","82021",NA,NA,31.6034093,34.7716316,"דרך הדרום 3,קרית גת","victory","nibit"
7290696200003,"14/55/YYYY 16:55:44",1,77,NA,3,"ויקטורי","","לוד נתב""ג","פסח לב 2","לוד","",NA,NA,31.9683348,34.8976562,"פסח לב 2,לוד","victory","nibit"
7290696200003,"14/45/YYYY 16:45:02",1,78,NA,1,"ויקטורי","","רמלה","הרצל 91","רמלה","",NA,NA,31.9262414,34.8762544,"הרצל 91,רמלה","victory","nibit"
7290696200003,"14/40/YYYY 16:40:10",1,86,NA,1,"ויקטורי","","טבעון","המרווה 1","טבעון","",NA,NA,32.7280438,35.1382494,"המרווה 1,טבעון","victory","nibit"
7290696200003,"14/42/YYYY 16:42:53",1,90,NA,0,"ויקטורי","","נתניה","האורזים 4","נתניה","42377",NA,NA,32.3219229,34.8717951,"האורזים 4,נתניה","victory","nibit"
7290661400001,"22/41/YYYY 08:41:36",1,1,NA,1,"מחסני השוק","","1 ב""ש-בית אשל","בית אשל 1","באר שבע","",NA,NA,31.2366974,34.791093,"בית אשל 1,באר שבע","hashook","nibit"
7290661400001,"22/44/YYYY 08:44:45",1,11,NA,1,"מחסני השוק","","11  עין יהב","ד.נ.ערבה 86820","עין יהב","",NA,NA,30.658757,35.239656,"ד.נ.ערבה 86820,עין יהב","hashook","nibit"
7290661400001,"22/47/YYYY 08:47:36",1,15,NA,1,"מחסני השוק","","15  שכונה ט","שד` ירושלים 10","באר שבע","",NA,NA,31.2455038,34.7799282,"שד` ירושלים 10,באר שבע","hashook","nibit"
7290661400001,"22/50/YYYY 08:50:52",1,20,NA,1,"מחסני השוק","","20 להבים","מרכז מסחרי להבים ","להבים","",NA,NA,31.373835,34.816952,"מרכז מסחרי להבים ,להבים","hashook","nibit"
7290661400001,"22/05/YYYY 09:05:38",1,30,NA,1,"מחסני השוק","","30 נווה זאב","מאפו 7","באר שבע","",NA,NA,31.2363071,34.7752745,"מאפו 7,באר שבע","hashook","nibit"
7290661400001,"22/05/YYYY 09:05:27",1,40,NA,1,"מחסני השוק","","40 אופקים","יהדות דרום אפריקה 14","אופקים","87573",NA,NA,31.3151329,34.6231551,"יהדות דרום אפריקה 14,אופקים","hashook","nibit"
7290661400001,"22/02/YYYY 09:02:25",1,50,NA,1,"מחסני השוק","","50 רד""ק","רחבת רד""ק 28","באר שבע","",NA,NA,31.2565534,34.7719766,"רחבת רד""ק 28,באר שבע","hashook","nibit"
7290661400001,"22/20/YYYY 09:20:54",1,55,NA,1,"מחסני השוק","","55  יד בנימין","יד בנימין ","יד בנימין","",NA,NA,31.797648,34.821059,"יד בנימין ,יד בנימין","hashook","nibit"
7290661400001,"22/05/YYYY 09:05:09",1,60,NA,1,"מחסני השוק","","60 דימונה","מרכז פרץ סנטר ","דימונה","",NA,NA,31.0599108,35.0202534,"מרכז פרץ סנטר ,דימונה","hashook","nibit"
7290661400001,"22/45/YYYY 09:45:02",1,65,NA,1,"מחסני השוק","","65 קרית אתא","חנקין 1","קרית אתא","28212",NA,NA,32.8123531,35.1058221,"חנקין 1,קרית אתא","hashook","nibit"
7290661400001,"22/09/YYYY 09:09:33",1,70,NA,1,"מחסני השוק","","70 אורגים","האורגים 7","באר שבע","",NA,NA,31.2547341,34.8178123,"האורגים 7,באר שבע","hashook","nibit"
7290661400001,"22/26/YYYY 09:26:25",1,71,NA,1,"מחסני השוק","","71 קריית מלאכי","צה""ל 1","קרית מלאכי","",NA,NA,31.7328827,34.745154,"צה""ל 1,קרית מלאכי","hashook","nibit"
7290661400001,"22/33/YYYY 09:33:38",1,72,NA,1,"מחסני השוק","","72 אשדוד הפלמ""ח (ג)","הפלמ""ח 20","אשדוד","77376",NA,NA,31.8007536,34.6627421,"הפלמ""ח 20,אשדוד","hashook","nibit"
7290661400001,"22/37/YYYY 09:37:01",1,75,NA,1,"מחסני השוק","","75 טבריה הדר","יהודה הלוי 113","טבריה","14246",NA,NA,32.7887659,35.5338213,"יהודה הלוי 113,טבריה","hashook","nibit"
7290661400001,"22/39/YYYY 09:39:09",1,76,NA,1,"מחסני השוק","","76 צפת","לוחמי הגטאות 1","צפת","13401",NA,NA,32.9577936,35.5004662,"לוחמי הגטאות 1,צפת","hashook","nibit"
7290661400001,"22/42/YYYY 09:42:59",1,77,NA,1,"מחסני השוק","","77 קרית גת","דרך הדרום 1","קרית גת","82021",NA,NA,31.6026245,34.772228,"דרך הדרום 1,קרית גת","hashook","nibit"
7290661400001,"22/13/YYYY 09:13:10",1,80,NA,1,"מחסני השוק","","80 המשחררים","דרך המשחררים 100","באר שבע","",NA,NA,31.2492678,34.7839255,"דרך המשחררים 100,באר שבע","hashook","nibit"
7290661400001,"22/16/YYYY 09:16:00",1,81,NA,1,"מחסני השוק","","81 מבצע עובדה- מצדה","מבצע עובדה 2","באר שבע","",NA,NA,31.2595168,34.7804237,"מבצע עובדה 2,באר שבע","hashook","nibit"
7290661400001,"01/00/YYYY 00:00:00",1,90,NA,0,"מחסני השוק","","90 מרלוג-מרכז רשת"," ","","",NA,NA,NA,NA," ,","hashook","nibit"
7290661400001,"22/23/YYYY 09:23:22",1,91,NA,1,"מחסני השוק","","91 זבוטינסקי","ז`בוטינסקי 128","רמת גן","52602",NA,NA,32.0903922,34.8211182,"ז`בוטינסקי 128,רמת גן","hashook","nibit"
7290661400001,"22/18/YYYY 09:18:22",1,98,NA,1,"מחסני השוק","","אילת 98","הספן 1","אילת","",NA,NA,29.5709391,34.9585145,"הספן 1,אילת","hashook","nibit"
7290058179503,"21/37/YYYY 17:37:22",1,1,NA,1,"מחסני להב","","חולון","הלוחמים 1","תל אביב","",NA,NA,32.0365903,34.7611469,"הלוחמים 1,תל אביב","lahav","nibit"
7290058179503,"21/37/YYYY 17:37:55",1,10,NA,1,"מחסני להב","","אשדוד","שהם רובע י""ז 2","אשדוד","",NA,NA,31.766216,34.6315423,"שהם רובע י""ז 2,אשדוד","lahav","nibit"
7290058179503,"21/38/YYYY 17:38:27",1,11,NA,1,"מחסני להב","","באר שבע","שדרות דוד טוביה 125","באר שבע","",NA,NA,31.252973,34.791462,"שדרות דוד טוביה 125,באר שבע","lahav","nibit"
7290058179503,"21/38/YYYY 17:38:46",1,15,NA,1,"מחסני להב","","רגבה","חוצות רגבה 5","רגבה","",NA,NA,32.9775456,35.0945049,"חוצות רגבה 5,רגבה","lahav","nibit"
7290058179503,"21/39/YYYY 17:39:05",1,20,NA,1,"מחסני להב","","נתניה","הרצל 58","נתניה","",NA,NA,32.3271607,34.8611565,"הרצל 58,נתניה","lahav","nibit"
7290058179503,"21/39/YYYY 17:39:24",1,25,NA,1,"מחסני להב","","רמת אביב","איינשטיין 64","תל אביב","",NA,NA,32.1131486,34.7996716,"איינשטיין 64,תל אביב","lahav","nibit"
7290058179503,"21/40/YYYY 17:40:29",1,30,NA,1,"מחסני להב","","חיפה","ההסתדרות 248","קרית אתא","",NA,NA,32.8098729,35.0729713,"ההסתדרות 248,קרית אתא","lahav","nibit"
7290058179503,"21/40/YYYY 17:40:47",1,40,NA,1,"מחסני להב","","נצרת","חרוד 1","נצרת עלית","",NA,NA,32.6934332,35.3137937,"חרוד 1,נצרת עלית","lahav","nibit"
7290058179503,"21/41/YYYY 17:41:01",1,45,NA,1,"מחסני להב","","מוצקין","דרך עכו 165","קרית מוצקין","26412",NA,NA,32.841197,35.0877372,"דרך עכו 165,קרית מוצקין","lahav","nibit"
7290058179503,"21/41/YYYY 17:41:26",1,50,NA,1,"מחסני להב","","סיביניה","קרן היסוד 62","קרית ביאליק","",NA,NA,32.8343112,35.0879286,"קרן היסוד 62,קרית ביאליק","lahav","nibit"
7290058179503,"21/41/YYYY 17:41:53",1,60,NA,1,"מחסני להב","","רמז","זלמן שניאור 1","חיפה רמות רמז","",NA,NA,32.775721,35.0087778,"זלמן שניאור 1,חיפה רמות רמז","lahav","nibit"
7290058179503,"21/42/YYYY 17:42:11",1,65,NA,1,"מחסני להב","","קרית ים 65","ברזילי 1","קרית ים","",NA,NA,32.8381319,35.0599138,"ברזילי 1,קרית ים","lahav","nibit"
7290058179503,"21/42/YYYY 17:42:40",1,75,NA,1,"מחסני להב","","נתניה א.תעשיה","הקדר 6","נתניה","",NA,NA,32.3227823,34.8757937,"הקדר 6,נתניה","lahav","nibit"
7290058179503,"21/42/YYYY 17:42:59",1,85,NA,1,"מחסני להב","","כצנלסון","שדרות כצנלסון 10","קרית אתא","",NA,NA,32.8036392,35.1081007,"שדרות כצנלסון 10,קרית אתא","lahav","nibit"
